<?xml version="1.0" encoding="UTF-8"?>
<gpx version="1.1" creator="Send-It tkk-to-gpx (Harry's LapTimer .tkk)">
  <trk><name>anglesey</name><trkseg>
    <trkpt lat="53.18837240" lon="-4.49638920"></trkpt>
    <trkpt lat="53.18840230" lon="-4.49616370"></trkpt>
    <trkpt lat="53.18840500" lon="-4.49614310"></trkpt>
    <trkpt lat="53.18855000" lon="-4.49515560"></trkpt>
    <trkpt lat="53.18859200" lon="-4.49497280"></trkpt>
    <trkpt lat="53.18864070" lon="-4.49481700"></trkpt>
    <trkpt lat="53.18870050" lon="-4.49467270"></trkpt>
    <trkpt lat="53.18876880" lon="-4.49454080"></trkpt>
    <trkpt lat="53.18883230" lon="-4.49443830"></trkpt>
    <trkpt lat="53.18890340" lon="-4.49434810"></trkpt>
    <trkpt lat="53.18898110" lon="-4.49427370"></trkpt>
    <trkpt lat="53.18906930" lon="-4.49421220"></trkpt>
    <trkpt lat="53.18918010" lon="-4.49416210"></trkpt>
    <trkpt lat="53.18929720" lon="-4.49412960"></trkpt>
    <trkpt lat="53.18939790" lon="-4.49411580"></trkpt>
    <trkpt lat="53.18950670" lon="-4.49412150"></trkpt>
    <trkpt lat="53.18994050" lon="-4.49427320"></trkpt>
    <trkpt lat="53.19074240" lon="-4.49468630"></trkpt>
    <trkpt lat="53.19094700" lon="-4.49476410"></trkpt>
    <trkpt lat="53.19101560" lon="-4.49477750"></trkpt>
    <trkpt lat="53.19107720" lon="-4.49478020"></trkpt>
    <trkpt lat="53.19112050" lon="-4.49477340"></trkpt>
    <trkpt lat="53.19115980" lon="-4.49475860"></trkpt>
    <trkpt lat="53.19119860" lon="-4.49473360"></trkpt>
    <trkpt lat="53.19123380" lon="-4.49470070"></trkpt>
    <trkpt lat="53.19126800" lon="-4.49465680"></trkpt>
    <trkpt lat="53.19129720" lon="-4.49460600"></trkpt>
    <trkpt lat="53.19132320" lon="-4.49454190"></trkpt>
    <trkpt lat="53.19134280" lon="-4.49447450"></trkpt>
    <trkpt lat="53.19135570" lon="-4.49441240"></trkpt>
    <trkpt lat="53.19136320" lon="-4.49435220"></trkpt>
    <trkpt lat="53.19136540" lon="-4.49430280"></trkpt>
    <trkpt lat="53.19136330" lon="-4.49425460"></trkpt>
    <trkpt lat="53.19135670" lon="-4.49420610"></trkpt>
    <trkpt lat="53.19134480" lon="-4.49415500"></trkpt>
    <trkpt lat="53.19131880" lon="-4.49407590"></trkpt>
    <trkpt lat="53.19128460" lon="-4.49399450"></trkpt>
    <trkpt lat="53.19124660" lon="-4.49392150"></trkpt>
    <trkpt lat="53.19120170" lon="-4.49385300"></trkpt>
    <trkpt lat="53.19114900" lon="-4.49379020"></trkpt>
    <trkpt lat="53.19108590" lon="-4.49372990"></trkpt>
    <trkpt lat="53.19086800" lon="-4.49357280"></trkpt>
    <trkpt lat="53.18950400" lon="-4.49278200"></trkpt>
    <trkpt lat="53.18925850" lon="-4.49267540"></trkpt>
    <trkpt lat="53.18906620" lon="-4.49263710"></trkpt>
    <trkpt lat="53.18888320" lon="-4.49263910"></trkpt>
    <trkpt lat="53.18871050" lon="-4.49268270"></trkpt>
    <trkpt lat="53.18857550" lon="-4.49274640"></trkpt>
    <trkpt lat="53.18841420" lon="-4.49287040"></trkpt>
    <trkpt lat="53.18829690" lon="-4.49299890"></trkpt>
    <trkpt lat="53.18824460" lon="-4.49307470"></trkpt>
    <trkpt lat="53.18819610" lon="-4.49315940"></trkpt>
    <trkpt lat="53.18808530" lon="-4.49341170"></trkpt>
    <trkpt lat="53.18798590" lon="-4.49371650"></trkpt>
    <trkpt lat="53.18790180" lon="-4.49406800"></trkpt>
    <trkpt lat="53.18779850" lon="-4.49463570"></trkpt>
    <trkpt lat="53.18772930" lon="-4.49517450"></trkpt>
    <trkpt lat="53.18765890" lon="-4.49596220"></trkpt>
    <trkpt lat="53.18762360" lon="-4.49659450"></trkpt>
    <trkpt lat="53.18761230" lon="-4.49732610"></trkpt>
    <trkpt lat="53.18762170" lon="-4.49773010"></trkpt>
    <trkpt lat="53.18765150" lon="-4.49812960"></trkpt>
    <trkpt lat="53.18771480" lon="-4.49862970"></trkpt>
    <trkpt lat="53.18778730" lon="-4.49902850"></trkpt>
    <trkpt lat="53.18790430" lon="-4.49950500"></trkpt>
    <trkpt lat="53.18805970" lon="-4.50001820"></trkpt>
    <trkpt lat="53.18819980" lon="-4.50039150"></trkpt>
    <trkpt lat="53.18834850" lon="-4.50070680"></trkpt>
    <trkpt lat="53.18853100" lon="-4.50102990"></trkpt>
    <trkpt lat="53.18875880" lon="-4.50137160"></trkpt>
    <trkpt lat="53.18913030" lon="-4.50186340"></trkpt>
    <trkpt lat="53.18917590" lon="-4.50194600"></trkpt>
    <trkpt lat="53.18920680" lon="-4.50202090"></trkpt>
    <trkpt lat="53.18923260" lon="-4.50210470"></trkpt>
    <trkpt lat="53.18924990" lon="-4.50218760"></trkpt>
    <trkpt lat="53.18925790" lon="-4.50225630"></trkpt>
    <trkpt lat="53.18925920" lon="-4.50232010"></trkpt>
    <trkpt lat="53.18925720" lon="-4.50235170"></trkpt>
    <trkpt lat="53.18925310" lon="-4.50238140"></trkpt>
    <trkpt lat="53.18924640" lon="-4.50240960"></trkpt>
    <trkpt lat="53.18923840" lon="-4.50243410"></trkpt>
    <trkpt lat="53.18922820" lon="-4.50245740"></trkpt>
    <trkpt lat="53.18921330" lon="-4.50248180"></trkpt>
    <trkpt lat="53.18915440" lon="-4.50254570"></trkpt>
    <trkpt lat="53.18908130" lon="-4.50261170"></trkpt>
    <trkpt lat="53.18892800" lon="-4.50273820"></trkpt>
    <trkpt lat="53.18889300" lon="-4.50278150"></trkpt>
    <trkpt lat="53.18886550" lon="-4.50282610"></trkpt>
    <trkpt lat="53.18884000" lon="-4.50287840"></trkpt>
    <trkpt lat="53.18881950" lon="-4.50293400"></trkpt>
    <trkpt lat="53.18880340" lon="-4.50299350"></trkpt>
    <trkpt lat="53.18879310" lon="-4.50305410"></trkpt>
    <trkpt lat="53.18878950" lon="-4.50311140"></trkpt>
    <trkpt lat="53.18879190" lon="-4.50316880"></trkpt>
    <trkpt lat="53.18879730" lon="-4.50321070"></trkpt>
    <trkpt lat="53.18880570" lon="-4.50325300"></trkpt>
    <trkpt lat="53.18881670" lon="-4.50329180"></trkpt>
    <trkpt lat="53.18882740" lon="-4.50332020"></trkpt>
    <trkpt lat="53.18883990" lon="-4.50334610"></trkpt>
    <trkpt lat="53.18885540" lon="-4.50337080"></trkpt>
    <trkpt lat="53.18888960" lon="-4.50341090"></trkpt>
    <trkpt lat="53.18892770" lon="-4.50344350"></trkpt>
    <trkpt lat="53.18895410" lon="-4.50345880"></trkpt>
    <trkpt lat="53.18898270" lon="-4.50346740"></trkpt>
    <trkpt lat="53.18902280" lon="-4.50346800"></trkpt>
    <trkpt lat="53.18907520" lon="-4.50346040"></trkpt>
    <trkpt lat="53.18957040" lon="-4.50334940"></trkpt>
    <trkpt lat="53.19003100" lon="-4.50323670"></trkpt>
    <trkpt lat="53.19020270" lon="-4.50317060"></trkpt>
    <trkpt lat="53.19032800" lon="-4.50309020"></trkpt>
    <trkpt lat="53.19037110" lon="-4.50304870"></trkpt>
    <trkpt lat="53.19040980" lon="-4.50300210"></trkpt>
    <trkpt lat="53.19045540" lon="-4.50293720"></trkpt>
    <trkpt lat="53.19049570" lon="-4.50286780"></trkpt>
    <trkpt lat="53.19052360" lon="-4.50280640"></trkpt>
    <trkpt lat="53.19054470" lon="-4.50274360"></trkpt>
    <trkpt lat="53.19055950" lon="-4.50267740"></trkpt>
    <trkpt lat="53.19056860" lon="-4.50260770"></trkpt>
    <trkpt lat="53.19057340" lon="-4.50252070"></trkpt>
    <trkpt lat="53.19057210" lon="-4.50243280"></trkpt>
    <trkpt lat="53.19056640" lon="-4.50236120"></trkpt>
    <trkpt lat="53.19055470" lon="-4.50228750"></trkpt>
    <trkpt lat="53.19052740" lon="-4.50217420"></trkpt>
    <trkpt lat="53.19049150" lon="-4.50205820"></trkpt>
    <trkpt lat="53.19045510" lon="-4.50196280"></trkpt>
    <trkpt lat="53.19041250" lon="-4.50187200"></trkpt>
    <trkpt lat="53.19030230" lon="-4.50169580"></trkpt>
    <trkpt lat="53.19007750" lon="-4.50142520"></trkpt>
    <trkpt lat="53.18946610" lon="-4.50077310"></trkpt>
    <trkpt lat="53.18934880" lon="-4.50061270"></trkpt>
    <trkpt lat="53.18926230" lon="-4.50047020"></trkpt>
    <trkpt lat="53.18921230" lon="-4.50037170"></trkpt>
    <trkpt lat="53.18917390" lon="-4.50027580"></trkpt>
    <trkpt lat="53.18914300" lon="-4.50017480"></trkpt>
    <trkpt lat="53.18912060" lon="-4.50007180"></trkpt>
    <trkpt lat="53.18910710" lon="-4.49996710"></trkpt>
    <trkpt lat="53.18910140" lon="-4.49986440"></trkpt>
    <trkpt lat="53.18910200" lon="-4.49977890"></trkpt>
    <trkpt lat="53.18910920" lon="-4.49969540"></trkpt>
    <trkpt lat="53.18912450" lon="-4.49960800"></trkpt>
    <trkpt lat="53.18914790" lon="-4.49952190"></trkpt>
    <trkpt lat="53.18917870" lon="-4.49943990"></trkpt>
    <trkpt lat="53.18922010" lon="-4.49935860"></trkpt>
    <trkpt lat="53.18928490" lon="-4.49926160"></trkpt>
    <trkpt lat="53.18937340" lon="-4.49915880"></trkpt>
    <trkpt lat="53.18984580" lon="-4.49876890"></trkpt>
    <trkpt lat="53.19130950" lon="-4.49771120"></trkpt>
    <trkpt lat="53.19227640" lon="-4.49702120"></trkpt>
    <trkpt lat="53.19245760" lon="-4.49687730"></trkpt>
    <trkpt lat="53.19250140" lon="-4.49682630"></trkpt>
    <trkpt lat="53.19253610" lon="-4.49677430"></trkpt>
    <trkpt lat="53.19256590" lon="-4.49672000"></trkpt>
    <trkpt lat="53.19259010" lon="-4.49666150"></trkpt>
    <trkpt lat="53.19261110" lon="-4.49658590"></trkpt>
    <trkpt lat="53.19262510" lon="-4.49651050"></trkpt>
    <trkpt lat="53.19263120" lon="-4.49645860"></trkpt>
    <trkpt lat="53.19263180" lon="-4.49640940"></trkpt>
    <trkpt lat="53.19262870" lon="-4.49637670"></trkpt>
    <trkpt lat="53.19262300" lon="-4.49634430"></trkpt>
    <trkpt lat="53.19261490" lon="-4.49631310"></trkpt>
    <trkpt lat="53.19259900" lon="-4.49627010"></trkpt>
    <trkpt lat="53.19257800" lon="-4.49623080"></trkpt>
    <trkpt lat="53.19255370" lon="-4.49619770"></trkpt>
    <trkpt lat="53.19252460" lon="-4.49617030"></trkpt>
    <trkpt lat="53.19249100" lon="-4.49615140"></trkpt>
    <trkpt lat="53.19245180" lon="-4.49613940"></trkpt>
    <trkpt lat="53.19238870" lon="-4.49613340"></trkpt>
    <trkpt lat="53.19232080" lon="-4.49613780"></trkpt>
    <trkpt lat="53.19219220" lon="-4.49617770"></trkpt>
    <trkpt lat="53.19198160" lon="-4.49630200"></trkpt>
    <trkpt lat="53.19105450" lon="-4.49692690"></trkpt>
    <trkpt lat="53.18955750" lon="-4.49789250"></trkpt>
    <trkpt lat="53.18880800" lon="-4.49836480"></trkpt>
    <trkpt lat="53.18871370" lon="-4.49840320"></trkpt>
    <trkpt lat="53.18863650" lon="-4.49842070"></trkpt>
    <trkpt lat="53.18857870" lon="-4.49842390"></trkpt>
    <trkpt lat="53.18852510" lon="-4.49841610"></trkpt>
    <trkpt lat="53.18847510" lon="-4.49839690"></trkpt>
    <trkpt lat="53.18842870" lon="-4.49836680"></trkpt>
    <trkpt lat="53.18838030" lon="-4.49831700"></trkpt>
    <trkpt lat="53.18833850" lon="-4.49825780"></trkpt>
    <trkpt lat="53.18830570" lon="-4.49819690"></trkpt>
    <trkpt lat="53.18827960" lon="-4.49813060"></trkpt>
    <trkpt lat="53.18825720" lon="-4.49805040"></trkpt>
    <trkpt lat="53.18824100" lon="-4.49795890"></trkpt>
    <trkpt lat="53.18822630" lon="-4.49777310"></trkpt>
    <trkpt lat="53.18823570" lon="-4.49753580"></trkpt>
    <trkpt lat="53.18829560" lon="-4.49696750"></trkpt>
    <trkpt lat="53.18837240" lon="-4.49638920"></trkpt>
  </trkseg></trk>
</gpx>
