<?xml version="1.0" encoding="UTF-8"?>
<gpx version="1.1" creator="Send-It ztracks">
  <trk><name>Old Beach, Brighton</name><trkseg>
    <trkpt lat="-42.74647030" lon="147.29473020"></trkpt>
    <trkpt lat="-42.74561550" lon="147.29547880"></trkpt>
    <trkpt lat="-42.74542030" lon="147.29566940"></trkpt>
    <trkpt lat="-42.74534270" lon="147.29575170"></trkpt>
    <trkpt lat="-42.74528980" lon="147.29581650"></trkpt>
    <trkpt lat="-42.74527540" lon="147.29584330"></trkpt>
    <trkpt lat="-42.74526340" lon="147.29587100"></trkpt>
    <trkpt lat="-42.74524100" lon="147.29593240"></trkpt>
    <trkpt lat="-42.74522270" lon="147.29599940"></trkpt>
    <trkpt lat="-42.74520940" lon="147.29607240"></trkpt>
    <trkpt lat="-42.74520110" lon="147.29614910"></trkpt>
    <trkpt lat="-42.74519880" lon="147.29622880"></trkpt>
    <trkpt lat="-42.74520630" lon="147.29635230"></trkpt>
    <trkpt lat="-42.74523620" lon="147.29654420"></trkpt>
    <trkpt lat="-42.74533180" lon="147.29691530"></trkpt>
    <trkpt lat="-42.74541210" lon="147.29714110"></trkpt>
    <trkpt lat="-42.74544300" lon="147.29720990"></trkpt>
    <trkpt lat="-42.74547660" lon="147.29727380"></trkpt>
    <trkpt lat="-42.74551480" lon="147.29733180"></trkpt>
    <trkpt lat="-42.74555700" lon="147.29738160"></trkpt>
    <trkpt lat="-42.74560350" lon="147.29742130"></trkpt>
    <trkpt lat="-42.74565260" lon="147.29745090"></trkpt>
    <trkpt lat="-42.74570260" lon="147.29747100"></trkpt>
    <trkpt lat="-42.74575390" lon="147.29748120"></trkpt>
    <trkpt lat="-42.74580520" lon="147.29748040"></trkpt>
    <trkpt lat="-42.74585620" lon="147.29746880"></trkpt>
    <trkpt lat="-42.74589320" lon="147.29745250"></trkpt>
    <trkpt lat="-42.74592880" lon="147.29743160"></trkpt>
    <trkpt lat="-42.74595140" lon="147.29741380"></trkpt>
    <trkpt lat="-42.74597220" lon="147.29739220"></trkpt>
    <trkpt lat="-42.74600000" lon="147.29735530"></trkpt>
    <trkpt lat="-42.74602510" lon="147.29731470"></trkpt>
    <trkpt lat="-42.74603990" lon="147.29728430"></trkpt>
    <trkpt lat="-42.74605200" lon="147.29725350"></trkpt>
    <trkpt lat="-42.74607150" lon="147.29718640"></trkpt>
    <trkpt lat="-42.74608470" lon="147.29711620"></trkpt>
    <trkpt lat="-42.74611900" lon="147.29681850"></trkpt>
    <trkpt lat="-42.74613860" lon="147.29674890"></trkpt>
    <trkpt lat="-42.74616460" lon="147.29668170"></trkpt>
    <trkpt lat="-42.74619960" lon="147.29662160"></trkpt>
    <trkpt lat="-42.74621850" lon="147.29659480"></trkpt>
    <trkpt lat="-42.74624100" lon="147.29656850"></trkpt>
    <trkpt lat="-42.74628820" lon="147.29652510"></trkpt>
    <trkpt lat="-42.74634070" lon="147.29648640"></trkpt>
    <trkpt lat="-42.74642120" lon="147.29645190"></trkpt>
    <trkpt lat="-42.74651880" lon="147.29642470"></trkpt>
    <trkpt lat="-42.74663760" lon="147.29641530"></trkpt>
    <trkpt lat="-42.74681200" lon="147.29643050"></trkpt>
    <trkpt lat="-42.74686320" lon="147.29644530"></trkpt>
    <trkpt lat="-42.74691520" lon="147.29647070"></trkpt>
    <trkpt lat="-42.74696390" lon="147.29650520"></trkpt>
    <trkpt lat="-42.74700770" lon="147.29655030"></trkpt>
    <trkpt lat="-42.74704530" lon="147.29660550"></trkpt>
    <trkpt lat="-42.74707580" lon="147.29666890"></trkpt>
    <trkpt lat="-42.74709890" lon="147.29673970"></trkpt>
    <trkpt lat="-42.74711470" lon="147.29681560"></trkpt>
    <trkpt lat="-42.74712520" lon="147.29690980"></trkpt>
    <trkpt lat="-42.74712890" lon="147.29701930"></trkpt>
    <trkpt lat="-42.74711890" lon="147.29714620"></trkpt>
    <trkpt lat="-42.74709690" lon="147.29727540"></trkpt>
    <trkpt lat="-42.74706510" lon="147.29739790"></trkpt>
    <trkpt lat="-42.74701730" lon="147.29752800"></trkpt>
    <trkpt lat="-42.74673510" lon="147.29805720"></trkpt>
    <trkpt lat="-42.74596030" lon="147.29943220"></trkpt>
    <trkpt lat="-42.74589410" lon="147.29951780"></trkpt>
    <trkpt lat="-42.74584660" lon="147.29956440"></trkpt>
    <trkpt lat="-42.74574560" lon="147.29963200"></trkpt>
    <trkpt lat="-42.74569270" lon="147.29965450"></trkpt>
    <trkpt lat="-42.74559060" lon="147.29967270"></trkpt>
    <trkpt lat="-42.74554370" lon="147.29967160"></trkpt>
    <trkpt lat="-42.74545580" lon="147.29965190"></trkpt>
    <trkpt lat="-42.74534960" lon="147.29961380"></trkpt>
    <trkpt lat="-42.74523530" lon="147.29955010"></trkpt>
    <trkpt lat="-42.74510360" lon="147.29945460"></trkpt>
    <trkpt lat="-42.74434710" lon="147.29875860"></trkpt>
    <trkpt lat="-42.74406540" lon="147.29848080"></trkpt>
    <trkpt lat="-42.74395060" lon="147.29831790"></trkpt>
    <trkpt lat="-42.74391880" lon="147.29825860"></trkpt>
    <trkpt lat="-42.74388150" lon="147.29816310"></trkpt>
    <trkpt lat="-42.74384060" lon="147.29802940"></trkpt>
    <trkpt lat="-42.74383520" lon="147.29799470"></trkpt>
    <trkpt lat="-42.74382480" lon="147.29784800"></trkpt>
    <trkpt lat="-42.74382810" lon="147.29777150"></trkpt>
    <trkpt lat="-42.74384220" lon="147.29766370"></trkpt>
    <trkpt lat="-42.74386770" lon="147.29753710"></trkpt>
    <trkpt lat="-42.74391400" lon="147.29738740"></trkpt>
    <trkpt lat="-42.74397950" lon="147.29722190"></trkpt>
    <trkpt lat="-42.74429830" lon="147.29658810"></trkpt>
    <trkpt lat="-42.74442030" lon="147.29633260"></trkpt>
    <trkpt lat="-42.74467960" lon="147.29581590"></trkpt>
    <trkpt lat="-42.74488650" lon="147.29537500"></trkpt>
    <trkpt lat="-42.74511280" lon="147.29494440"></trkpt>
    <trkpt lat="-42.74590120" lon="147.29330290"></trkpt>
    <trkpt lat="-42.74640010" lon="147.29227690"></trkpt>
    <trkpt lat="-42.74643630" lon="147.29222200"></trkpt>
    <trkpt lat="-42.74647820" lon="147.29217100"></trkpt>
    <trkpt lat="-42.74652570" lon="147.29212590"></trkpt>
    <trkpt lat="-42.74657840" lon="147.29208890"></trkpt>
    <trkpt lat="-42.74663540" lon="147.29206420"></trkpt>
    <trkpt lat="-42.74668770" lon="147.29204710"></trkpt>
    <trkpt lat="-42.74671080" lon="147.29204480"></trkpt>
    <trkpt lat="-42.74680360" lon="147.29205260"></trkpt>
    <trkpt lat="-42.74684920" lon="147.29206750"></trkpt>
    <trkpt lat="-42.74693690" lon="147.29211770"></trkpt>
    <trkpt lat="-42.74697800" lon="147.29215150"></trkpt>
    <trkpt lat="-42.74703100" lon="147.29220960"></trkpt>
    <trkpt lat="-42.74708650" lon="147.29228380"></trkpt>
    <trkpt lat="-42.74713140" lon="147.29236380"></trkpt>
    <trkpt lat="-42.74716990" lon="147.29245500"></trkpt>
    <trkpt lat="-42.74720850" lon="147.29258160"></trkpt>
    <trkpt lat="-42.74723820" lon="147.29272280"></trkpt>
    <trkpt lat="-42.74725940" lon="147.29289500"></trkpt>
    <trkpt lat="-42.74726880" lon="147.29307460"></trkpt>
    <trkpt lat="-42.74726710" lon="147.29325590"></trkpt>
    <trkpt lat="-42.74725320" lon="147.29343320"></trkpt>
    <trkpt lat="-42.74722790" lon="147.29358990"></trkpt>
    <trkpt lat="-42.74719300" lon="147.29373520"></trkpt>
    <trkpt lat="-42.74715760" lon="147.29384510"></trkpt>
    <trkpt lat="-42.74711350" lon="147.29395050"></trkpt>
    <trkpt lat="-42.74704540" lon="147.29408380"></trkpt>
    <trkpt lat="-42.74696230" lon="147.29421780"></trkpt>
    <trkpt lat="-42.74671470" lon="147.29451620"></trkpt>
    <trkpt lat="-42.74647030" lon="147.29473020"></trkpt>
  </trkseg></trk>
</gpx>