<?xml version="1.0" encoding="UTF-8"?>
<gpx version="1.1" creator="Send-It tkk-to-gpx (Harry's LapTimer .tkk)">
  <trk><name>brands-hatch</name><trkseg>
    <trkpt lat="51.36035550" lon="0.26034580"></trkpt>
    <trkpt lat="51.36042700" lon="0.26057620"></trkpt>
    <trkpt lat="51.36064570" lon="0.26140150"></trkpt>
    <trkpt lat="51.36079080" lon="0.26201950"></trkpt>
    <trkpt lat="51.36087690" lon="0.26248630"></trkpt>
    <trkpt lat="51.36091690" lon="0.26282300"></trkpt>
    <trkpt lat="51.36092860" lon="0.26305680"></trkpt>
    <trkpt lat="51.36092290" lon="0.26327660"></trkpt>
    <trkpt lat="51.36089220" lon="0.26354240"></trkpt>
    <trkpt lat="51.36085220" lon="0.26372450"></trkpt>
    <trkpt lat="51.36079650" lon="0.26389260"></trkpt>
    <trkpt lat="51.36072600" lon="0.26404790"></trkpt>
    <trkpt lat="51.36060800" lon="0.26424000"></trkpt>
    <trkpt lat="51.36046340" lon="0.26441120"></trkpt>
    <trkpt lat="51.36034000" lon="0.26451810"></trkpt>
    <trkpt lat="51.36020470" lon="0.26460100"></trkpt>
    <trkpt lat="51.36005960" lon="0.26465700"></trkpt>
    <trkpt lat="51.35985730" lon="0.26469770"></trkpt>
    <trkpt lat="51.35953800" lon="0.26470990"></trkpt>
    <trkpt lat="51.35890000" lon="0.26470370"></trkpt>
    <trkpt lat="51.35855990" lon="0.26466880"></trkpt>
    <trkpt lat="51.35833490" lon="0.26462120"></trkpt>
    <trkpt lat="51.35818000" lon="0.26455380"></trkpt>
    <trkpt lat="51.35813780" lon="0.26452810"></trkpt>
    <trkpt lat="51.35810230" lon="0.26449960"></trkpt>
    <trkpt lat="51.35807200" lon="0.26446590"></trkpt>
    <trkpt lat="51.35804610" lon="0.26442820"></trkpt>
    <trkpt lat="51.35802250" lon="0.26438350"></trkpt>
    <trkpt lat="51.35800380" lon="0.26433790"></trkpt>
    <trkpt lat="51.35799280" lon="0.26430330"></trkpt>
    <trkpt lat="51.35798510" lon="0.26426710"></trkpt>
    <trkpt lat="51.35797820" lon="0.26421040"></trkpt>
    <trkpt lat="51.35797530" lon="0.26414960"></trkpt>
    <trkpt lat="51.35797670" lon="0.26408820"></trkpt>
    <trkpt lat="51.35798160" lon="0.26402990"></trkpt>
    <trkpt lat="51.35798730" lon="0.26398980"></trkpt>
    <trkpt lat="51.35799520" lon="0.26395230"></trkpt>
    <trkpt lat="51.35800500" lon="0.26391630"></trkpt>
    <trkpt lat="51.35801890" lon="0.26387840"></trkpt>
    <trkpt lat="51.35805090" lon="0.26381240"></trkpt>
    <trkpt lat="51.35809120" lon="0.26374440"></trkpt>
    <trkpt lat="51.35813630" lon="0.26368350"></trkpt>
    <trkpt lat="51.35818210" lon="0.26363230"></trkpt>
    <trkpt lat="51.35820840" lon="0.26360860"></trkpt>
    <trkpt lat="51.35823650" lon="0.26358930"></trkpt>
    <trkpt lat="51.35828100" lon="0.26356580"></trkpt>
    <trkpt lat="51.35833280" lon="0.26354650"></trkpt>
    <trkpt lat="51.35848070" lon="0.26352490"></trkpt>
    <trkpt lat="51.35906020" lon="0.26354720"></trkpt>
    <trkpt lat="51.35935500" lon="0.26348260"></trkpt>
    <trkpt lat="51.35964340" lon="0.26334570"></trkpt>
    <trkpt lat="51.35971160" lon="0.26329680"></trkpt>
    <trkpt lat="51.35976790" lon="0.26324340"></trkpt>
    <trkpt lat="51.35982090" lon="0.26317860"></trkpt>
    <trkpt lat="51.35986670" lon="0.26310660"></trkpt>
    <trkpt lat="51.35990710" lon="0.26302420"></trkpt>
    <trkpt lat="51.35993990" lon="0.26293610"></trkpt>
    <trkpt lat="51.35996610" lon="0.26284050"></trkpt>
    <trkpt lat="51.35998470" lon="0.26273760"></trkpt>
    <trkpt lat="51.35999840" lon="0.26260100"></trkpt>
    <trkpt lat="51.36000240" lon="0.26245250"></trkpt>
    <trkpt lat="51.35999490" lon="0.26227520"></trkpt>
    <trkpt lat="51.35997320" lon="0.26207060"></trkpt>
    <trkpt lat="51.35980710" lon="0.26114340"></trkpt>
    <trkpt lat="51.35960330" lon="0.26035710"></trkpt>
    <trkpt lat="51.35923700" lon="0.25924370"></trkpt>
    <trkpt lat="51.35915830" lon="0.25906290"></trkpt>
    <trkpt lat="51.35908080" lon="0.25891800"></trkpt>
    <trkpt lat="51.35900760" lon="0.25880340"></trkpt>
    <trkpt lat="51.35892830" lon="0.25870110"></trkpt>
    <trkpt lat="51.35884380" lon="0.25861100"></trkpt>
    <trkpt lat="51.35875220" lon="0.25853160"></trkpt>
    <trkpt lat="51.35855610" lon="0.25841370"></trkpt>
    <trkpt lat="51.35847600" lon="0.25838330"></trkpt>
    <trkpt lat="51.35841050" lon="0.25836770"></trkpt>
    <trkpt lat="51.35839400" lon="0.25836760"></trkpt>
    <trkpt lat="51.35837810" lon="0.25837120"></trkpt>
    <trkpt lat="51.35832530" lon="0.25838880"></trkpt>
    <trkpt lat="51.35826440" lon="0.25841990"></trkpt>
    <trkpt lat="51.35818720" lon="0.25848680"></trkpt>
    <trkpt lat="51.35812590" lon="0.25855360"></trkpt>
    <trkpt lat="51.35811360" lon="0.25857020"></trkpt>
    <trkpt lat="51.35810390" lon="0.25858770"></trkpt>
    <trkpt lat="51.35807810" lon="0.25863930"></trkpt>
    <trkpt lat="51.35805160" lon="0.25870890"></trkpt>
    <trkpt lat="51.35801480" lon="0.25888490"></trkpt>
    <trkpt lat="51.35799070" lon="0.25904380"></trkpt>
    <trkpt lat="51.35798690" lon="0.25908880"></trkpt>
    <trkpt lat="51.35764110" lon="0.26152240"></trkpt>
    <trkpt lat="51.35759590" lon="0.26174070"></trkpt>
    <trkpt lat="51.35756350" lon="0.26186420"></trkpt>
    <trkpt lat="51.35591870" lon="0.26725490"></trkpt>
    <trkpt lat="51.35582690" lon="0.26750100"></trkpt>
    <trkpt lat="51.35568860" lon="0.26779340"></trkpt>
    <trkpt lat="51.35558850" lon="0.26795500"></trkpt>
    <trkpt lat="51.35545980" lon="0.26810700"></trkpt>
    <trkpt lat="51.35533860" lon="0.26819960"></trkpt>
    <trkpt lat="51.35515870" lon="0.26829320"></trkpt>
    <trkpt lat="51.35505460" lon="0.26832880"></trkpt>
    <trkpt lat="51.35489810" lon="0.26834580"></trkpt>
    <trkpt lat="51.35476990" lon="0.26833050"></trkpt>
    <trkpt lat="51.35463630" lon="0.26827780"></trkpt>
    <trkpt lat="51.35328180" lon="0.26751030"></trkpt>
    <trkpt lat="51.35289030" lon="0.26717680"></trkpt>
    <trkpt lat="51.35283890" lon="0.26712130"></trkpt>
    <trkpt lat="51.35278990" lon="0.26705010"></trkpt>
    <trkpt lat="51.35276680" lon="0.26700690"></trkpt>
    <trkpt lat="51.35274650" lon="0.26696180"></trkpt>
    <trkpt lat="51.35271760" lon="0.26687370"></trkpt>
    <trkpt lat="51.35266820" lon="0.26663670"></trkpt>
    <trkpt lat="51.35253950" lon="0.26564990"></trkpt>
    <trkpt lat="51.35253480" lon="0.26533080"></trkpt>
    <trkpt lat="51.35254380" lon="0.26515060"></trkpt>
    <trkpt lat="51.35257980" lon="0.26491540"></trkpt>
    <trkpt lat="51.35285640" lon="0.26368650"></trkpt>
    <trkpt lat="51.35293170" lon="0.26346030"></trkpt>
    <trkpt lat="51.35302560" lon="0.26323860"></trkpt>
    <trkpt lat="51.35320730" lon="0.26290560"></trkpt>
    <trkpt lat="51.35324660" lon="0.26284500"></trkpt>
    <trkpt lat="51.35370890" lon="0.26219010"></trkpt>
    <trkpt lat="51.35375020" lon="0.26215150"></trkpt>
    <trkpt lat="51.35378570" lon="0.26212910"></trkpt>
    <trkpt lat="51.35381640" lon="0.26211760"></trkpt>
    <trkpt lat="51.35384620" lon="0.26211100"></trkpt>
    <trkpt lat="51.35389310" lon="0.26210510"></trkpt>
    <trkpt lat="51.35424440" lon="0.26210100"></trkpt>
    <trkpt lat="51.35441330" lon="0.26212390"></trkpt>
    <trkpt lat="51.35447680" lon="0.26214620"></trkpt>
    <trkpt lat="51.35547180" lon="0.26251070"></trkpt>
    <trkpt lat="51.35571300" lon="0.26254650"></trkpt>
    <trkpt lat="51.35575150" lon="0.26254800"></trkpt>
    <trkpt lat="51.35578570" lon="0.26254310"></trkpt>
    <trkpt lat="51.35584060" lon="0.26251900"></trkpt>
    <trkpt lat="51.35588950" lon="0.26248960"></trkpt>
    <trkpt lat="51.35592200" lon="0.26246380"></trkpt>
    <trkpt lat="51.35597420" lon="0.26240490"></trkpt>
    <trkpt lat="51.35602830" lon="0.26232710"></trkpt>
    <trkpt lat="51.35607260" lon="0.26224320"></trkpt>
    <trkpt lat="51.35611180" lon="0.26215390"></trkpt>
    <trkpt lat="51.35614380" lon="0.26203780"></trkpt>
    <trkpt lat="51.35732030" lon="0.25696190"></trkpt>
    <trkpt lat="51.35734760" lon="0.25688360"></trkpt>
    <trkpt lat="51.35737360" lon="0.25682960"></trkpt>
    <trkpt lat="51.35741790" lon="0.25674910"></trkpt>
    <trkpt lat="51.35747010" lon="0.25667030"></trkpt>
    <trkpt lat="51.35758970" lon="0.25653460"></trkpt>
    <trkpt lat="51.35769330" lon="0.25645400"></trkpt>
    <trkpt lat="51.35780940" lon="0.25639590"></trkpt>
    <trkpt lat="51.35793540" lon="0.25636280"></trkpt>
    <trkpt lat="51.35806930" lon="0.25635690"></trkpt>
    <trkpt lat="51.35820810" lon="0.25638090"></trkpt>
    <trkpt lat="51.35834710" lon="0.25643460"></trkpt>
    <trkpt lat="51.35853160" lon="0.25654660"></trkpt>
    <trkpt lat="51.35871640" lon="0.25670030"></trkpt>
    <trkpt lat="51.35889670" lon="0.25689300"></trkpt>
    <trkpt lat="51.35906830" lon="0.25711790"></trkpt>
    <trkpt lat="51.35923140" lon="0.25737340"></trkpt>
    <trkpt lat="51.35938510" lon="0.25765870"></trkpt>
    <trkpt lat="51.35956010" lon="0.25804950"></trkpt>
    <trkpt lat="51.35975140" lon="0.25855960"></trkpt>
    <trkpt lat="51.36021080" lon="0.25988620"></trkpt>
    <trkpt lat="51.36024260" lon="0.25998230"></trkpt>
    <trkpt lat="51.36035550" lon="0.26034580"></trkpt>
  </trkseg></trk>
</gpx>
