<?xml version="1.0" encoding="UTF-8"?>
<gpx version="1.1" creator="Send-It DEM enrich">
  <trk><name>broadford</name><trkseg>
    <trkpt lat="-37.21590590" lon="145.08239720"><ele>266.000</ele></trkpt>
    <trkpt lat="-37.21521560" lon="145.08184950"><ele>263.000</ele></trkpt>
    <trkpt lat="-37.21453800" lon="145.08131070"><ele>264.000</ele></trkpt>
    <trkpt lat="-37.21415630" lon="145.08101140"><ele>263.000</ele></trkpt>
    <trkpt lat="-37.21409470" lon="145.08097250"><ele>263.000</ele></trkpt>
    <trkpt lat="-37.21403150" lon="145.08094060"><ele>263.000</ele></trkpt>
    <trkpt lat="-37.21396680" lon="145.08091720"><ele>264.000</ele></trkpt>
    <trkpt lat="-37.21390220" lon="145.08090130"><ele>264.000</ele></trkpt>
    <trkpt lat="-37.21383850" lon="145.08089430"><ele>264.000</ele></trkpt>
    <trkpt lat="-37.21377700" lon="145.08089860"><ele>265.000</ele></trkpt>
    <trkpt lat="-37.21371830" lon="145.08091290"><ele>266.000</ele></trkpt>
    <trkpt lat="-37.21366340" lon="145.08093680"><ele>266.000</ele></trkpt>
    <trkpt lat="-37.21361210" lon="145.08096910"><ele>267.000</ele></trkpt>
    <trkpt lat="-37.21356470" lon="145.08100940"><ele>268.000</ele></trkpt>
    <trkpt lat="-37.21352190" lon="145.08105700"><ele>270.000</ele></trkpt>
    <trkpt lat="-37.21348220" lon="145.08110900"><ele>272.000</ele></trkpt>
    <trkpt lat="-37.21344570" lon="145.08116550"><ele>273.000</ele></trkpt>
    <trkpt lat="-37.21341250" lon="145.08122580"><ele>274.000</ele></trkpt>
    <trkpt lat="-37.21338330" lon="145.08128990"><ele>275.000</ele></trkpt>
    <trkpt lat="-37.21335860" lon="145.08135750"><ele>275.000</ele></trkpt>
    <trkpt lat="-37.21333900" lon="145.08142790"><ele>276.000</ele></trkpt>
    <trkpt lat="-37.21332440" lon="145.08150060"><ele>277.000</ele></trkpt>
    <trkpt lat="-37.21331580" lon="145.08157490"><ele>278.000</ele></trkpt>
    <trkpt lat="-37.21331340" lon="145.08165000"><ele>278.000</ele></trkpt>
    <trkpt lat="-37.21331810" lon="145.08172570"><ele>279.000</ele></trkpt>
    <trkpt lat="-37.21332950" lon="145.08180110"><ele>279.000</ele></trkpt>
    <trkpt lat="-37.21334700" lon="145.08187460"><ele>279.000</ele></trkpt>
    <trkpt lat="-37.21337100" lon="145.08194650"><ele>278.000</ele></trkpt>
    <trkpt lat="-37.21340190" lon="145.08201520"><ele>278.000</ele></trkpt>
    <trkpt lat="-37.21343870" lon="145.08208090"><ele>278.000</ele></trkpt>
    <trkpt lat="-37.21348050" lon="145.08214350"><ele>277.000</ele></trkpt>
    <trkpt lat="-37.21352830" lon="145.08220170"><ele>277.000</ele></trkpt>
    <trkpt lat="-37.21358130" lon="145.08225660"><ele>277.000</ele></trkpt>
    <trkpt lat="-37.21369870" lon="145.08235950"><ele>277.000</ele></trkpt>
    <trkpt lat="-37.21389790" lon="145.08249940"><ele>279.000</ele></trkpt>
    <trkpt lat="-37.21479350" lon="145.08306940"><ele>281.000</ele></trkpt>
    <trkpt lat="-37.21552390" lon="145.08362230"><ele>279.000</ele></trkpt>
    <trkpt lat="-37.21619490" lon="145.08416830"><ele>283.000</ele></trkpt>
    <trkpt lat="-37.21653270" lon="145.08441410"><ele>284.000</ele></trkpt>
    <trkpt lat="-37.21693250" lon="145.08466280"><ele>288.000</ele></trkpt>
    <trkpt lat="-37.21782570" lon="145.08516650"><ele>290.000</ele></trkpt>
    <trkpt lat="-37.21787800" lon="145.08518950"><ele>290.000</ele></trkpt>
    <trkpt lat="-37.21792970" lon="145.08520640"><ele>290.000</ele></trkpt>
    <trkpt lat="-37.21798080" lon="145.08521700"><ele>290.000</ele></trkpt>
    <trkpt lat="-37.21803140" lon="145.08522220"><ele>291.000</ele></trkpt>
    <trkpt lat="-37.21808140" lon="145.08522060"><ele>291.000</ele></trkpt>
    <trkpt lat="-37.21813070" lon="145.08521160"><ele>291.000</ele></trkpt>
    <trkpt lat="-37.21817780" lon="145.08519430"><ele>291.000</ele></trkpt>
    <trkpt lat="-37.21822300" lon="145.08516840"><ele>291.000</ele></trkpt>
    <trkpt lat="-37.21830880" lon="145.08509850"><ele>291.000</ele></trkpt>
    <trkpt lat="-37.21847650" lon="145.08491130"><ele>290.000</ele></trkpt>
    <trkpt lat="-37.21865960" lon="145.08467920"><ele>288.000</ele></trkpt>
    <trkpt lat="-37.21870530" lon="145.08461060"><ele>287.000</ele></trkpt>
    <trkpt lat="-37.21874870" lon="145.08453540"><ele>286.000</ele></trkpt>
    <trkpt lat="-37.21878930" lon="145.08445480"><ele>285.000</ele></trkpt>
    <trkpt lat="-37.21882620" lon="145.08436820"><ele>284.000</ele></trkpt>
    <trkpt lat="-37.21885920" lon="145.08427830"><ele>283.000</ele></trkpt>
    <trkpt lat="-37.21888790" lon="145.08418600"><ele>282.000</ele></trkpt>
    <trkpt lat="-37.21891140" lon="145.08409190"><ele>281.000</ele></trkpt>
    <trkpt lat="-37.21892920" lon="145.08399570"><ele>281.000</ele></trkpt>
    <trkpt lat="-37.21894290" lon="145.08389880"><ele>280.000</ele></trkpt>
    <trkpt lat="-37.21895150" lon="145.08380170"><ele>280.000</ele></trkpt>
    <trkpt lat="-37.21895430" lon="145.08370490"><ele>281.000</ele></trkpt>
    <trkpt lat="-37.21895100" lon="145.08360880"><ele>281.000</ele></trkpt>
    <trkpt lat="-37.21894100" lon="145.08351470"><ele>281.000</ele></trkpt>
    <trkpt lat="-37.21892480" lon="145.08342280"><ele>281.000</ele></trkpt>
    <trkpt lat="-37.21885230" lon="145.08316160"><ele>280.000</ele></trkpt>
    <trkpt lat="-37.21882310" lon="145.08298990"><ele>278.000</ele></trkpt>
    <trkpt lat="-37.21881350" lon="145.08265950"><ele>278.000</ele></trkpt>
    <trkpt lat="-37.21880200" lon="145.08258150"><ele>278.000</ele></trkpt>
    <trkpt lat="-37.21878430" lon="145.08250670"><ele>278.000</ele></trkpt>
    <trkpt lat="-37.21875930" lon="145.08243610"><ele>278.000</ele></trkpt>
    <trkpt lat="-37.21872660" lon="145.08237080"><ele>278.000</ele></trkpt>
    <trkpt lat="-37.21868660" lon="145.08231040"><ele>278.000</ele></trkpt>
    <trkpt lat="-37.21864120" lon="145.08225340"><ele>277.000</ele></trkpt>
    <trkpt lat="-37.21859010" lon="145.08220150"><ele>277.000</ele></trkpt>
    <trkpt lat="-37.21847180" lon="145.08211300"><ele>276.000</ele></trkpt>
    <trkpt lat="-37.21736650" lon="145.08143150"><ele>268.000</ele></trkpt>
    <trkpt lat="-37.21730780" lon="145.08140190"><ele>268.000</ele></trkpt>
    <trkpt lat="-37.21724890" lon="145.08137960"><ele>267.000</ele></trkpt>
    <trkpt lat="-37.21718940" lon="145.08136750"><ele>267.000</ele></trkpt>
    <trkpt lat="-37.21712990" lon="145.08136470"><ele>266.000</ele></trkpt>
    <trkpt lat="-37.21707080" lon="145.08137180"><ele>266.000</ele></trkpt>
    <trkpt lat="-37.21701330" lon="145.08138970"><ele>265.000</ele></trkpt>
    <trkpt lat="-37.21695900" lon="145.08141910"><ele>265.000</ele></trkpt>
    <trkpt lat="-37.21690930" lon="145.08145830"><ele>264.000</ele></trkpt>
    <trkpt lat="-37.21686610" lon="145.08150730"><ele>264.000</ele></trkpt>
    <trkpt lat="-37.21682960" lon="145.08156480"><ele>263.000</ele></trkpt>
    <trkpt lat="-37.21680090" lon="145.08162980"><ele>263.000</ele></trkpt>
    <trkpt lat="-37.21677990" lon="145.08170120"><ele>263.000</ele></trkpt>
    <trkpt lat="-37.21676770" lon="145.08177730"><ele>263.000</ele></trkpt>
    <trkpt lat="-37.21676240" lon="145.08185640"><ele>263.000</ele></trkpt>
    <trkpt lat="-37.21676620" lon="145.08193760"><ele>263.000</ele></trkpt>
    <trkpt lat="-37.21677910" lon="145.08201900"><ele>263.000</ele></trkpt>
    <trkpt lat="-37.21679950" lon="145.08209940"><ele>264.000</ele></trkpt>
    <trkpt lat="-37.21682880" lon="145.08217700"><ele>264.000</ele></trkpt>
    <trkpt lat="-37.21686600" lon="145.08225040"><ele>265.000</ele></trkpt>
    <trkpt lat="-37.21691130" lon="145.08231840"><ele>265.000</ele></trkpt>
    <trkpt lat="-37.21696420" lon="145.08237850"><ele>266.000</ele></trkpt>
    <trkpt lat="-37.21702400" lon="145.08242810"><ele>266.000</ele></trkpt>
    <trkpt lat="-37.21708930" lon="145.08246680"><ele>266.000</ele></trkpt>
    <trkpt lat="-37.21715900" lon="145.08249650"><ele>266.000</ele></trkpt>
    <trkpt lat="-37.21723200" lon="145.08251930"><ele>266.000</ele></trkpt>
    <trkpt lat="-37.21738530" lon="145.08254520"><ele>267.000</ele></trkpt>
    <trkpt lat="-37.21777510" lon="145.08259040"><ele>268.000</ele></trkpt>
    <trkpt lat="-37.21784690" lon="145.08261170"><ele>269.000</ele></trkpt>
    <trkpt lat="-37.21798020" lon="145.08267650"><ele>270.000</ele></trkpt>
    <trkpt lat="-37.21803910" lon="145.08272210"><ele>271.000</ele></trkpt>
    <trkpt lat="-37.21809020" lon="145.08277710"><ele>271.000</ele></trkpt>
    <trkpt lat="-37.21813410" lon="145.08283910"><ele>271.000</ele></trkpt>
    <trkpt lat="-37.21816910" lon="145.08290730"><ele>272.000</ele></trkpt>
    <trkpt lat="-37.21819490" lon="145.08298010"><ele>272.000</ele></trkpt>
    <trkpt lat="-37.21821220" lon="145.08305610"><ele>272.000</ele></trkpt>
    <trkpt lat="-37.21822160" lon="145.08313490"><ele>272.000</ele></trkpt>
    <trkpt lat="-37.21822210" lon="145.08321500"><ele>273.000</ele></trkpt>
    <trkpt lat="-37.21821390" lon="145.08329490"><ele>274.000</ele></trkpt>
    <trkpt lat="-37.21819690" lon="145.08337260"><ele>274.000</ele></trkpt>
    <trkpt lat="-37.21817110" lon="145.08344590"><ele>275.000</ele></trkpt>
    <trkpt lat="-37.21813660" lon="145.08351250"><ele>275.000</ele></trkpt>
    <trkpt lat="-37.21809600" lon="145.08357210"><ele>276.000</ele></trkpt>
    <trkpt lat="-37.21804950" lon="145.08362330"><ele>276.000</ele></trkpt>
    <trkpt lat="-37.21799880" lon="145.08366570"><ele>276.000</ele></trkpt>
    <trkpt lat="-37.21794390" lon="145.08369980"><ele>276.000</ele></trkpt>
    <trkpt lat="-37.21788510" lon="145.08372280"><ele>275.000</ele></trkpt>
    <trkpt lat="-37.21782420" lon="145.08373570"><ele>275.000</ele></trkpt>
    <trkpt lat="-37.21776150" lon="145.08373590"><ele>275.000</ele></trkpt>
    <trkpt lat="-37.21769850" lon="145.08372440"><ele>275.000</ele></trkpt>
    <trkpt lat="-37.21764170" lon="145.08370730"><ele>274.000</ele></trkpt>
    <trkpt lat="-37.21757180" lon="145.08367690"><ele>274.000</ele></trkpt>
    <trkpt lat="-37.21717450" lon="145.08340360"><ele>271.000</ele></trkpt>
    <trkpt lat="-37.21590590" lon="145.08239720"><ele>266.000</ele></trkpt>
  </trkseg></trk>
</gpx>
