<?xml version="1.0" encoding="UTF-8"?>
<gpx version="1.1" creator="Send-It DEM enrich">
  <trk><name>calder_park</name><trkseg>
    <trkpt lat="-37.67045837" lon="144.75337086"><ele>134.000</ele></trkpt>
    <trkpt lat="-37.67028017" lon="144.75396833"><ele>136.000</ele></trkpt>
    <trkpt lat="-37.67036689" lon="144.75366583"><ele>135.000</ele></trkpt>
    <trkpt lat="-37.67217156" lon="144.75449828"><ele>132.000</ele></trkpt>
    <trkpt lat="-37.67366627" lon="144.75516646"><ele>134.000</ele></trkpt>
    <trkpt lat="-37.67386884" lon="144.75525392"><ele>132.000</ele></trkpt>
    <trkpt lat="-37.67405643" lon="144.75532998"><ele>131.000</ele></trkpt>
    <trkpt lat="-37.67430928" lon="144.75543330"><ele>131.000</ele></trkpt>
    <trkpt lat="-37.67456704" lon="144.75553813"><ele>132.000</ele></trkpt>
    <trkpt lat="-37.67486521" lon="144.75566108"><ele>132.000</ele></trkpt>
    <trkpt lat="-37.67509886" lon="144.75576528"><ele>131.000</ele></trkpt>
    <trkpt lat="-37.67533096" lon="144.75586574"><ele>130.000</ele></trkpt>
    <trkpt lat="-37.67583109" lon="144.75609895"><ele>132.000</ele></trkpt>
    <trkpt lat="-37.67623165" lon="144.75628296"><ele>134.000</ele></trkpt>
    <trkpt lat="-37.67628184" lon="144.75630529"><ele>134.000</ele></trkpt>
    <trkpt lat="-37.67633104" lon="144.75631241"><ele>134.000</ele></trkpt>
    <trkpt lat="-37.67638208" lon="144.75631597"><ele>134.000</ele></trkpt>
    <trkpt lat="-37.67644628" lon="144.75629918"><ele>133.000</ele></trkpt>
    <trkpt lat="-37.67650966" lon="144.75627152"><ele>133.000</ele></trkpt>
    <trkpt lat="-37.67657312" lon="144.75622975"><ele>132.000</ele></trkpt>
    <trkpt lat="-37.67661459" lon="144.75618947"><ele>131.000</ele></trkpt>
    <trkpt lat="-37.67664635" lon="144.75614119"><ele>130.000</ele></trkpt>
    <trkpt lat="-37.67667179" lon="144.75609793"><ele>130.000</ele></trkpt>
    <trkpt lat="-37.67669691" lon="144.75604279"><ele>130.000</ele></trkpt>
    <trkpt lat="-37.67672176" lon="144.75596555"><ele>130.000</ele></trkpt>
    <trkpt lat="-37.67673054" lon="144.75590215"><ele>130.000</ele></trkpt>
    <trkpt lat="-37.67673622" lon="144.75581358"><ele>130.000</ele></trkpt>
    <trkpt lat="-37.67672749" lon="144.75574634"><ele>130.000</ele></trkpt>
    <trkpt lat="-37.67671056" lon="144.75567521"><ele>130.000</ele></trkpt>
    <trkpt lat="-37.67667127" lon="144.75557650"><ele>129.000</ele></trkpt>
    <trkpt lat="-37.67662565" lon="144.75550736"><ele>129.000</ele></trkpt>
    <trkpt lat="-37.67657196" lon="144.75545179"><ele>129.000</ele></trkpt>
    <trkpt lat="-37.67647042" lon="144.75536865"><ele>128.000</ele></trkpt>
    <trkpt lat="-37.67590778" lon="144.75491950"><ele>129.000</ele></trkpt>
    <trkpt lat="-37.67576530" lon="144.75480689"><ele>130.000</ele></trkpt>
    <trkpt lat="-37.67573193" lon="144.75478502"><ele>130.000</ele></trkpt>
    <trkpt lat="-37.67569533" lon="144.75476630"><ele>130.000</ele></trkpt>
    <trkpt lat="-37.67566691" lon="144.75475632"><ele>130.000</ele></trkpt>
    <trkpt lat="-37.67563012" lon="144.75474802"><ele>131.000</ele></trkpt>
    <trkpt lat="-37.67560003" lon="144.75474517"><ele>131.000</ele></trkpt>
    <trkpt lat="-37.67556295" lon="144.75474821"><ele>131.000</ele></trkpt>
    <trkpt lat="-37.67552030" lon="144.75476377"><ele>131.000</ele></trkpt>
    <trkpt lat="-37.67547915" lon="144.75478707"><ele>131.000</ele></trkpt>
    <trkpt lat="-37.67544576" lon="144.75481507"><ele>131.000</ele></trkpt>
    <trkpt lat="-37.67542411" lon="144.75483932"><ele>131.000</ele></trkpt>
    <trkpt lat="-37.67540211" lon="144.75486921"><ele>131.000</ele></trkpt>
    <trkpt lat="-37.67537268" lon="144.75491974"><ele>131.000</ele></trkpt>
    <trkpt lat="-37.67534769" lon="144.75495394"><ele>131.000</ele></trkpt>
    <trkpt lat="-37.67532254" lon="144.75497744"><ele>131.000</ele></trkpt>
    <trkpt lat="-37.67529548" lon="144.75499413"><ele>131.000</ele></trkpt>
    <trkpt lat="-37.67525698" lon="144.75500520"><ele>131.000</ele></trkpt>
    <trkpt lat="-37.67520793" lon="144.75500719"><ele>131.000</ele></trkpt>
    <trkpt lat="-37.67517268" lon="144.75499610"><ele>131.000</ele></trkpt>
    <trkpt lat="-37.67513650" lon="144.75497586"><ele>130.000</ele></trkpt>
    <trkpt lat="-37.67507419" lon="144.75492661"><ele>130.000</ele></trkpt>
    <trkpt lat="-37.67397685" lon="144.75401750"><ele>129.000</ele></trkpt>
    <trkpt lat="-37.67341073" lon="144.75354874"><ele>132.000</ele></trkpt>
    <trkpt lat="-37.67335002" lon="144.75349768"><ele>131.000</ele></trkpt>
    <trkpt lat="-37.67331816" lon="144.75347758"><ele>131.000</ele></trkpt>
    <trkpt lat="-37.67327515" lon="144.75346001"><ele>132.000</ele></trkpt>
    <trkpt lat="-37.67321537" lon="144.75344316"><ele>132.000</ele></trkpt>
    <trkpt lat="-37.67315947" lon="144.75343646"><ele>132.000</ele></trkpt>
    <trkpt lat="-37.67311066" lon="144.75344757"><ele>132.000</ele></trkpt>
    <trkpt lat="-37.67305681" lon="144.75346253"><ele>132.000</ele></trkpt>
    <trkpt lat="-37.67300558" lon="144.75347883"><ele>132.000</ele></trkpt>
    <trkpt lat="-37.67296367" lon="144.75348252"><ele>132.000</ele></trkpt>
    <trkpt lat="-37.67293668" lon="144.75347340"><ele>132.000</ele></trkpt>
    <trkpt lat="-37.67286243" lon="144.75341896"><ele>132.000</ele></trkpt>
    <trkpt lat="-37.67183495" lon="144.75260146"><ele>135.000</ele></trkpt>
    <trkpt lat="-37.67022523" lon="144.75133419"><ele>139.000</ele></trkpt>
    <trkpt lat="-37.66982825" lon="144.75101680"><ele>138.000</ele></trkpt>
    <trkpt lat="-37.66978004" lon="144.75098188"><ele>138.000</ele></trkpt>
    <trkpt lat="-37.66972990" lon="144.75095994"><ele>138.000</ele></trkpt>
    <trkpt lat="-37.66969464" lon="144.75095391"><ele>138.000</ele></trkpt>
    <trkpt lat="-37.66964525" lon="144.75095507"><ele>138.000</ele></trkpt>
    <trkpt lat="-37.66960022" lon="144.75096714"><ele>138.000</ele></trkpt>
    <trkpt lat="-37.66956027" lon="144.75099208"><ele>138.000</ele></trkpt>
    <trkpt lat="-37.66952358" lon="144.75102313"><ele>138.000</ele></trkpt>
    <trkpt lat="-37.66948730" lon="144.75106831"><ele>138.000</ele></trkpt>
    <trkpt lat="-37.66945606" lon="144.75111711"><ele>138.000</ele></trkpt>
    <trkpt lat="-37.66930928" lon="144.75140264"><ele>138.000</ele></trkpt>
    <trkpt lat="-37.66925793" lon="144.75147194"><ele>138.000</ele></trkpt>
    <trkpt lat="-37.66922205" lon="144.75150424"><ele>138.000</ele></trkpt>
    <trkpt lat="-37.66918604" lon="144.75152580"><ele>138.000</ele></trkpt>
    <trkpt lat="-37.66913160" lon="144.75154898"><ele>137.000</ele></trkpt>
    <trkpt lat="-37.66907767" lon="144.75155219"><ele>138.000</ele></trkpt>
    <trkpt lat="-37.66902438" lon="144.75154123"><ele>138.000</ele></trkpt>
    <trkpt lat="-37.66897722" lon="144.75152085"><ele>138.000</ele></trkpt>
    <trkpt lat="-37.66894117" lon="144.75149603"><ele>138.000</ele></trkpt>
    <trkpt lat="-37.66888958" lon="144.75144723"><ele>138.000</ele></trkpt>
    <trkpt lat="-37.66884501" lon="144.75141041"><ele>138.000</ele></trkpt>
    <trkpt lat="-37.66880883" lon="144.75138576"><ele>138.000</ele></trkpt>
    <trkpt lat="-37.66877077" lon="144.75136928"><ele>138.000</ele></trkpt>
    <trkpt lat="-37.66871479" lon="144.75135343"><ele>139.000</ele></trkpt>
    <trkpt lat="-37.66864263" lon="144.75134660"><ele>139.000</ele></trkpt>
    <trkpt lat="-37.66807294" lon="144.75129162"><ele>140.000</ele></trkpt>
    <trkpt lat="-37.66796280" lon="144.75127652"><ele>140.000</ele></trkpt>
    <trkpt lat="-37.66790972" lon="144.75128770"><ele>140.000</ele></trkpt>
    <trkpt lat="-37.66783785" lon="144.75131766"><ele>140.000</ele></trkpt>
    <trkpt lat="-37.66780132" lon="144.75135018"><ele>140.000</ele></trkpt>
    <trkpt lat="-37.66775802" lon="144.75139887"><ele>140.000</ele></trkpt>
    <trkpt lat="-37.66773784" lon="144.75143963"><ele>140.000</ele></trkpt>
    <trkpt lat="-37.66771469" lon="144.75149417"><ele>140.000</ele></trkpt>
    <trkpt lat="-37.66770109" lon="144.75156294"><ele>139.000</ele></trkpt>
    <trkpt lat="-37.66769716" lon="144.75161393"><ele>139.000</ele></trkpt>
    <trkpt lat="-37.66770310" lon="144.75169683"><ele>139.000</ele></trkpt>
    <trkpt lat="-37.66773660" lon="144.75182868"><ele>138.000</ele></trkpt>
    <trkpt lat="-37.66777595" lon="144.75195230"><ele>138.000</ele></trkpt>
    <trkpt lat="-37.66781438" lon="144.75204128"><ele>138.000</ele></trkpt>
    <trkpt lat="-37.66786352" lon="144.75214022"><ele>138.000</ele></trkpt>
    <trkpt lat="-37.66792681" lon="144.75224207"><ele>139.000</ele></trkpt>
    <trkpt lat="-37.66798996" lon="144.75234397"><ele>139.000</ele></trkpt>
    <trkpt lat="-37.66805757" lon="144.75244974"><ele>139.000</ele></trkpt>
    <trkpt lat="-37.66811512" lon="144.75253502"><ele>139.000</ele></trkpt>
    <trkpt lat="-37.66818084" lon="144.75261030"><ele>139.000</ele></trkpt>
    <trkpt lat="-37.66825315" lon="144.75268798"><ele>138.000</ele></trkpt>
    <trkpt lat="-37.66854056" lon="144.75281910"><ele>137.000</ele></trkpt>
    <trkpt lat="-37.66868133" lon="144.75288762"><ele>138.000</ele></trkpt>
    <trkpt lat="-37.66892176" lon="144.75299491"><ele>138.000</ele></trkpt>
    <trkpt lat="-37.66918677" lon="144.75311668"><ele>139.000</ele></trkpt>
    <trkpt lat="-37.67036689" lon="144.75366583"><ele>135.000</ele></trkpt>
    <trkpt lat="-37.67042044" lon="144.75347323"><ele>134.000</ele></trkpt>
    <trkpt lat="-37.67301868" lon="144.75468110"><ele>135.000</ele></trkpt>
    <trkpt lat="-37.67524055" lon="144.75570373"><ele>130.000</ele></trkpt>
    <trkpt lat="-37.67619080" lon="144.75614907"><ele>134.000</ele></trkpt>
    <trkpt lat="-37.67623257" lon="144.75616871"><ele>134.000</ele></trkpt>
    <trkpt lat="-37.67627993" lon="144.75618883"><ele>134.000</ele></trkpt>
    <trkpt lat="-37.67632009" lon="144.75620011"><ele>134.000</ele></trkpt>
    <trkpt lat="-37.67636450" lon="144.75620570"><ele>133.000</ele></trkpt>
    <trkpt lat="-37.67641128" lon="144.75620435"><ele>133.000</ele></trkpt>
    <trkpt lat="-37.67646167" lon="144.75618368"><ele>133.000</ele></trkpt>
    <trkpt lat="-37.67650179" lon="144.75615960"><ele>132.000</ele></trkpt>
    <trkpt lat="-37.67655031" lon="144.75611623"><ele>131.000</ele></trkpt>
    <trkpt lat="-37.67657663" lon="144.75608263"><ele>131.000</ele></trkpt>
    <trkpt lat="-37.67660213" lon="144.75603823"><ele>131.000</ele></trkpt>
    <trkpt lat="-37.67662026" lon="144.75600177"><ele>130.000</ele></trkpt>
    <trkpt lat="-37.67663584" lon="144.75596230"><ele>130.000</ele></trkpt>
    <trkpt lat="-37.67664528" lon="144.75590577"><ele>130.000</ele></trkpt>
    <trkpt lat="-37.67665041" lon="144.75584077"><ele>130.000</ele></trkpt>
    <trkpt lat="-37.67664722" lon="144.75578431"><ele>130.000</ele></trkpt>
    <trkpt lat="-37.67663537" lon="144.75571735"><ele>130.000</ele></trkpt>
    <trkpt lat="-37.67661013" lon="144.75565537"><ele>129.000</ele></trkpt>
    <trkpt lat="-37.67657720" lon="144.75559615"><ele>129.000</ele></trkpt>
    <trkpt lat="-37.67654061" lon="144.75555210"><ele>129.000</ele></trkpt>
    <trkpt lat="-37.67648285" lon="144.75550516"><ele>129.000</ele></trkpt>
    <trkpt lat="-37.67643348" lon="144.75546402"><ele>129.000</ele></trkpt>
    <trkpt lat="-37.67574814" lon="144.75492138"><ele>130.000</ele></trkpt>
    <trkpt lat="-37.67570031" lon="144.75488245"><ele>130.000</ele></trkpt>
    <trkpt lat="-37.67566410" lon="144.75485886"><ele>130.000</ele></trkpt>
    <trkpt lat="-37.67561492" lon="144.75485086"><ele>130.000</ele></trkpt>
    <trkpt lat="-37.67557709" lon="144.75485765"><ele>130.000</ele></trkpt>
    <trkpt lat="-37.67553941" lon="144.75487165"><ele>130.000</ele></trkpt>
    <trkpt lat="-37.67551131" lon="144.75488896"><ele>130.000</ele></trkpt>
    <trkpt lat="-37.67549459" lon="144.75490330"><ele>130.000</ele></trkpt>
    <trkpt lat="-37.67546960" lon="144.75492916"><ele>130.000</ele></trkpt>
    <trkpt lat="-37.67543710" lon="144.75498589"><ele>130.000</ele></trkpt>
    <trkpt lat="-37.67540526" lon="144.75503050"><ele>130.000</ele></trkpt>
    <trkpt lat="-37.67537468" lon="144.75506182"><ele>130.000</ele></trkpt>
    <trkpt lat="-37.67534393" lon="144.75508191"><ele>130.000</ele></trkpt>
    <trkpt lat="-37.67530576" lon="144.75510260"><ele>131.000</ele></trkpt>
    <trkpt lat="-37.67526018" lon="144.75511703"><ele>131.000</ele></trkpt>
    <trkpt lat="-37.67520799" lon="144.75511429"><ele>131.000</ele></trkpt>
    <trkpt lat="-37.67516629" lon="144.75510436"><ele>131.000</ele></trkpt>
    <trkpt lat="-37.67511298" lon="144.75507877"><ele>130.000</ele></trkpt>
    <trkpt lat="-37.67505747" lon="144.75503972"><ele>130.000</ele></trkpt>
    <trkpt lat="-37.67394075" lon="144.75411649"><ele>128.000</ele></trkpt>
    <trkpt lat="-37.67332718" lon="144.75360483"><ele>131.000</ele></trkpt>
    <trkpt lat="-37.67328117" lon="144.75357346"><ele>131.000</ele></trkpt>
    <trkpt lat="-37.67324226" lon="144.75355514"><ele>131.000</ele></trkpt>
    <trkpt lat="-37.67319158" lon="144.75354479"><ele>131.000</ele></trkpt>
    <trkpt lat="-37.67312470" lon="144.75354577"><ele>131.000</ele></trkpt>
    <trkpt lat="-37.67297738" lon="144.75357503"><ele>131.000</ele></trkpt>
    <trkpt lat="-37.67291177" lon="144.75357322"><ele>132.000</ele></trkpt>
    <trkpt lat="-37.67287240" lon="144.75355519"><ele>132.000</ele></trkpt>
    <trkpt lat="-37.67234397" lon="144.75313385"><ele>135.000</ele></trkpt>
    <trkpt lat="-37.67037504" lon="144.75157618"><ele>138.000</ele></trkpt>
    <trkpt lat="-37.66976966" lon="144.75110084"><ele>138.000</ele></trkpt>
    <trkpt lat="-37.66973162" lon="144.75108101"><ele>138.000</ele></trkpt>
    <trkpt lat="-37.66970575" lon="144.75107309"><ele>138.000</ele></trkpt>
    <trkpt lat="-37.66967896" lon="144.75107180"><ele>138.000</ele></trkpt>
    <trkpt lat="-37.66963742" lon="144.75107518"><ele>138.000</ele></trkpt>
    <trkpt lat="-37.66960326" lon="144.75109161"><ele>138.000</ele></trkpt>
    <trkpt lat="-37.66957597" lon="144.75111297"><ele>138.000</ele></trkpt>
    <trkpt lat="-37.66953830" lon="144.75115620"><ele>138.000</ele></trkpt>
    <trkpt lat="-37.66951447" lon="144.75120218"><ele>138.000</ele></trkpt>
    <trkpt lat="-37.66935526" lon="144.75150006"><ele>138.000</ele></trkpt>
    <trkpt lat="-37.66931746" lon="144.75155156"><ele>138.000</ele></trkpt>
    <trkpt lat="-37.66928534" lon="144.75157962"><ele>138.000</ele></trkpt>
    <trkpt lat="-37.66925112" lon="144.75160897"><ele>138.000</ele></trkpt>
    <trkpt lat="-37.66921751" lon="144.75162863"><ele>137.000</ele></trkpt>
    <trkpt lat="-37.66916986" lon="144.75164685"><ele>137.000</ele></trkpt>
    <trkpt lat="-37.66912121" lon="144.75165722"><ele>137.000</ele></trkpt>
    <trkpt lat="-37.66907565" lon="144.75165947"><ele>137.000</ele></trkpt>
    <trkpt lat="-37.66902713" lon="144.75164929"><ele>138.000</ele></trkpt>
    <trkpt lat="-37.66897370" lon="144.75163041"><ele>138.000</ele></trkpt>
    <trkpt lat="-37.66892577" lon="144.75160243"><ele>138.000</ele></trkpt>
    <trkpt lat="-37.66886464" lon="144.75155704"><ele>138.000</ele></trkpt>
    <trkpt lat="-37.66882775" lon="144.75152112"><ele>138.000</ele></trkpt>
    <trkpt lat="-37.66879054" lon="144.75149248"><ele>138.000</ele></trkpt>
    <trkpt lat="-37.66875583" lon="144.75147607"><ele>138.000</ele></trkpt>
    <trkpt lat="-37.66872260" lon="144.75146530"><ele>139.000</ele></trkpt>
    <trkpt lat="-37.66867501" lon="144.75145754"><ele>139.000</ele></trkpt>
    <trkpt lat="-37.66810055" lon="144.75140035"><ele>139.000</ele></trkpt>
    <trkpt lat="-37.66797612" lon="144.75138568"><ele>139.000</ele></trkpt>
    <trkpt lat="-37.66792833" lon="144.75139220"><ele>139.000</ele></trkpt>
    <trkpt lat="-37.66788715" lon="144.75141067"><ele>139.000</ele></trkpt>
    <trkpt lat="-37.66785361" lon="144.75143526"><ele>140.000</ele></trkpt>
    <trkpt lat="-37.66782723" lon="144.75146346"><ele>140.000</ele></trkpt>
    <trkpt lat="-37.66781096" lon="144.75149635"><ele>139.000</ele></trkpt>
    <trkpt lat="-37.66778468" lon="144.75155774"><ele>139.000</ele></trkpt>
    <trkpt lat="-37.66777886" lon="144.75159256"><ele>139.000</ele></trkpt>
    <trkpt lat="-37.66777990" lon="144.75164062"><ele>139.000</ele></trkpt>
    <trkpt lat="-37.66779113" lon="144.75170246"><ele>139.000</ele></trkpt>
    <trkpt lat="-37.66780808" lon="144.75176733"><ele>138.000</ele></trkpt>
    <trkpt lat="-37.66784322" lon="144.75187303"><ele>138.000</ele></trkpt>
    <trkpt lat="-37.66788421" lon="144.75198529"><ele>138.000</ele></trkpt>
    <trkpt lat="-37.66792460" lon="144.75206703"><ele>138.000</ele></trkpt>
    <trkpt lat="-37.66798728" lon="144.75217126"><ele>138.000</ele></trkpt>
    <trkpt lat="-37.66803532" lon="144.75224424"><ele>138.000</ele></trkpt>
    <trkpt lat="-37.66808729" lon="144.75230866"><ele>138.000</ele></trkpt>
    <trkpt lat="-37.66815995" lon="144.75238061"><ele>138.000</ele></trkpt>
    <trkpt lat="-37.66820114" lon="144.75241274"><ele>138.000</ele></trkpt>
    <trkpt lat="-37.66827926" lon="144.75248070"><ele>138.000</ele></trkpt>
    <trkpt lat="-37.66839154" lon="144.75253386"><ele>138.000</ele></trkpt>
    <trkpt lat="-37.66984967" lon="144.75320901"><ele>137.000</ele></trkpt>
    <trkpt lat="-37.67042044" lon="144.75347323"><ele>134.000</ele></trkpt>
  </trkseg></trk>
</gpx>
