<?xml version="1.0" encoding="UTF-8"?>
<gpx version="1.1" creator="Send-It tkk-to-gpx (Harry's LapTimer .tkk)">
  <trk><name>donington</name><trkseg>
    <trkpt lat="52.82984480" lon="-1.37955290"></trkpt>
    <trkpt lat="52.82985100" lon="-1.37961350"></trkpt>
    <trkpt lat="52.83020730" lon="-1.38308300"></trkpt>
    <trkpt lat="52.83028270" lon="-1.38381410"></trkpt>
    <trkpt lat="52.83033180" lon="-1.38411690"></trkpt>
    <trkpt lat="52.83038790" lon="-1.38433890"></trkpt>
    <trkpt lat="52.83042180" lon="-1.38443500"></trkpt>
    <trkpt lat="52.83046140" lon="-1.38452540"></trkpt>
    <trkpt lat="52.83050580" lon="-1.38460620"></trkpt>
    <trkpt lat="52.83055440" lon="-1.38467900"></trkpt>
    <trkpt lat="52.83059730" lon="-1.38473180"></trkpt>
    <trkpt lat="52.83064290" lon="-1.38477730"></trkpt>
    <trkpt lat="52.83068990" lon="-1.38481500"></trkpt>
    <trkpt lat="52.83073970" lon="-1.38484550"></trkpt>
    <trkpt lat="52.83078970" lon="-1.38486650"></trkpt>
    <trkpt lat="52.83084150" lon="-1.38487940"></trkpt>
    <trkpt lat="52.83089430" lon="-1.38488320"></trkpt>
    <trkpt lat="52.83094760" lon="-1.38487860"></trkpt>
    <trkpt lat="52.83100270" lon="-1.38486560"></trkpt>
    <trkpt lat="52.83105870" lon="-1.38484340"></trkpt>
    <trkpt lat="52.83113130" lon="-1.38480200"></trkpt>
    <trkpt lat="52.83120420" lon="-1.38474860"></trkpt>
    <trkpt lat="52.83135570" lon="-1.38459800"></trkpt>
    <trkpt lat="52.83158040" lon="-1.38431090"></trkpt>
    <trkpt lat="52.83181760" lon="-1.38395960"></trkpt>
    <trkpt lat="52.83198430" lon="-1.38366950"></trkpt>
    <trkpt lat="52.83213270" lon="-1.38334980"></trkpt>
    <trkpt lat="52.83225730" lon="-1.38300340"></trkpt>
    <trkpt lat="52.83235750" lon="-1.38263620"></trkpt>
    <trkpt lat="52.83243090" lon="-1.38225070"></trkpt>
    <trkpt lat="52.83247810" lon="-1.38184440"></trkpt>
    <trkpt lat="52.83249800" lon="-1.38141860"></trkpt>
    <trkpt lat="52.83249420" lon="-1.38098130"></trkpt>
    <trkpt lat="52.83246660" lon="-1.38055170"></trkpt>
    <trkpt lat="52.83233970" lon="-1.37937570"></trkpt>
    <trkpt lat="52.83233360" lon="-1.37891350"></trkpt>
    <trkpt lat="52.83237070" lon="-1.37844660"></trkpt>
    <trkpt lat="52.83248850" lon="-1.37785340"></trkpt>
    <trkpt lat="52.83277630" lon="-1.37677570"></trkpt>
    <trkpt lat="52.83286490" lon="-1.37634040"></trkpt>
    <trkpt lat="52.83289720" lon="-1.37609150"></trkpt>
    <trkpt lat="52.83290460" lon="-1.37585060"></trkpt>
    <trkpt lat="52.83289940" lon="-1.37575270"></trkpt>
    <trkpt lat="52.83288890" lon="-1.37565750"></trkpt>
    <trkpt lat="52.83285210" lon="-1.37546270"></trkpt>
    <trkpt lat="52.83279370" lon="-1.37526940"></trkpt>
    <trkpt lat="52.83269070" lon="-1.37503570"></trkpt>
    <trkpt lat="52.83255890" lon="-1.37481130"></trkpt>
    <trkpt lat="52.83196450" lon="-1.37394280"></trkpt>
    <trkpt lat="52.83168840" lon="-1.37340990"></trkpt>
    <trkpt lat="52.83151490" lon="-1.37294110"></trkpt>
    <trkpt lat="52.83137040" lon="-1.37233010"></trkpt>
    <trkpt lat="52.83127140" lon="-1.37156670"></trkpt>
    <trkpt lat="52.83122740" lon="-1.37066530"></trkpt>
    <trkpt lat="52.83125570" lon="-1.36997980"></trkpt>
    <trkpt lat="52.83133920" lon="-1.36939490"></trkpt>
    <trkpt lat="52.83147170" lon="-1.36888100"></trkpt>
    <trkpt lat="52.83168570" lon="-1.36824230"></trkpt>
    <trkpt lat="52.83175640" lon="-1.36795120"></trkpt>
    <trkpt lat="52.83178840" lon="-1.36771880"></trkpt>
    <trkpt lat="52.83179390" lon="-1.36762820"></trkpt>
    <trkpt lat="52.83179390" lon="-1.36753810"></trkpt>
    <trkpt lat="52.83178690" lon="-1.36742640"></trkpt>
    <trkpt lat="52.83177340" lon="-1.36731520"></trkpt>
    <trkpt lat="52.83175650" lon="-1.36722440"></trkpt>
    <trkpt lat="52.83173470" lon="-1.36713690"></trkpt>
    <trkpt lat="52.83167520" lon="-1.36696370"></trkpt>
    <trkpt lat="52.83157280" lon="-1.36675870"></trkpt>
    <trkpt lat="52.83146780" lon="-1.36660850"></trkpt>
    <trkpt lat="52.83127510" lon="-1.36640310"></trkpt>
    <trkpt lat="52.83055430" lon="-1.36573540"></trkpt>
    <trkpt lat="52.82967170" lon="-1.36488820"></trkpt>
    <trkpt lat="52.82951610" lon="-1.36477870"></trkpt>
    <trkpt lat="52.82944790" lon="-1.36474860"></trkpt>
    <trkpt lat="52.82938080" lon="-1.36472960"></trkpt>
    <trkpt lat="52.82932460" lon="-1.36472240"></trkpt>
    <trkpt lat="52.82926760" lon="-1.36472420"></trkpt>
    <trkpt lat="52.82919430" lon="-1.36473830"></trkpt>
    <trkpt lat="52.82912160" lon="-1.36476240"></trkpt>
    <trkpt lat="52.82900340" lon="-1.36482830"></trkpt>
    <trkpt lat="52.82889050" lon="-1.36492720"></trkpt>
    <trkpt lat="52.82878760" lon="-1.36505850"></trkpt>
    <trkpt lat="52.82869640" lon="-1.36521960"></trkpt>
    <trkpt lat="52.82861730" lon="-1.36541000"></trkpt>
    <trkpt lat="52.82853510" lon="-1.36568850"></trkpt>
    <trkpt lat="52.82847240" lon="-1.36600760"></trkpt>
    <trkpt lat="52.82843320" lon="-1.36636400"></trkpt>
    <trkpt lat="52.82841880" lon="-1.36675440"></trkpt>
    <trkpt lat="52.82843020" lon="-1.36726020"></trkpt>
    <trkpt lat="52.82849310" lon="-1.36827390"></trkpt>
    <trkpt lat="52.82862680" lon="-1.37011010"></trkpt>
    <trkpt lat="52.82876720" lon="-1.37258120"></trkpt>
    <trkpt lat="52.82885170" lon="-1.37448820"></trkpt>
    <trkpt lat="52.82886390" lon="-1.37462080"></trkpt>
    <trkpt lat="52.82887940" lon="-1.37471780"></trkpt>
    <trkpt lat="52.82889700" lon="-1.37479090"></trkpt>
    <trkpt lat="52.82892020" lon="-1.37485670"></trkpt>
    <trkpt lat="52.82894740" lon="-1.37491210"></trkpt>
    <trkpt lat="52.82898440" lon="-1.37496970"></trkpt>
    <trkpt lat="52.82908800" lon="-1.37509120"></trkpt>
    <trkpt lat="52.82919550" lon="-1.37522200"></trkpt>
    <trkpt lat="52.82924850" lon="-1.37531480"></trkpt>
    <trkpt lat="52.82929120" lon="-1.37541480"></trkpt>
    <trkpt lat="52.82934420" lon="-1.37557530"></trkpt>
    <trkpt lat="52.82939280" lon="-1.37577040"></trkpt>
    <trkpt lat="52.82953150" lon="-1.37662610"></trkpt>
    <trkpt lat="52.82964220" lon="-1.37757260"></trkpt>
    <trkpt lat="52.82984480" lon="-1.37955290"></trkpt>
  </trkseg></trk>
</gpx>
