<?xml version="1.0" encoding="UTF-8"?>
<gpx version="1.1" creator="Send-It ztracks">
  <trk><name>Hidden Valley, Darwin</name><trkseg>
    <trkpt lat="-12.44823890" lon="130.90795940"></trkpt>
    <trkpt lat="-12.44639010" lon="130.91209860"></trkpt>
    <trkpt lat="-12.44636240" lon="130.91215580"></trkpt>
    <trkpt lat="-12.44633360" lon="130.91220090"></trkpt>
    <trkpt lat="-12.44629800" lon="130.91224150"></trkpt>
    <trkpt lat="-12.44625500" lon="130.91227900"></trkpt>
    <trkpt lat="-12.44620940" lon="130.91231240"></trkpt>
    <trkpt lat="-12.44615950" lon="130.91234230"></trkpt>
    <trkpt lat="-12.44610720" lon="130.91236390"></trkpt>
    <trkpt lat="-12.44605480" lon="130.91237830"></trkpt>
    <trkpt lat="-12.44600570" lon="130.91238250"></trkpt>
    <trkpt lat="-12.44595270" lon="130.91238110"></trkpt>
    <trkpt lat="-12.44590400" lon="130.91237530"></trkpt>
    <trkpt lat="-12.44586010" lon="130.91236380"></trkpt>
    <trkpt lat="-12.44581920" lon="130.91235110"></trkpt>
    <trkpt lat="-12.44577740" lon="130.91233170"></trkpt>
    <trkpt lat="-12.44573150" lon="130.91230400"></trkpt>
    <trkpt lat="-12.44569120" lon="130.91227500"></trkpt>
    <trkpt lat="-12.44564930" lon="130.91223760"></trkpt>
    <trkpt lat="-12.44561770" lon="130.91219960"></trkpt>
    <trkpt lat="-12.44558800" lon="130.91215090"></trkpt>
    <trkpt lat="-12.44556510" lon="130.91210390"></trkpt>
    <trkpt lat="-12.44554340" lon="130.91204210"></trkpt>
    <trkpt lat="-12.44553360" lon="130.91197830"></trkpt>
    <trkpt lat="-12.44553320" lon="130.91192010"></trkpt>
    <trkpt lat="-12.44554130" lon="130.91185670"></trkpt>
    <trkpt lat="-12.44555440" lon="130.91180440"></trkpt>
    <trkpt lat="-12.44557860" lon="130.91174370"></trkpt>
    <trkpt lat="-12.44560400" lon="130.91169780"></trkpt>
    <trkpt lat="-12.44565320" lon="130.91162830"></trkpt>
    <trkpt lat="-12.44569750" lon="130.91157310"></trkpt>
    <trkpt lat="-12.44650600" lon="130.91070640"></trkpt>
    <trkpt lat="-12.44655300" lon="130.91064830"></trkpt>
    <trkpt lat="-12.44660040" lon="130.91058360"></trkpt>
    <trkpt lat="-12.44665580" lon="130.91050270"></trkpt>
    <trkpt lat="-12.44673030" lon="130.91038250"></trkpt>
    <trkpt lat="-12.44679130" lon="130.91027180"></trkpt>
    <trkpt lat="-12.44687980" lon="130.91009470"></trkpt>
    <trkpt lat="-12.44695150" lon="130.90993830"></trkpt>
    <trkpt lat="-12.44698660" lon="130.90984720"></trkpt>
    <trkpt lat="-12.44701410" lon="130.90976430"></trkpt>
    <trkpt lat="-12.44703620" lon="130.90966970"></trkpt>
    <trkpt lat="-12.44704790" lon="130.90957930"></trkpt>
    <trkpt lat="-12.44705460" lon="130.90948930"></trkpt>
    <trkpt lat="-12.44705340" lon="130.90940340"></trkpt>
    <trkpt lat="-12.44705410" lon="130.90928940"></trkpt>
    <trkpt lat="-12.44705660" lon="130.90920310"></trkpt>
    <trkpt lat="-12.44706050" lon="130.90914580"></trkpt>
    <trkpt lat="-12.44706910" lon="130.90908350"></trkpt>
    <trkpt lat="-12.44708460" lon="130.90901710"></trkpt>
    <trkpt lat="-12.44711960" lon="130.90890770"></trkpt>
    <trkpt lat="-12.44758470" lon="130.90766660"></trkpt>
    <trkpt lat="-12.44759520" lon="130.90762400"></trkpt>
    <trkpt lat="-12.44759960" lon="130.90757880"></trkpt>
    <trkpt lat="-12.44759840" lon="130.90752960"></trkpt>
    <trkpt lat="-12.44759220" lon="130.90748570"></trkpt>
    <trkpt lat="-12.44757950" lon="130.90744340"></trkpt>
    <trkpt lat="-12.44756030" lon="130.90739960"></trkpt>
    <trkpt lat="-12.44753240" lon="130.90735950"></trkpt>
    <trkpt lat="-12.44749990" lon="130.90732330"></trkpt>
    <trkpt lat="-12.44746810" lon="130.90729090"></trkpt>
    <trkpt lat="-12.44743800" lon="130.90726770"></trkpt>
    <trkpt lat="-12.44740790" lon="130.90724950"></trkpt>
    <trkpt lat="-12.44736810" lon="130.90723320"></trkpt>
    <trkpt lat="-12.44733140" lon="130.90722130"></trkpt>
    <trkpt lat="-12.44728160" lon="130.90720980"></trkpt>
    <trkpt lat="-12.44687200" lon="130.90714530"></trkpt>
    <trkpt lat="-12.44680870" lon="130.90713620"></trkpt>
    <trkpt lat="-12.44672540" lon="130.90712000"></trkpt>
    <trkpt lat="-12.44662300" lon="130.90709890"></trkpt>
    <trkpt lat="-12.44567600" lon="130.90690850"></trkpt>
    <trkpt lat="-12.44564870" lon="130.90690090"></trkpt>
    <trkpt lat="-12.44561860" lon="130.90689030"></trkpt>
    <trkpt lat="-12.44558510" lon="130.90687570"></trkpt>
    <trkpt lat="-12.44555140" lon="130.90685600"></trkpt>
    <trkpt lat="-12.44551860" lon="130.90682990"></trkpt>
    <trkpt lat="-12.44549240" lon="130.90680000"></trkpt>
    <trkpt lat="-12.44547130" lon="130.90675960"></trkpt>
    <trkpt lat="-12.44546020" lon="130.90671690"></trkpt>
    <trkpt lat="-12.44545520" lon="130.90667350"></trkpt>
    <trkpt lat="-12.44545800" lon="130.90663090"></trkpt>
    <trkpt lat="-12.44546720" lon="130.90659110"></trkpt>
    <trkpt lat="-12.44547900" lon="130.90656260"></trkpt>
    <trkpt lat="-12.44549630" lon="130.90653470"></trkpt>
    <trkpt lat="-12.44551750" lon="130.90650940"></trkpt>
    <trkpt lat="-12.44554270" lon="130.90648840"></trkpt>
    <trkpt lat="-12.44557430" lon="130.90646760"></trkpt>
    <trkpt lat="-12.44560730" lon="130.90645750"></trkpt>
    <trkpt lat="-12.44564010" lon="130.90644990"></trkpt>
    <trkpt lat="-12.44568260" lon="130.90644650"></trkpt>
    <trkpt lat="-12.44574810" lon="130.90644720"></trkpt>
    <trkpt lat="-12.44705200" lon="130.90651190"></trkpt>
    <trkpt lat="-12.44711170" lon="130.90650690"></trkpt>
    <trkpt lat="-12.44717660" lon="130.90649490"></trkpt>
    <trkpt lat="-12.44724110" lon="130.90646890"></trkpt>
    <trkpt lat="-12.44731020" lon="130.90643190"></trkpt>
    <trkpt lat="-12.44737170" lon="130.90638440"></trkpt>
    <trkpt lat="-12.44742880" lon="130.90633070"></trkpt>
    <trkpt lat="-12.44747280" lon="130.90627840"></trkpt>
    <trkpt lat="-12.44750790" lon="130.90622080"></trkpt>
    <trkpt lat="-12.44754190" lon="130.90615570"></trkpt>
    <trkpt lat="-12.44779650" lon="130.90559210"></trkpt>
    <trkpt lat="-12.44781580" lon="130.90554550"></trkpt>
    <trkpt lat="-12.44782920" lon="130.90550130"></trkpt>
    <trkpt lat="-12.44783740" lon="130.90546280"></trkpt>
    <trkpt lat="-12.44784120" lon="130.90541840"></trkpt>
    <trkpt lat="-12.44784210" lon="130.90537380"></trkpt>
    <trkpt lat="-12.44783790" lon="130.90531790"></trkpt>
    <trkpt lat="-12.44774460" lon="130.90449140"></trkpt>
    <trkpt lat="-12.44774210" lon="130.90445200"></trkpt>
    <trkpt lat="-12.44774130" lon="130.90440960"></trkpt>
    <trkpt lat="-12.44774270" lon="130.90437250"></trkpt>
    <trkpt lat="-12.44774800" lon="130.90431750"></trkpt>
    <trkpt lat="-12.44775770" lon="130.90423940"></trkpt>
    <trkpt lat="-12.44784340" lon="130.90352510"></trkpt>
    <trkpt lat="-12.44785200" lon="130.90348950"></trkpt>
    <trkpt lat="-12.44786170" lon="130.90345570"></trkpt>
    <trkpt lat="-12.44787470" lon="130.90342420"></trkpt>
    <trkpt lat="-12.44789350" lon="130.90338730"></trkpt>
    <trkpt lat="-12.44792240" lon="130.90334680"></trkpt>
    <trkpt lat="-12.44796850" lon="130.90329610"></trkpt>
    <trkpt lat="-12.44825030" lon="130.90304780"></trkpt>
    <trkpt lat="-12.44827910" lon="130.90302930"></trkpt>
    <trkpt lat="-12.44831620" lon="130.90301280"></trkpt>
    <trkpt lat="-12.44835290" lon="130.90300130"></trkpt>
    <trkpt lat="-12.44838710" lon="130.90299590"></trkpt>
    <trkpt lat="-12.44842240" lon="130.90299180"></trkpt>
    <trkpt lat="-12.44845700" lon="130.90299180"></trkpt>
    <trkpt lat="-12.44849420" lon="130.90299560"></trkpt>
    <trkpt lat="-12.44900560" lon="130.90308180"></trkpt>
    <trkpt lat="-12.44904810" lon="130.90308690"></trkpt>
    <trkpt lat="-12.44909960" lon="130.90309160"></trkpt>
    <trkpt lat="-12.44913600" lon="130.90309330"></trkpt>
    <trkpt lat="-12.44918140" lon="130.90309010"></trkpt>
    <trkpt lat="-12.44923290" lon="130.90308240"></trkpt>
    <trkpt lat="-12.44932120" lon="130.90306500"></trkpt>
    <trkpt lat="-12.44964840" lon="130.90300450"></trkpt>
    <trkpt lat="-12.44968460" lon="130.90299980"></trkpt>
    <trkpt lat="-12.44972610" lon="130.90300030"></trkpt>
    <trkpt lat="-12.44975870" lon="130.90300680"></trkpt>
    <trkpt lat="-12.44979650" lon="130.90301890"></trkpt>
    <trkpt lat="-12.44983400" lon="130.90303410"></trkpt>
    <trkpt lat="-12.44987460" lon="130.90305500"></trkpt>
    <trkpt lat="-12.44992050" lon="130.90308340"></trkpt>
    <trkpt lat="-12.45016160" lon="130.90325390"></trkpt>
    <trkpt lat="-12.45020120" lon="130.90329240"></trkpt>
    <trkpt lat="-12.45021790" lon="130.90331410"></trkpt>
    <trkpt lat="-12.45023030" lon="130.90333810"></trkpt>
    <trkpt lat="-12.45024160" lon="130.90336680"></trkpt>
    <trkpt lat="-12.45024800" lon="130.90339930"></trkpt>
    <trkpt lat="-12.45025010" lon="130.90342830"></trkpt>
    <trkpt lat="-12.45024790" lon="130.90345540"></trkpt>
    <trkpt lat="-12.45024090" lon="130.90348630"></trkpt>
    <trkpt lat="-12.45022280" lon="130.90353190"></trkpt>
    <trkpt lat="-12.44823890" lon="130.90795940"></trkpt>
  </trkseg></trk>
</gpx>