<?xml version="1.0" encoding="UTF-8"?>
<gpx version="1.1" creator="Send-It tkk-to-gpx (Harry's LapTimer .tkk)">
  <trk><name>knockhill</name><trkseg>
    <trkpt lat="56.13099250" lon="-3.50796720"></trkpt>
    <trkpt lat="56.13097230" lon="-3.50757380"></trkpt>
    <trkpt lat="56.13081480" lon="-3.50515590"></trkpt>
    <trkpt lat="56.13079970" lon="-3.50494830"></trkpt>
    <trkpt lat="56.13064840" lon="-3.50276860"></trkpt>
    <trkpt lat="56.13061090" lon="-3.50245950"></trkpt>
    <trkpt lat="56.13056340" lon="-3.50222510"></trkpt>
    <trkpt lat="56.13049830" lon="-3.50200900"></trkpt>
    <trkpt lat="56.13039600" lon="-3.50176660"></trkpt>
    <trkpt lat="56.13027460" lon="-3.50155090"></trkpt>
    <trkpt lat="56.12997490" lon="-3.50110770"></trkpt>
    <trkpt lat="56.12990100" lon="-3.50095790"></trkpt>
    <trkpt lat="56.12984300" lon="-3.50080700"></trkpt>
    <trkpt lat="56.12978690" lon="-3.50061900"></trkpt>
    <trkpt lat="56.12974000" lon="-3.50041420"></trkpt>
    <trkpt lat="56.12965390" lon="-3.49985790"></trkpt>
    <trkpt lat="56.12960360" lon="-3.49957610"></trkpt>
    <trkpt lat="56.12958010" lon="-3.49949180"></trkpt>
    <trkpt lat="56.12955250" lon="-3.49941590"></trkpt>
    <trkpt lat="56.12952070" lon="-3.49934630"></trkpt>
    <trkpt lat="56.12948390" lon="-3.49928210"></trkpt>
    <trkpt lat="56.12944490" lon="-3.49922790"></trkpt>
    <trkpt lat="56.12940120" lon="-3.49918100"></trkpt>
    <trkpt lat="56.12935600" lon="-3.49914540"></trkpt>
    <trkpt lat="56.12930710" lon="-3.49911900"></trkpt>
    <trkpt lat="56.12925730" lon="-3.49910420"></trkpt>
    <trkpt lat="56.12920440" lon="-3.49909950"></trkpt>
    <trkpt lat="56.12914170" lon="-3.49910680"></trkpt>
    <trkpt lat="56.12907040" lon="-3.49912840"></trkpt>
    <trkpt lat="56.12872590" lon="-3.49931440"></trkpt>
    <trkpt lat="56.12855410" lon="-3.49944090"></trkpt>
    <trkpt lat="56.12842290" lon="-3.49958710"></trkpt>
    <trkpt lat="56.12832920" lon="-3.49973370"></trkpt>
    <trkpt lat="56.12823010" lon="-3.49995370"></trkpt>
    <trkpt lat="56.12802010" lon="-3.50051500"></trkpt>
    <trkpt lat="56.12785360" lon="-3.50080910"></trkpt>
    <trkpt lat="56.12767410" lon="-3.50105910"></trkpt>
    <trkpt lat="56.12763190" lon="-3.50113560"></trkpt>
    <trkpt lat="56.12759750" lon="-3.50121330"></trkpt>
    <trkpt lat="56.12755780" lon="-3.50132440"></trkpt>
    <trkpt lat="56.12752300" lon="-3.50144430"></trkpt>
    <trkpt lat="56.12746820" lon="-3.50170780"></trkpt>
    <trkpt lat="56.12742500" lon="-3.50205670"></trkpt>
    <trkpt lat="56.12731880" lon="-3.50352480"></trkpt>
    <trkpt lat="56.12724960" lon="-3.50471950"></trkpt>
    <trkpt lat="56.12724370" lon="-3.50511190"></trkpt>
    <trkpt lat="56.12725100" lon="-3.50524870"></trkpt>
    <trkpt lat="56.12726430" lon="-3.50537380"></trkpt>
    <trkpt lat="56.12728110" lon="-3.50547380"></trkpt>
    <trkpt lat="56.12730300" lon="-3.50556850"></trkpt>
    <trkpt lat="56.12732920" lon="-3.50565850"></trkpt>
    <trkpt lat="56.12736020" lon="-3.50574520"></trkpt>
    <trkpt lat="56.12739390" lon="-3.50582410"></trkpt>
    <trkpt lat="56.12743370" lon="-3.50590050"></trkpt>
    <trkpt lat="56.12748620" lon="-3.50598310"></trkpt>
    <trkpt lat="56.12754640" lon="-3.50606060"></trkpt>
    <trkpt lat="56.12760880" lon="-3.50612440"></trkpt>
    <trkpt lat="56.12767850" lon="-3.50618090"></trkpt>
    <trkpt lat="56.12785710" lon="-3.50627970"></trkpt>
    <trkpt lat="56.12814840" lon="-3.50643810"></trkpt>
    <trkpt lat="56.12831450" lon="-3.50657930"></trkpt>
    <trkpt lat="56.12847650" lon="-3.50675020"></trkpt>
    <trkpt lat="56.12883020" lon="-3.50723370"></trkpt>
    <trkpt lat="56.12916630" lon="-3.50784720"></trkpt>
    <trkpt lat="56.12955970" lon="-3.50875010"></trkpt>
    <trkpt lat="56.13009430" lon="-3.51022020"></trkpt>
    <trkpt lat="56.13045870" lon="-3.51131010"></trkpt>
    <trkpt lat="56.13076770" lon="-3.51225460"></trkpt>
    <trkpt lat="56.13079830" lon="-3.51232190"></trkpt>
    <trkpt lat="56.13082790" lon="-3.51236790"></trkpt>
    <trkpt lat="56.13084700" lon="-3.51239020"></trkpt>
    <trkpt lat="56.13086740" lon="-3.51240880"></trkpt>
    <trkpt lat="56.13088930" lon="-3.51242230"></trkpt>
    <trkpt lat="56.13091110" lon="-3.51242980"></trkpt>
    <trkpt lat="56.13093400" lon="-3.51243290"></trkpt>
    <trkpt lat="56.13095630" lon="-3.51243110"></trkpt>
    <trkpt lat="56.13097880" lon="-3.51242260"></trkpt>
    <trkpt lat="56.13100060" lon="-3.51240840"></trkpt>
    <trkpt lat="56.13102080" lon="-3.51239100"></trkpt>
    <trkpt lat="56.13105100" lon="-3.51235430"></trkpt>
    <trkpt lat="56.13107740" lon="-3.51230880"></trkpt>
    <trkpt lat="56.13110710" lon="-3.51223950"></trkpt>
    <trkpt lat="56.13113170" lon="-3.51216140"></trkpt>
    <trkpt lat="56.13115120" lon="-3.51207170"></trkpt>
    <trkpt lat="56.13116520" lon="-3.51197440"></trkpt>
    <trkpt lat="56.13117700" lon="-3.51184620"></trkpt>
    <trkpt lat="56.13118270" lon="-3.51170610"></trkpt>
    <trkpt lat="56.13117270" lon="-3.51133180"></trkpt>
    <trkpt lat="56.13108790" lon="-3.50982910"></trkpt>
    <trkpt lat="56.13099250" lon="-3.50796720"></trkpt>
  </trkseg></trk>
</gpx>
