<?xml version="1.0" encoding="UTF-8"?>
<gpx version="1.1" creator="Send-It DEM enrich">
  <trk><name>lakeside</name><trkseg>
    <trkpt lat="-27.22849900" lon="152.96490330"><ele>25.000</ele></trkpt>
    <trkpt lat="-27.22848830" lon="152.96486240"><ele>25.000</ele></trkpt>
    <trkpt lat="-27.22845740" lon="152.96474540"><ele>25.000</ele></trkpt>
    <trkpt lat="-27.22842630" lon="152.96462820"><ele>24.000</ele></trkpt>
    <trkpt lat="-27.22839550" lon="152.96451110"><ele>24.000</ele></trkpt>
    <trkpt lat="-27.22836480" lon="152.96439370"><ele>24.000</ele></trkpt>
    <trkpt lat="-27.22833440" lon="152.96427610"><ele>24.000</ele></trkpt>
    <trkpt lat="-27.22830410" lon="152.96415860"><ele>24.000</ele></trkpt>
    <trkpt lat="-27.22827420" lon="152.96404100"><ele>24.000</ele></trkpt>
    <trkpt lat="-27.22824520" lon="152.96392320"><ele>24.000</ele></trkpt>
    <trkpt lat="-27.22821730" lon="152.96380520"><ele>24.000</ele></trkpt>
    <trkpt lat="-27.22819070" lon="152.96368690"><ele>23.000</ele></trkpt>
    <trkpt lat="-27.22816720" lon="152.96358050"><ele>23.000</ele></trkpt>
    <trkpt lat="-27.22815290" lon="152.96350720"><ele>23.000</ele></trkpt>
    <trkpt lat="-27.22813700" lon="152.96342310"><ele>22.000</ele></trkpt>
    <trkpt lat="-27.22812430" lon="152.96333910"><ele>22.000</ele></trkpt>
    <trkpt lat="-27.22811830" lon="152.96325470"><ele>22.000</ele></trkpt>
    <trkpt lat="-27.22811650" lon="152.96316720"><ele>21.000</ele></trkpt>
    <trkpt lat="-27.22811650" lon="152.96307840"><ele>21.000</ele></trkpt>
    <trkpt lat="-27.22812000" lon="152.96298820"><ele>21.000</ele></trkpt>
    <trkpt lat="-27.22812690" lon="152.96289660"><ele>21.000</ele></trkpt>
    <trkpt lat="-27.22813670" lon="152.96280670"><ele>21.000</ele></trkpt>
    <trkpt lat="-27.22814750" lon="152.96272170"><ele>22.000</ele></trkpt>
    <trkpt lat="-27.22816140" lon="152.96263950"><ele>22.000</ele></trkpt>
    <trkpt lat="-27.22817620" lon="152.96255610"><ele>22.000</ele></trkpt>
    <trkpt lat="-27.22819350" lon="152.96247020"><ele>23.000</ele></trkpt>
    <trkpt lat="-27.22821230" lon="152.96238320"><ele>23.000</ele></trkpt>
    <trkpt lat="-27.22823190" lon="152.96229480"><ele>23.000</ele></trkpt>
    <trkpt lat="-27.22825160" lon="152.96220510"><ele>23.000</ele></trkpt>
    <trkpt lat="-27.22827160" lon="152.96211400"><ele>23.000</ele></trkpt>
    <trkpt lat="-27.22829180" lon="152.96202200"><ele>23.000</ele></trkpt>
    <trkpt lat="-27.22831170" lon="152.96193340"><ele>23.000</ele></trkpt>
    <trkpt lat="-27.22833130" lon="152.96184890"><ele>23.000</ele></trkpt>
    <trkpt lat="-27.22835230" lon="152.96176390"><ele>23.000</ele></trkpt>
    <trkpt lat="-27.22837370" lon="152.96167860"><ele>23.000</ele></trkpt>
    <trkpt lat="-27.22839400" lon="152.96159650"><ele>23.000</ele></trkpt>
    <trkpt lat="-27.22841360" lon="152.96151860"><ele>23.000</ele></trkpt>
    <trkpt lat="-27.22843240" lon="152.96144380"><ele>23.000</ele></trkpt>
    <trkpt lat="-27.22845070" lon="152.96137250"><ele>23.000</ele></trkpt>
    <trkpt lat="-27.22846870" lon="152.96130330"><ele>23.000</ele></trkpt>
    <trkpt lat="-27.22848580" lon="152.96123650"><ele>23.000</ele></trkpt>
    <trkpt lat="-27.22850200" lon="152.96117210"><ele>23.000</ele></trkpt>
    <trkpt lat="-27.22851700" lon="152.96111000"><ele>23.000</ele></trkpt>
    <trkpt lat="-27.22853090" lon="152.96104890"><ele>23.000</ele></trkpt>
    <trkpt lat="-27.22854380" lon="152.96098790"><ele>24.000</ele></trkpt>
    <trkpt lat="-27.22855610" lon="152.96092690"><ele>24.000</ele></trkpt>
    <trkpt lat="-27.22856860" lon="152.96086550"><ele>25.000</ele></trkpt>
    <trkpt lat="-27.22858120" lon="152.96080350"><ele>25.000</ele></trkpt>
    <trkpt lat="-27.22859290" lon="152.96074020"><ele>26.000</ele></trkpt>
    <trkpt lat="-27.22860200" lon="152.96067600"><ele>26.000</ele></trkpt>
    <trkpt lat="-27.22860610" lon="152.96061100"><ele>27.000</ele></trkpt>
    <trkpt lat="-27.22860460" lon="152.96054520"><ele>27.000</ele></trkpt>
    <trkpt lat="-27.22859710" lon="152.96047930"><ele>27.000</ele></trkpt>
    <trkpt lat="-27.22858360" lon="152.96041410"><ele>28.000</ele></trkpt>
    <trkpt lat="-27.22856200" lon="152.96035130"><ele>28.000</ele></trkpt>
    <trkpt lat="-27.22853410" lon="152.96029070"><ele>28.000</ele></trkpt>
    <trkpt lat="-27.22850010" lon="152.96023300"><ele>28.000</ele></trkpt>
    <trkpt lat="-27.22845980" lon="152.96018010"><ele>28.000</ele></trkpt>
    <trkpt lat="-27.22841330" lon="152.96013250"><ele>28.000</ele></trkpt>
    <trkpt lat="-27.22836150" lon="152.96009170"><ele>28.000</ele></trkpt>
    <trkpt lat="-27.22830420" lon="152.96005890"><ele>28.000</ele></trkpt>
    <trkpt lat="-27.22824340" lon="152.96003040"><ele>28.000</ele></trkpt>
    <trkpt lat="-27.22817940" lon="152.96000720"><ele>27.000</ele></trkpt>
    <trkpt lat="-27.22811220" lon="152.95999110"><ele>27.000</ele></trkpt>
    <trkpt lat="-27.22804230" lon="152.95998360"><ele>27.000</ele></trkpt>
    <trkpt lat="-27.22797090" lon="152.95998660"><ele>27.000</ele></trkpt>
    <trkpt lat="-27.22789940" lon="152.95999940"><ele>26.000</ele></trkpt>
    <trkpt lat="-27.22783190" lon="152.96001950"><ele>26.000</ele></trkpt>
    <trkpt lat="-27.22776760" lon="152.96004910"><ele>26.000</ele></trkpt>
    <trkpt lat="-27.22770890" lon="152.96008860"><ele>27.000</ele></trkpt>
    <trkpt lat="-27.22765730" lon="152.96013690"><ele>27.000</ele></trkpt>
    <trkpt lat="-27.22761330" lon="152.96019280"><ele>27.000</ele></trkpt>
    <trkpt lat="-27.22757710" lon="152.96025450"><ele>27.000</ele></trkpt>
    <trkpt lat="-27.22754920" lon="152.96032120"><ele>28.000</ele></trkpt>
    <trkpt lat="-27.22753160" lon="152.96038980"><ele>29.000</ele></trkpt>
    <trkpt lat="-27.22751930" lon="152.96045680"><ele>30.000</ele></trkpt>
    <trkpt lat="-27.22751140" lon="152.96052400"><ele>30.000</ele></trkpt>
    <trkpt lat="-27.22750980" lon="152.96059220"><ele>31.000</ele></trkpt>
    <trkpt lat="-27.22751180" lon="152.96066160"><ele>31.000</ele></trkpt>
    <trkpt lat="-27.22751610" lon="152.96073190"><ele>31.000</ele></trkpt>
    <trkpt lat="-27.22752260" lon="152.96080300"><ele>31.000</ele></trkpt>
    <trkpt lat="-27.22753060" lon="152.96087510"><ele>31.000</ele></trkpt>
    <trkpt lat="-27.22753990" lon="152.96094830"><ele>32.000</ele></trkpt>
    <trkpt lat="-27.22755080" lon="152.96102230"><ele>32.000</ele></trkpt>
    <trkpt lat="-27.22756260" lon="152.96109740"><ele>32.000</ele></trkpt>
    <trkpt lat="-27.22757550" lon="152.96117370"><ele>33.000</ele></trkpt>
    <trkpt lat="-27.22758860" lon="152.96125120"><ele>33.000</ele></trkpt>
    <trkpt lat="-27.22760110" lon="152.96133030"><ele>33.000</ele></trkpt>
    <trkpt lat="-27.22761230" lon="152.96141160"><ele>33.000</ele></trkpt>
    <trkpt lat="-27.22762140" lon="152.96149430"><ele>33.000</ele></trkpt>
    <trkpt lat="-27.22762710" lon="152.96157930"><ele>33.000</ele></trkpt>
    <trkpt lat="-27.22762910" lon="152.96166630"><ele>34.000</ele></trkpt>
    <trkpt lat="-27.22762800" lon="152.96175520"><ele>34.000</ele></trkpt>
    <trkpt lat="-27.22762430" lon="152.96184540"><ele>33.000</ele></trkpt>
    <trkpt lat="-27.22761610" lon="152.96193710"><ele>33.000</ele></trkpt>
    <trkpt lat="-27.22760330" lon="152.96203020"><ele>34.000</ele></trkpt>
    <trkpt lat="-27.22758670" lon="152.96212360"><ele>34.000</ele></trkpt>
    <trkpt lat="-27.22756540" lon="152.96221780"><ele>34.000</ele></trkpt>
    <trkpt lat="-27.22753980" lon="152.96231260"><ele>34.000</ele></trkpt>
    <trkpt lat="-27.22750970" lon="152.96240710"><ele>34.000</ele></trkpt>
    <trkpt lat="-27.22747630" lon="152.96250210"><ele>33.000</ele></trkpt>
    <trkpt lat="-27.22744020" lon="152.96259710"><ele>33.000</ele></trkpt>
    <trkpt lat="-27.22740240" lon="152.96269250"><ele>33.000</ele></trkpt>
    <trkpt lat="-27.22736480" lon="152.96278950"><ele>32.000</ele></trkpt>
    <trkpt lat="-27.22732850" lon="152.96288820"><ele>32.000</ele></trkpt>
    <trkpt lat="-27.22729370" lon="152.96298890"><ele>32.000</ele></trkpt>
    <trkpt lat="-27.22726080" lon="152.96309140"><ele>31.000</ele></trkpt>
    <trkpt lat="-27.22723150" lon="152.96319360"><ele>30.000</ele></trkpt>
    <trkpt lat="-27.22720580" lon="152.96329380"><ele>30.000</ele></trkpt>
    <trkpt lat="-27.22718330" lon="152.96339400"><ele>29.000</ele></trkpt>
    <trkpt lat="-27.22716390" lon="152.96349590"><ele>29.000</ele></trkpt>
    <trkpt lat="-27.22714720" lon="152.96359730"><ele>29.000</ele></trkpt>
    <trkpt lat="-27.22713470" lon="152.96369540"><ele>29.000</ele></trkpt>
    <trkpt lat="-27.22712650" lon="152.96379040"><ele>30.000</ele></trkpt>
    <trkpt lat="-27.22712200" lon="152.96388400"><ele>30.000</ele></trkpt>
    <trkpt lat="-27.22712050" lon="152.96397630"><ele>30.000</ele></trkpt>
    <trkpt lat="-27.22712230" lon="152.96406580"><ele>30.000</ele></trkpt>
    <trkpt lat="-27.22712830" lon="152.96415220"><ele>31.000</ele></trkpt>
    <trkpt lat="-27.22713900" lon="152.96423810"><ele>30.000</ele></trkpt>
    <trkpt lat="-27.22715410" lon="152.96432410"><ele>29.000</ele></trkpt>
    <trkpt lat="-27.22717240" lon="152.96441040"><ele>29.000</ele></trkpt>
    <trkpt lat="-27.22719470" lon="152.96449330"><ele>28.000</ele></trkpt>
    <trkpt lat="-27.22722030" lon="152.96457220"><ele>28.000</ele></trkpt>
    <trkpt lat="-27.22724920" lon="152.96464740"><ele>27.000</ele></trkpt>
    <trkpt lat="-27.22728200" lon="152.96472080"><ele>27.000</ele></trkpt>
    <trkpt lat="-27.22731760" lon="152.96479320"><ele>27.000</ele></trkpt>
    <trkpt lat="-27.22735640" lon="152.96486420"><ele>27.000</ele></trkpt>
    <trkpt lat="-27.22739590" lon="152.96493190"><ele>28.000</ele></trkpt>
    <trkpt lat="-27.22743590" lon="152.96499580"><ele>28.000</ele></trkpt>
    <trkpt lat="-27.22747620" lon="152.96505650"><ele>28.000</ele></trkpt>
    <trkpt lat="-27.22751690" lon="152.96511470"><ele>29.000</ele></trkpt>
    <trkpt lat="-27.22755820" lon="152.96517160"><ele>29.000</ele></trkpt>
    <trkpt lat="-27.22760030" lon="152.96522840"><ele>29.000</ele></trkpt>
    <trkpt lat="-27.22764320" lon="152.96528600"><ele>29.000</ele></trkpt>
    <trkpt lat="-27.22768690" lon="152.96534400"><ele>29.000</ele></trkpt>
    <trkpt lat="-27.22773060" lon="152.96540220"><ele>29.000</ele></trkpt>
    <trkpt lat="-27.22777410" lon="152.96546010"><ele>29.000</ele></trkpt>
    <trkpt lat="-27.22781760" lon="152.96551890"><ele>29.000</ele></trkpt>
    <trkpt lat="-27.22786020" lon="152.96557760"><ele>28.000</ele></trkpt>
    <trkpt lat="-27.22790190" lon="152.96563550"><ele>28.000</ele></trkpt>
    <trkpt lat="-27.22794270" lon="152.96569250"><ele>28.000</ele></trkpt>
    <trkpt lat="-27.22798240" lon="152.96574950"><ele>27.000</ele></trkpt>
    <trkpt lat="-27.22802110" lon="152.96580680"><ele>27.000</ele></trkpt>
    <trkpt lat="-27.22805830" lon="152.96586580"><ele>27.000</ele></trkpt>
    <trkpt lat="-27.22809440" lon="152.96592710"><ele>27.000</ele></trkpt>
    <trkpt lat="-27.22812880" lon="152.96599090"><ele>26.000</ele></trkpt>
    <trkpt lat="-27.22816180" lon="152.96605720"><ele>26.000</ele></trkpt>
    <trkpt lat="-27.22819410" lon="152.96612590"><ele>26.000</ele></trkpt>
    <trkpt lat="-27.22822540" lon="152.96619680"><ele>26.000</ele></trkpt>
    <trkpt lat="-27.22825550" lon="152.96627030"><ele>26.000</ele></trkpt>
    <trkpt lat="-27.22828470" lon="152.96634630"><ele>25.000</ele></trkpt>
    <trkpt lat="-27.22831130" lon="152.96642120"><ele>25.000</ele></trkpt>
    <trkpt lat="-27.22833570" lon="152.96649440"><ele>24.000</ele></trkpt>
    <trkpt lat="-27.22835810" lon="152.96656690"><ele>24.000</ele></trkpt>
    <trkpt lat="-27.22837950" lon="152.96664010"><ele>23.000</ele></trkpt>
    <trkpt lat="-27.22840010" lon="152.96671500"><ele>23.000</ele></trkpt>
    <trkpt lat="-27.22841980" lon="152.96679140"><ele>23.000</ele></trkpt>
    <trkpt lat="-27.22843890" lon="152.96686950"><ele>23.000</ele></trkpt>
    <trkpt lat="-27.22845810" lon="152.96694750"><ele>24.000</ele></trkpt>
    <trkpt lat="-27.22847650" lon="152.96702230"><ele>24.000</ele></trkpt>
    <trkpt lat="-27.22849410" lon="152.96709440"><ele>24.000</ele></trkpt>
    <trkpt lat="-27.22851070" lon="152.96716480"><ele>24.000</ele></trkpt>
    <trkpt lat="-27.22852570" lon="152.96723360"><ele>24.000</ele></trkpt>
    <trkpt lat="-27.22853910" lon="152.96730310"><ele>24.000</ele></trkpt>
    <trkpt lat="-27.22855160" lon="152.96737360"><ele>25.000</ele></trkpt>
    <trkpt lat="-27.22856120" lon="152.96744530"><ele>25.000</ele></trkpt>
    <trkpt lat="-27.22856520" lon="152.96751850"><ele>25.000</ele></trkpt>
    <trkpt lat="-27.22856290" lon="152.96759260"><ele>25.000</ele></trkpt>
    <trkpt lat="-27.22855460" lon="152.96766670"><ele>25.000</ele></trkpt>
    <trkpt lat="-27.22853990" lon="152.96774000"><ele>25.000</ele></trkpt>
    <trkpt lat="-27.22851830" lon="152.96781180"><ele>25.000</ele></trkpt>
    <trkpt lat="-27.22848990" lon="152.96788170"><ele>25.000</ele></trkpt>
    <trkpt lat="-27.22845450" lon="152.96794880"><ele>25.000</ele></trkpt>
    <trkpt lat="-27.22841320" lon="152.96801250"><ele>25.000</ele></trkpt>
    <trkpt lat="-27.22836630" lon="152.96807220"><ele>25.000</ele></trkpt>
    <trkpt lat="-27.22831420" lon="152.96812700"><ele>25.000</ele></trkpt>
    <trkpt lat="-27.22825800" lon="152.96817840"><ele>25.000</ele></trkpt>
    <trkpt lat="-27.22819810" lon="152.96822700"><ele>26.000</ele></trkpt>
    <trkpt lat="-27.22813470" lon="152.96827220"><ele>26.000</ele></trkpt>
    <trkpt lat="-27.22806780" lon="152.96831370"><ele>26.000</ele></trkpt>
    <trkpt lat="-27.22799790" lon="152.96835120"><ele>27.000</ele></trkpt>
    <trkpt lat="-27.22792570" lon="152.96838620"><ele>27.000</ele></trkpt>
    <trkpt lat="-27.22785150" lon="152.96841990"><ele>29.000</ele></trkpt>
    <trkpt lat="-27.22778060" lon="152.96845180"><ele>30.000</ele></trkpt>
    <trkpt lat="-27.22771190" lon="152.96848240"><ele>30.000</ele></trkpt>
    <trkpt lat="-27.22764230" lon="152.96851400"><ele>31.000</ele></trkpt>
    <trkpt lat="-27.22757200" lon="152.96854780"><ele>31.000</ele></trkpt>
    <trkpt lat="-27.22750240" lon="152.96858550"><ele>32.000</ele></trkpt>
    <trkpt lat="-27.22743840" lon="152.96862600"><ele>32.000</ele></trkpt>
    <trkpt lat="-27.22738130" lon="152.96867180"><ele>33.000</ele></trkpt>
    <trkpt lat="-27.22732640" lon="152.96872130"><ele>33.000</ele></trkpt>
    <trkpt lat="-27.22727540" lon="152.96877390"><ele>33.000</ele></trkpt>
    <trkpt lat="-27.22723170" lon="152.96882870"><ele>34.000</ele></trkpt>
    <trkpt lat="-27.22719640" lon="152.96888660"><ele>34.000</ele></trkpt>
    <trkpt lat="-27.22716820" lon="152.96894850"><ele>35.000</ele></trkpt>
    <trkpt lat="-27.22714680" lon="152.96901350"><ele>35.000</ele></trkpt>
    <trkpt lat="-27.22713150" lon="152.96907910"><ele>36.000</ele></trkpt>
    <trkpt lat="-27.22712260" lon="152.96914480"><ele>36.000</ele></trkpt>
    <trkpt lat="-27.22711980" lon="152.96921060"><ele>37.000</ele></trkpt>
    <trkpt lat="-27.22712470" lon="152.96927600"><ele>37.000</ele></trkpt>
    <trkpt lat="-27.22713620" lon="152.96934060"><ele>38.000</ele></trkpt>
    <trkpt lat="-27.22715400" lon="152.96940370"><ele>39.000</ele></trkpt>
    <trkpt lat="-27.22717800" lon="152.96946430"><ele>39.000</ele></trkpt>
    <trkpt lat="-27.22720880" lon="152.96952130"><ele>39.000</ele></trkpt>
    <trkpt lat="-27.22724610" lon="152.96957340"><ele>39.000</ele></trkpt>
    <trkpt lat="-27.22728940" lon="152.96961990"><ele>39.000</ele></trkpt>
    <trkpt lat="-27.22733810" lon="152.96966020"><ele>39.000</ele></trkpt>
    <trkpt lat="-27.22739090" lon="152.96969490"><ele>39.000</ele></trkpt>
    <trkpt lat="-27.22744740" lon="152.96972340"><ele>38.000</ele></trkpt>
    <trkpt lat="-27.22750640" lon="152.96974530"><ele>38.000</ele></trkpt>
    <trkpt lat="-27.22756810" lon="152.96976030"><ele>38.000</ele></trkpt>
    <trkpt lat="-27.22763130" lon="152.96976780"><ele>37.000</ele></trkpt>
    <trkpt lat="-27.22769580" lon="152.96976890"><ele>37.000</ele></trkpt>
    <trkpt lat="-27.22776180" lon="152.96976360"><ele>37.000</ele></trkpt>
    <trkpt lat="-27.22782900" lon="152.96975320"><ele>37.000</ele></trkpt>
    <trkpt lat="-27.22789690" lon="152.96973820"><ele>36.000</ele></trkpt>
    <trkpt lat="-27.22796640" lon="152.96971940"><ele>36.000</ele></trkpt>
    <trkpt lat="-27.22803730" lon="152.96969690"><ele>35.000</ele></trkpt>
    <trkpt lat="-27.22810970" lon="152.96967020"><ele>34.000</ele></trkpt>
    <trkpt lat="-27.22818400" lon="152.96964080"><ele>34.000</ele></trkpt>
    <trkpt lat="-27.22825970" lon="152.96960810"><ele>33.000</ele></trkpt>
    <trkpt lat="-27.22833760" lon="152.96957420"><ele>32.000</ele></trkpt>
    <trkpt lat="-27.22841650" lon="152.96953720"><ele>31.000</ele></trkpt>
    <trkpt lat="-27.22849690" lon="152.96949700"><ele>30.000</ele></trkpt>
    <trkpt lat="-27.22857830" lon="152.96945480"><ele>29.000</ele></trkpt>
    <trkpt lat="-27.22866070" lon="152.96941040"><ele>28.000</ele></trkpt>
    <trkpt lat="-27.22874380" lon="152.96936330"><ele>28.000</ele></trkpt>
    <trkpt lat="-27.22882570" lon="152.96931070"><ele>27.000</ele></trkpt>
    <trkpt lat="-27.22890450" lon="152.96925100"><ele>26.000</ele></trkpt>
    <trkpt lat="-27.22897760" lon="152.96918470"><ele>26.000</ele></trkpt>
    <trkpt lat="-27.22904420" lon="152.96911020"><ele>26.000</ele></trkpt>
    <trkpt lat="-27.22910320" lon="152.96902730"><ele>26.000</ele></trkpt>
    <trkpt lat="-27.22915590" lon="152.96893750"><ele>25.000</ele></trkpt>
    <trkpt lat="-27.22920060" lon="152.96884220"><ele>25.000</ele></trkpt>
    <trkpt lat="-27.22923720" lon="152.96874230"><ele>25.000</ele></trkpt>
    <trkpt lat="-27.22926480" lon="152.96863850"><ele>25.000</ele></trkpt>
    <trkpt lat="-27.22928270" lon="152.96853240"><ele>24.000</ele></trkpt>
    <trkpt lat="-27.22928990" lon="152.96842380"><ele>24.000</ele></trkpt>
    <trkpt lat="-27.22929180" lon="152.96831410"><ele>23.000</ele></trkpt>
    <trkpt lat="-27.22928930" lon="152.96820310"><ele>23.000</ele></trkpt>
    <trkpt lat="-27.22928190" lon="152.96809160"><ele>22.000</ele></trkpt>
    <trkpt lat="-27.22927030" lon="152.96797940"><ele>22.000</ele></trkpt>
    <trkpt lat="-27.22925460" lon="152.96786680"><ele>21.000</ele></trkpt>
    <trkpt lat="-27.22923600" lon="152.96775390"><ele>21.000</ele></trkpt>
    <trkpt lat="-27.22921530" lon="152.96764040"><ele>21.000</ele></trkpt>
    <trkpt lat="-27.22919270" lon="152.96752630"><ele>21.000</ele></trkpt>
    <trkpt lat="-27.22916840" lon="152.96741200"><ele>21.000</ele></trkpt>
    <trkpt lat="-27.22914250" lon="152.96729740"><ele>21.000</ele></trkpt>
    <trkpt lat="-27.22911520" lon="152.96718260"><ele>21.000</ele></trkpt>
    <trkpt lat="-27.22908650" lon="152.96706780"><ele>22.000</ele></trkpt>
    <trkpt lat="-27.22905680" lon="152.96695270"><ele>22.000</ele></trkpt>
    <trkpt lat="-27.22902650" lon="152.96683740"><ele>23.000</ele></trkpt>
    <trkpt lat="-27.22899550" lon="152.96672200"><ele>23.000</ele></trkpt>
    <trkpt lat="-27.22896400" lon="152.96660670"><ele>23.000</ele></trkpt>
    <trkpt lat="-27.22893240" lon="152.96649090"><ele>23.000</ele></trkpt>
    <trkpt lat="-27.22890070" lon="152.96637490"><ele>24.000</ele></trkpt>
    <trkpt lat="-27.22886900" lon="152.96625890"><ele>24.000</ele></trkpt>
    <trkpt lat="-27.22883720" lon="152.96614280"><ele>24.000</ele></trkpt>
    <trkpt lat="-27.22880560" lon="152.96602640"><ele>24.000</ele></trkpt>
    <trkpt lat="-27.22877400" lon="152.96591000"><ele>24.000</ele></trkpt>
    <trkpt lat="-27.22874210" lon="152.96579380"><ele>24.000</ele></trkpt>
    <trkpt lat="-27.22871050" lon="152.96567760"><ele>24.000</ele></trkpt>
    <trkpt lat="-27.22867830" lon="152.96556140"><ele>24.000</ele></trkpt>
    <trkpt lat="-27.22864630" lon="152.96544500"><ele>24.000</ele></trkpt>
    <trkpt lat="-27.22861410" lon="152.96532870"><ele>24.000</ele></trkpt>
    <trkpt lat="-27.22858230" lon="152.96521240"><ele>24.000</ele></trkpt>
    <trkpt lat="-27.22855040" lon="152.96509600"><ele>24.000</ele></trkpt>
    <trkpt lat="-27.22851890" lon="152.96497930"><ele>25.000</ele></trkpt>
    <trkpt lat="-27.22849900" lon="152.96490330"><ele>25.000</ele></trkpt>
  </trkseg></trk>
</gpx>
