<?xml version="1.0" encoding="UTF-8"?>
<gpx version="1.1" creator="Send-It DEM enrich">
  <trk><name>mac_park</name><trkseg>
    <trkpt lat="-37.83286340" lon="140.64976910"><ele>33.000</ele></trkpt>
    <trkpt lat="-37.83286360" lon="140.64950720"><ele>33.000</ele></trkpt>
    <trkpt lat="-37.83282860" lon="140.64899080"><ele>35.000</ele></trkpt>
    <trkpt lat="-37.83281680" lon="140.64884200"><ele>35.000</ele></trkpt>
    <trkpt lat="-37.83278770" lon="140.64829800"><ele>37.000</ele></trkpt>
    <trkpt lat="-37.83275550" lon="140.64772150"><ele>38.000</ele></trkpt>
    <trkpt lat="-37.83276170" lon="140.64762340"><ele>37.000</ele></trkpt>
    <trkpt lat="-37.83277470" lon="140.64754550"><ele>37.000</ele></trkpt>
    <trkpt lat="-37.83278920" lon="140.64749410"><ele>37.000</ele></trkpt>
    <trkpt lat="-37.83280830" lon="140.64745040"><ele>37.000</ele></trkpt>
    <trkpt lat="-37.83282310" lon="140.64742610"><ele>37.000</ele></trkpt>
    <trkpt lat="-37.83283970" lon="140.64740430"><ele>37.000</ele></trkpt>
    <trkpt lat="-37.83285760" lon="140.64738620"><ele>37.000</ele></trkpt>
    <trkpt lat="-37.83287480" lon="140.64737300"><ele>37.000</ele></trkpt>
    <trkpt lat="-37.83289300" lon="140.64736290"><ele>37.000</ele></trkpt>
    <trkpt lat="-37.83291190" lon="140.64735620"><ele>37.000</ele></trkpt>
    <trkpt lat="-37.83293260" lon="140.64735290"><ele>36.000</ele></trkpt>
    <trkpt lat="-37.83295400" lon="140.64735320"><ele>36.000</ele></trkpt>
    <trkpt lat="-37.83297470" lon="140.64735710"><ele>36.000</ele></trkpt>
    <trkpt lat="-37.83299390" lon="140.64736440"><ele>36.000</ele></trkpt>
    <trkpt lat="-37.83301240" lon="140.64737530"><ele>36.000</ele></trkpt>
    <trkpt lat="-37.83303040" lon="140.64738990"><ele>36.000</ele></trkpt>
    <trkpt lat="-37.83305270" lon="140.64741400"><ele>36.000</ele></trkpt>
    <trkpt lat="-37.83307430" lon="140.64744390"><ele>36.000</ele></trkpt>
    <trkpt lat="-37.83309380" lon="140.64747790"><ele>36.000</ele></trkpt>
    <trkpt lat="-37.83312020" lon="140.64754350"><ele>36.000</ele></trkpt>
    <trkpt lat="-37.83314290" lon="140.64762800"><ele>36.000</ele></trkpt>
    <trkpt lat="-37.83322690" lon="140.64816410"><ele>36.000</ele></trkpt>
    <trkpt lat="-37.83329020" lon="140.64841890"><ele>36.000</ele></trkpt>
    <trkpt lat="-37.83336690" lon="140.64862150"><ele>35.000</ele></trkpt>
    <trkpt lat="-37.83348070" lon="140.64883750"><ele>34.000</ele></trkpt>
    <trkpt lat="-37.83364840" lon="140.64908340"><ele>33.000</ele></trkpt>
    <trkpt lat="-37.83397160" lon="140.64948100"><ele>34.000</ele></trkpt>
    <trkpt lat="-37.83419350" lon="140.64972320"><ele>35.000</ele></trkpt>
    <trkpt lat="-37.83425350" lon="140.64977780"><ele>35.000</ele></trkpt>
    <trkpt lat="-37.83430880" lon="140.64981930"><ele>35.000</ele></trkpt>
    <trkpt lat="-37.83435480" lon="140.64984560"><ele>35.000</ele></trkpt>
    <trkpt lat="-37.83439960" lon="140.64986250"><ele>36.000</ele></trkpt>
    <trkpt lat="-37.83443870" lon="140.64986890"><ele>36.000</ele></trkpt>
    <trkpt lat="-37.83447630" lon="140.64986690"><ele>36.000</ele></trkpt>
    <trkpt lat="-37.83449950" lon="140.64986060"><ele>36.000</ele></trkpt>
    <trkpt lat="-37.83452200" lon="140.64985080"><ele>36.000</ele></trkpt>
    <trkpt lat="-37.83454220" lon="140.64983780"><ele>36.000</ele></trkpt>
    <trkpt lat="-37.83455850" lon="140.64982320"><ele>36.000</ele></trkpt>
    <trkpt lat="-37.83457290" lon="140.64980600"><ele>36.000</ele></trkpt>
    <trkpt lat="-37.83458510" lon="140.64978630"><ele>36.000</ele></trkpt>
    <trkpt lat="-37.83459580" lon="140.64976210"><ele>36.000</ele></trkpt>
    <trkpt lat="-37.83460410" lon="140.64973510"><ele>36.000</ele></trkpt>
    <trkpt lat="-37.83460980" lon="140.64970570"><ele>36.000</ele></trkpt>
    <trkpt lat="-37.83461330" lon="140.64964740"><ele>36.000</ele></trkpt>
    <trkpt lat="-37.83460930" lon="140.64958250"><ele>36.000</ele></trkpt>
    <trkpt lat="-37.83457040" lon="140.64939390"><ele>35.000</ele></trkpt>
    <trkpt lat="-37.83438980" lon="140.64877470"><ele>35.000</ele></trkpt>
    <trkpt lat="-37.83427200" lon="140.64845290"><ele>37.000</ele></trkpt>
    <trkpt lat="-37.83413710" lon="140.64816950"><ele>37.000</ele></trkpt>
    <trkpt lat="-37.83400760" lon="140.64795740"><ele>36.000</ele></trkpt>
    <trkpt lat="-37.83353380" lon="140.64727740"><ele>35.000</ele></trkpt>
    <trkpt lat="-37.83345660" lon="140.64713460"><ele>35.000</ele></trkpt>
    <trkpt lat="-37.83340100" lon="140.64700200"><ele>36.000</ele></trkpt>
    <trkpt lat="-37.83336210" lon="140.64686890"><ele>36.000</ele></trkpt>
    <trkpt lat="-37.83333190" lon="140.64672760"><ele>36.000</ele></trkpt>
    <trkpt lat="-37.83327060" lon="140.64634170"><ele>35.000</ele></trkpt>
    <trkpt lat="-37.83324800" lon="140.64625990"><ele>35.000</ele></trkpt>
    <trkpt lat="-37.83322250" lon="140.64619310"><ele>35.000</ele></trkpt>
    <trkpt lat="-37.83319800" lon="140.64614420"><ele>35.000</ele></trkpt>
    <trkpt lat="-37.83317000" lon="140.64610220"><ele>36.000</ele></trkpt>
    <trkpt lat="-37.83313800" lon="140.64606700"><ele>36.000</ele></trkpt>
    <trkpt lat="-37.83310170" lon="140.64603780"><ele>36.000</ele></trkpt>
    <trkpt lat="-37.83305840" lon="140.64601330"><ele>36.000</ele></trkpt>
    <trkpt lat="-37.83300750" lon="140.64599410"><ele>36.000</ele></trkpt>
    <trkpt lat="-37.83280510" lon="140.64595700"><ele>37.000</ele></trkpt>
    <trkpt lat="-37.83245560" lon="140.64593320"><ele>37.000</ele></trkpt>
    <trkpt lat="-37.83225850" lon="140.64594600"><ele>36.000</ele></trkpt>
    <trkpt lat="-37.83206410" lon="140.64599610"><ele>36.000</ele></trkpt>
    <trkpt lat="-37.83199960" lon="140.64602200"><ele>36.000</ele></trkpt>
    <trkpt lat="-37.83193990" lon="140.64605380"><ele>36.000</ele></trkpt>
    <trkpt lat="-37.83187750" lon="140.64609730"><ele>36.000</ele></trkpt>
    <trkpt lat="-37.83181770" lon="140.64614860"><ele>36.000</ele></trkpt>
    <trkpt lat="-37.83176140" lon="140.64620700"><ele>36.000</ele></trkpt>
    <trkpt lat="-37.83170860" lon="140.64627270"><ele>36.000</ele></trkpt>
    <trkpt lat="-37.83160750" lon="140.64643600"><ele>37.000</ele></trkpt>
    <trkpt lat="-37.83156380" lon="140.64652600"><ele>37.000</ele></trkpt>
    <trkpt lat="-37.83152800" lon="140.64661870"><ele>37.000</ele></trkpt>
    <trkpt lat="-37.83150600" lon="140.64670210"><ele>38.000</ele></trkpt>
    <trkpt lat="-37.83149150" lon="140.64678810"><ele>37.000</ele></trkpt>
    <trkpt lat="-37.83147960" lon="140.64699170"><ele>37.000</ele></trkpt>
    <trkpt lat="-37.83149480" lon="140.64729830"><ele>36.000</ele></trkpt>
    <trkpt lat="-37.83152920" lon="140.64793880"><ele>35.000</ele></trkpt>
    <trkpt lat="-37.83146250" lon="140.64877570"><ele>37.000</ele></trkpt>
    <trkpt lat="-37.83131100" lon="140.65017940"><ele>38.000</ele></trkpt>
    <trkpt lat="-37.83127090" lon="140.65073660"><ele>38.000</ele></trkpt>
    <trkpt lat="-37.83124760" lon="140.65159690"><ele>38.000</ele></trkpt>
    <trkpt lat="-37.83124590" lon="140.65289240"><ele>38.000</ele></trkpt>
    <trkpt lat="-37.83126910" lon="140.65326490"><ele>39.000</ele></trkpt>
    <trkpt lat="-37.83130590" lon="140.65350030"><ele>40.000</ele></trkpt>
    <trkpt lat="-37.83132740" lon="140.65358390"><ele>41.000</ele></trkpt>
    <trkpt lat="-37.83135350" lon="140.65366060"><ele>41.000</ele></trkpt>
    <trkpt lat="-37.83138500" lon="140.65373270"><ele>41.000</ele></trkpt>
    <trkpt lat="-37.83142090" lon="140.65379810"><ele>42.000</ele></trkpt>
    <trkpt lat="-37.83145500" lon="140.65384780"><ele>42.000</ele></trkpt>
    <trkpt lat="-37.83149320" lon="140.65389140"><ele>42.000</ele></trkpt>
    <trkpt lat="-37.83154100" lon="140.65393310"><ele>42.000</ele></trkpt>
    <trkpt lat="-37.83159510" lon="140.65397000"><ele>41.000</ele></trkpt>
    <trkpt lat="-37.83174470" lon="140.65404010"><ele>41.000</ele></trkpt>
    <trkpt lat="-37.83195200" lon="140.65409440"><ele>41.000</ele></trkpt>
    <trkpt lat="-37.83228150" lon="140.65413460"><ele>41.000</ele></trkpt>
    <trkpt lat="-37.83247880" lon="140.65413510"><ele>40.000</ele></trkpt>
    <trkpt lat="-37.83254370" lon="140.65412380"><ele>40.000</ele></trkpt>
    <trkpt lat="-37.83260160" lon="140.65410550"><ele>41.000</ele></trkpt>
    <trkpt lat="-37.83264720" lon="140.65408370"><ele>41.000</ele></trkpt>
    <trkpt lat="-37.83268840" lon="140.65405550"><ele>41.000</ele></trkpt>
    <trkpt lat="-37.83272610" lon="140.65402050"><ele>41.000</ele></trkpt>
    <trkpt lat="-37.83275930" lon="140.65397850"><ele>41.000</ele></trkpt>
    <trkpt lat="-37.83278730" lon="140.65392780"><ele>41.000</ele></trkpt>
    <trkpt lat="-37.83281010" lon="140.65386930"><ele>41.000</ele></trkpt>
    <trkpt lat="-37.83283140" lon="140.65378890"><ele>41.000</ele></trkpt>
    <trkpt lat="-37.83284720" lon="140.65369860"><ele>40.000</ele></trkpt>
    <trkpt lat="-37.83286640" lon="140.65345230"><ele>39.000</ele></trkpt>
    <trkpt lat="-37.83286100" lon="140.65313950"><ele>38.000</ele></trkpt>
    <trkpt lat="-37.83283060" lon="140.65285900"><ele>38.000</ele></trkpt>
    <trkpt lat="-37.83278200" lon="140.65263950"><ele>38.000</ele></trkpt>
    <trkpt lat="-37.83270200" lon="140.65240880"><ele>37.000</ele></trkpt>
    <trkpt lat="-37.83260240" lon="140.65220400"><ele>37.000</ele></trkpt>
    <trkpt lat="-37.83247110" lon="140.65200400"><ele>36.000</ele></trkpt>
    <trkpt lat="-37.83218230" lon="140.65161180"><ele>36.000</ele></trkpt>
    <trkpt lat="-37.83212740" lon="140.65150820"><ele>37.000</ele></trkpt>
    <trkpt lat="-37.83208850" lon="140.65141130"><ele>37.000</ele></trkpt>
    <trkpt lat="-37.83206410" lon="140.65132720"><ele>37.000</ele></trkpt>
    <trkpt lat="-37.83204940" lon="140.65124450"><ele>37.000</ele></trkpt>
    <trkpt lat="-37.83204420" lon="140.65116710"><ele>37.000</ele></trkpt>
    <trkpt lat="-37.83204760" lon="140.65109300"><ele>37.000</ele></trkpt>
    <trkpt lat="-37.83205800" lon="140.65103310"><ele>37.000</ele></trkpt>
    <trkpt lat="-37.83207590" lon="140.65097620"><ele>36.000</ele></trkpt>
    <trkpt lat="-37.83210600" lon="140.65091300"><ele>36.000</ele></trkpt>
    <trkpt lat="-37.83214440" lon="140.65085370"><ele>35.000</ele></trkpt>
    <trkpt lat="-37.83219120" lon="140.65079870"><ele>35.000</ele></trkpt>
    <trkpt lat="-37.83224460" lon="140.65075100"><ele>34.000</ele></trkpt>
    <trkpt lat="-37.83230470" lon="140.65071140"><ele>34.000</ele></trkpt>
    <trkpt lat="-37.83237460" lon="140.65067870"><ele>33.000</ele></trkpt>
    <trkpt lat="-37.83251120" lon="140.65064370"><ele>32.000</ele></trkpt>
    <trkpt lat="-37.83264070" lon="140.65060950"><ele>32.000</ele></trkpt>
    <trkpt lat="-37.83268750" lon="140.65058400"><ele>32.000</ele></trkpt>
    <trkpt lat="-37.83272400" lon="140.65055490"><ele>33.000</ele></trkpt>
    <trkpt lat="-37.83275010" lon="140.65052720"><ele>33.000</ele></trkpt>
    <trkpt lat="-37.83277250" lon="140.65049350"><ele>33.000</ele></trkpt>
    <trkpt lat="-37.83279910" lon="140.65043390"><ele>33.000</ele></trkpt>
    <trkpt lat="-37.83282130" lon="140.65036540"><ele>33.000</ele></trkpt>
    <trkpt lat="-37.83283820" lon="140.65029420"><ele>33.000</ele></trkpt>
    <trkpt lat="-37.83285030" lon="140.65021370"><ele>34.000</ele></trkpt>
    <trkpt lat="-37.83286330" lon="140.64990530"><ele>34.000</ele></trkpt>
    <trkpt lat="-37.83286340" lon="140.64976910"><ele>33.000</ele></trkpt>
  </trkseg></trk>
</gpx>
