<?xml version="1.0" encoding="UTF-8"?>
<gpx version="1.1" creator="Send-It tkk-to-gpx (Harry's LapTimer .tkk)">
  <trk><name>mallory-park</name><trkseg>
    <trkpt lat="52.59835480" lon="-1.33705850"></trkpt>
    <trkpt lat="52.59828710" lon="-1.33705180"></trkpt>
    <trkpt lat="52.59706320" lon="-1.33690270"></trkpt>
    <trkpt lat="52.59653510" lon="-1.33687810"></trkpt>
    <trkpt lat="52.59631800" lon="-1.33690550"></trkpt>
    <trkpt lat="52.59611380" lon="-1.33696690"></trkpt>
    <trkpt lat="52.59592120" lon="-1.33706300"></trkpt>
    <trkpt lat="52.59573900" lon="-1.33719650"></trkpt>
    <trkpt lat="52.59560610" lon="-1.33732930"></trkpt>
    <trkpt lat="52.59548660" lon="-1.33748700"></trkpt>
    <trkpt lat="52.59538150" lon="-1.33766920"></trkpt>
    <trkpt lat="52.59531320" lon="-1.33781970"></trkpt>
    <trkpt lat="52.59527590" lon="-1.33792830"></trkpt>
    <trkpt lat="52.59524860" lon="-1.33804450"></trkpt>
    <trkpt lat="52.59518340" lon="-1.33852120"></trkpt>
    <trkpt lat="52.59516440" lon="-1.33882460"></trkpt>
    <trkpt lat="52.59517030" lon="-1.33913370"></trkpt>
    <trkpt lat="52.59520090" lon="-1.33944170"></trkpt>
    <trkpt lat="52.59525530" lon="-1.33974360"></trkpt>
    <trkpt lat="52.59532240" lon="-1.33997440"></trkpt>
    <trkpt lat="52.59543240" lon="-1.34024620"></trkpt>
    <trkpt lat="52.59556180" lon="-1.34049800"></trkpt>
    <trkpt lat="52.59571010" lon="-1.34072290"></trkpt>
    <trkpt lat="52.59587440" lon="-1.34091260"></trkpt>
    <trkpt lat="52.59605460" lon="-1.34106670"></trkpt>
    <trkpt lat="52.59624880" lon="-1.34117940"></trkpt>
    <trkpt lat="52.59645300" lon="-1.34124960"></trkpt>
    <trkpt lat="52.59666920" lon="-1.34127460"></trkpt>
    <trkpt lat="52.59689800" lon="-1.34125930"></trkpt>
    <trkpt lat="52.59718770" lon="-1.34119750"></trkpt>
    <trkpt lat="52.59749030" lon="-1.34108800"></trkpt>
    <trkpt lat="52.59803800" lon="-1.34082230"></trkpt>
    <trkpt lat="52.59904160" lon="-1.34038470"></trkpt>
    <trkpt lat="52.59916130" lon="-1.34036340"></trkpt>
    <trkpt lat="52.59925660" lon="-1.34036340"></trkpt>
    <trkpt lat="52.59932730" lon="-1.34037270"></trkpt>
    <trkpt lat="52.59938840" lon="-1.34039200"></trkpt>
    <trkpt lat="52.59942890" lon="-1.34041640"></trkpt>
    <trkpt lat="52.59946510" lon="-1.34044690"></trkpt>
    <trkpt lat="52.59950620" lon="-1.34049090"></trkpt>
    <trkpt lat="52.59954730" lon="-1.34053310"></trkpt>
    <trkpt lat="52.59958270" lon="-1.34055740"></trkpt>
    <trkpt lat="52.59961950" lon="-1.34057400"></trkpt>
    <trkpt lat="52.59965800" lon="-1.34058180"></trkpt>
    <trkpt lat="52.59969850" lon="-1.34058110"></trkpt>
    <trkpt lat="52.59974820" lon="-1.34056810"></trkpt>
    <trkpt lat="52.59979950" lon="-1.34054380"></trkpt>
    <trkpt lat="52.59986290" lon="-1.34049990"></trkpt>
    <trkpt lat="52.59992950" lon="-1.34044090"></trkpt>
    <trkpt lat="52.60014620" lon="-1.34019900"></trkpt>
    <trkpt lat="52.60034820" lon="-1.33992500"></trkpt>
    <trkpt lat="52.60048290" lon="-1.33969590"></trkpt>
    <trkpt lat="52.60059950" lon="-1.33944980"></trkpt>
    <trkpt lat="52.60069530" lon="-1.33918330"></trkpt>
    <trkpt lat="52.60075120" lon="-1.33895690"></trkpt>
    <trkpt lat="52.60078890" lon="-1.33871430"></trkpt>
    <trkpt lat="52.60090000" lon="-1.33759570"></trkpt>
    <trkpt lat="52.60103930" lon="-1.33680740"></trkpt>
    <trkpt lat="52.60123770" lon="-1.33610050"></trkpt>
    <trkpt lat="52.60163810" lon="-1.33478140"></trkpt>
    <trkpt lat="52.60175730" lon="-1.33437000"></trkpt>
    <trkpt lat="52.60176840" lon="-1.33430310"></trkpt>
    <trkpt lat="52.60177200" lon="-1.33424760"></trkpt>
    <trkpt lat="52.60177170" lon="-1.33421770"></trkpt>
    <trkpt lat="52.60176950" lon="-1.33418960"></trkpt>
    <trkpt lat="52.60176480" lon="-1.33416310"></trkpt>
    <trkpt lat="52.60175850" lon="-1.33414020"></trkpt>
    <trkpt lat="52.60175030" lon="-1.33411860"></trkpt>
    <trkpt lat="52.60174000" lon="-1.33409990"></trkpt>
    <trkpt lat="52.60173220" lon="-1.33408940"></trkpt>
    <trkpt lat="52.60172340" lon="-1.33407970"></trkpt>
    <trkpt lat="52.60171390" lon="-1.33407190"></trkpt>
    <trkpt lat="52.60170380" lon="-1.33406670"></trkpt>
    <trkpt lat="52.60169340" lon="-1.33406450"></trkpt>
    <trkpt lat="52.60168230" lon="-1.33406440"></trkpt>
    <trkpt lat="52.60167100" lon="-1.33406650"></trkpt>
    <trkpt lat="52.60165980" lon="-1.33407070"></trkpt>
    <trkpt lat="52.60163930" lon="-1.33408560"></trkpt>
    <trkpt lat="52.60161900" lon="-1.33410780"></trkpt>
    <trkpt lat="52.60159980" lon="-1.33413250"></trkpt>
    <trkpt lat="52.60156990" lon="-1.33417800"></trkpt>
    <trkpt lat="52.60154260" lon="-1.33423140"></trkpt>
    <trkpt lat="52.60151200" lon="-1.33430760"></trkpt>
    <trkpt lat="52.60148200" lon="-1.33440290"></trkpt>
    <trkpt lat="52.60141720" lon="-1.33468510"></trkpt>
    <trkpt lat="52.60135430" lon="-1.33494550"></trkpt>
    <trkpt lat="52.60133590" lon="-1.33499100"></trkpt>
    <trkpt lat="52.60131490" lon="-1.33502810"></trkpt>
    <trkpt lat="52.60126670" lon="-1.33509210"></trkpt>
    <trkpt lat="52.60121880" lon="-1.33515630"></trkpt>
    <trkpt lat="52.60120310" lon="-1.33518410"></trkpt>
    <trkpt lat="52.60119070" lon="-1.33521050"></trkpt>
    <trkpt lat="52.60118080" lon="-1.33524000"></trkpt>
    <trkpt lat="52.60116990" lon="-1.33530410"></trkpt>
    <trkpt lat="52.60116430" lon="-1.33538260"></trkpt>
    <trkpt lat="52.60116070" lon="-1.33557910"></trkpt>
    <trkpt lat="52.60115330" lon="-1.33578210"></trkpt>
    <trkpt lat="52.60113950" lon="-1.33587740"></trkpt>
    <trkpt lat="52.60111530" lon="-1.33597170"></trkpt>
    <trkpt lat="52.60104460" lon="-1.33617090"></trkpt>
    <trkpt lat="52.60094840" lon="-1.33638080"></trkpt>
    <trkpt lat="52.60083780" lon="-1.33655860"></trkpt>
    <trkpt lat="52.60072090" lon="-1.33671400"></trkpt>
    <trkpt lat="52.60064030" lon="-1.33680810"></trkpt>
    <trkpt lat="52.60055730" lon="-1.33688630"></trkpt>
    <trkpt lat="52.60047400" lon="-1.33694690"></trkpt>
    <trkpt lat="52.60037640" lon="-1.33699850"></trkpt>
    <trkpt lat="52.59997050" lon="-1.33711740"></trkpt>
    <trkpt lat="52.59939980" lon="-1.33715940"></trkpt>
    <trkpt lat="52.59882190" lon="-1.33710450"></trkpt>
    <trkpt lat="52.59835480" lon="-1.33705850"></trkpt>
  </trkseg></trk>
</gpx>
