<?xml version="1.0" encoding="UTF-8"?>
<gpx version="1.1" creator="tkk2gpx (.ztracks converter)"
     xmlns="http://www.topografix.com/GPX/1/1"
     xmlns:xsi="http://www.w3.org/2001/XMLSchema-instance"
     xsi:schemaLocation="http://www.topografix.com/GPX/1/1 http://www.topografix.com/GPX/1/1/gpx.xsd">
  <metadata>
    <name>Mallala Motorsport Park</name>
    <desc>SA AU. One lap from mallala.ztracks, declared 2541 m. Start/Finish is the source waypoint on the main straight.</desc>
  </metadata>
  <wpt lat="-34.4149921" lon="138.5047644">
    <name>Start/Finish</name>
    <desc>Start/Finish line location</desc>
    <sym>Flag, Checkered</sym>
  </wpt>
  <trk>
    <name>Mallala - 1 lap</name>
    <trkseg>
      <trkpt lat="-34.4153058" lon="138.5051247"></trkpt>
      <trkpt lat="-34.4153013" lon="138.5043653"></trkpt>
      <trkpt lat="-34.4152815" lon="138.5041558"></trkpt>
      <trkpt lat="-34.4152426" lon="138.5039587"></trkpt>
      <trkpt lat="-34.4151822" lon="138.5037756"></trkpt>
      <trkpt lat="-34.4151202" lon="138.5036515"></trkpt>
      <trkpt lat="-34.4150137" lon="138.5035013"></trkpt>
      <trkpt lat="-34.4148840" lon="138.5033684"></trkpt>
      <trkpt lat="-34.4144965" lon="138.5030245"></trkpt>
      <trkpt lat="-34.4144408" lon="138.5029576"></trkpt>
      <trkpt lat="-34.4144011" lon="138.5028962"></trkpt>
      <trkpt lat="-34.4143733" lon="138.5028406"></trkpt>
      <trkpt lat="-34.4143531" lon="138.5027839"></trkpt>
      <trkpt lat="-34.4143394" lon="138.5027242"></trkpt>
      <trkpt lat="-34.4143328" lon="138.5026636"></trkpt>
      <trkpt lat="-34.4143335" lon="138.5026040"></trkpt>
      <trkpt lat="-34.4143412" lon="138.5025453"></trkpt>
      <trkpt lat="-34.4143562" lon="138.5024886"></trkpt>
      <trkpt lat="-34.4143779" lon="138.5024340"></trkpt>
      <trkpt lat="-34.4144061" lon="138.5023813"></trkpt>
      <trkpt lat="-34.4144403" lon="138.5023320"></trkpt>
      <trkpt lat="-34.4144808" lon="138.5022862"></trkpt>
      <trkpt lat="-34.4145265" lon="138.5022458"></trkpt>
      <trkpt lat="-34.4145758" lon="138.5022129"></trkpt>
      <trkpt lat="-34.4146288" lon="138.5021874"></trkpt>
      <trkpt lat="-34.4146834" lon="138.5021706"></trkpt>
      <trkpt lat="-34.4147430" lon="138.5021622"></trkpt>
      <trkpt lat="-34.4148314" lon="138.5021639"></trkpt>
      <trkpt lat="-34.4149252" lon="138.5021791"></trkpt>
      <trkpt lat="-34.4150209" lon="138.5022097"></trkpt>
      <trkpt lat="-34.4151202" lon="138.5022567"></trkpt>
      <trkpt lat="-34.4154244" lon="138.5024673"></trkpt>
      <trkpt lat="-34.4164599" lon="138.5032789"></trkpt>
      <trkpt lat="-34.4170221" lon="138.5036879"></trkpt>
      <trkpt lat="-34.4174294" lon="138.5039742"></trkpt>
      <trkpt lat="-34.4175406" lon="138.5040303"></trkpt>
      <trkpt lat="-34.4175961" lon="138.5040477"></trkpt>
      <trkpt lat="-34.4176502" lon="138.5040583"></trkpt>
      <trkpt lat="-34.4176916" lon="138.5040613"></trkpt>
      <trkpt lat="-34.4177311" lon="138.5040590"></trkpt>
      <trkpt lat="-34.4177688" lon="138.5040522"></trkpt>
      <trkpt lat="-34.4178061" lon="138.5040396"></trkpt>
      <trkpt lat="-34.4178508" lon="138.5040160"></trkpt>
      <trkpt lat="-34.4178934" lon="138.5039853"></trkpt>
      <trkpt lat="-34.4179315" lon="138.5039482"></trkpt>
      <trkpt lat="-34.4179638" lon="138.5039079"></trkpt>
      <trkpt lat="-34.4179848" lon="138.5038739"></trkpt>
      <trkpt lat="-34.4180012" lon="138.5038388"></trkpt>
      <trkpt lat="-34.4180144" lon="138.5038013"></trkpt>
      <trkpt lat="-34.4180236" lon="138.5037606"></trkpt>
      <trkpt lat="-34.4180295" lon="138.5037044"></trkpt>
      <trkpt lat="-34.4180293" lon="138.5036450"></trkpt>
      <trkpt lat="-34.4180220" lon="138.5035843"></trkpt>
      <trkpt lat="-34.4180086" lon="138.5035238"></trkpt>
      <trkpt lat="-34.4179896" lon="138.5034635"></trkpt>
      <trkpt lat="-34.4179641" lon="138.5034027"></trkpt>
      <trkpt lat="-34.4178763" lon="138.5032521"></trkpt>
      <trkpt lat="-34.4177102" lon="138.5030350"></trkpt>
      <trkpt lat="-34.4175324" lon="138.5028507"></trkpt>
      <trkpt lat="-34.4173183" lon="138.5026756"></trkpt>
      <trkpt lat="-34.4160988" lon="138.5018346"></trkpt>
      <trkpt lat="-34.4158203" lon="138.5016716"></trkpt>
      <trkpt lat="-34.4155252" lon="138.5015365"></trkpt>
      <trkpt lat="-34.4152217" lon="138.5014341"></trkpt>
      <trkpt lat="-34.4149792" lon="138.5013817"></trkpt>
      <trkpt lat="-34.4147342" lon="138.5013619"></trkpt>
      <trkpt lat="-34.4145495" lon="138.5013697"></trkpt>
      <trkpt lat="-34.4143657" lon="138.5013976"></trkpt>
      <trkpt lat="-34.4141217" lon="138.5014657"></trkpt>
      <trkpt lat="-34.4138786" lon="138.5015654"></trkpt>
      <trkpt lat="-34.4135757" lon="138.5017272"></trkpt>
      <trkpt lat="-34.4131099" lon="138.5020270"></trkpt>
      <trkpt lat="-34.4121111" lon="138.5027085"></trkpt>
      <trkpt lat="-34.4120560" lon="138.5027544"></trkpt>
      <trkpt lat="-34.4120202" lon="138.5027932"></trkpt>
      <trkpt lat="-34.4119949" lon="138.5028319"></trkpt>
      <trkpt lat="-34.4119764" lon="138.5028724"></trkpt>
      <trkpt lat="-34.4119632" lon="138.5029152"></trkpt>
      <trkpt lat="-34.4119560" lon="138.5029572"></trkpt>
      <trkpt lat="-34.4119547" lon="138.5029779"></trkpt>
      <trkpt lat="-34.4119554" lon="138.5029976"></trkpt>
      <trkpt lat="-34.4119584" lon="138.5030176"></trkpt>
      <trkpt lat="-34.4119650" lon="138.5030416"></trkpt>
      <trkpt lat="-34.4119745" lon="138.5030660"></trkpt>
      <trkpt lat="-34.4119869" lon="138.5030886"></trkpt>
      <trkpt lat="-34.4120021" lon="138.5031088"></trkpt>
      <trkpt lat="-34.4120201" lon="138.5031271"></trkpt>
      <trkpt lat="-34.4120401" lon="138.5031429"></trkpt>
      <trkpt lat="-34.4120743" lon="138.5031616"></trkpt>
      <trkpt lat="-34.4121133" lon="138.5031751"></trkpt>
      <trkpt lat="-34.4121648" lon="138.5031850"></trkpt>
      <trkpt lat="-34.4122273" lon="138.5031903"></trkpt>
      <trkpt lat="-34.4125543" lon="138.5031890"></trkpt>
      <trkpt lat="-34.4126804" lon="138.5032148"></trkpt>
      <trkpt lat="-34.4127979" lon="138.5032556"></trkpt>
      <trkpt lat="-34.4129078" lon="138.5033102"></trkpt>
      <trkpt lat="-34.4130121" lon="138.5033777"></trkpt>
      <trkpt lat="-34.4131196" lon="138.5034627"></trkpt>
      <trkpt lat="-34.4132185" lon="138.5035578"></trkpt>
      <trkpt lat="-34.4132971" lon="138.5036498"></trkpt>
      <trkpt lat="-34.4133698" lon="138.5037556"></trkpt>
      <trkpt lat="-34.4134733" lon="138.5039440"></trkpt>
      <trkpt lat="-34.4135688" lon="138.5041534"></trkpt>
      <trkpt lat="-34.4137051" lon="138.5045589"></trkpt>
      <trkpt lat="-34.4137875" lon="138.5050136"></trkpt>
      <trkpt lat="-34.4138123" lon="138.5055811"></trkpt>
      <trkpt lat="-34.4137736" lon="138.5070754"></trkpt>
      <trkpt lat="-34.4137841" lon="138.5078176"></trkpt>
      <trkpt lat="-34.4137929" lon="138.5078947"></trkpt>
      <trkpt lat="-34.4138062" lon="138.5079542"></trkpt>
      <trkpt lat="-34.4138229" lon="138.5080026"></trkpt>
      <trkpt lat="-34.4138448" lon="138.5080462"></trkpt>
      <trkpt lat="-34.4138725" lon="138.5080859"></trkpt>
      <trkpt lat="-34.4139040" lon="138.5081191"></trkpt>
      <trkpt lat="-34.4139305" lon="138.5081388"></trkpt>
      <trkpt lat="-34.4139597" lon="138.5081529"></trkpt>
      <trkpt lat="-34.4140010" lon="138.5081634"></trkpt>
      <trkpt lat="-34.4140437" lon="138.5081668"></trkpt>
      <trkpt lat="-34.4140765" lon="138.5081635"></trkpt>
      <trkpt lat="-34.4141087" lon="138.5081540"></trkpt>
      <trkpt lat="-34.4141511" lon="138.5081332"></trkpt>
      <trkpt lat="-34.4141926" lon="138.5081044"></trkpt>
      <trkpt lat="-34.4142302" lon="138.5080691"></trkpt>
      <trkpt lat="-34.4142691" lon="138.5080217"></trkpt>
      <trkpt lat="-34.4143718" lon="138.5078578"></trkpt>
      <trkpt lat="-34.4144796" lon="138.5076893"></trkpt>
      <trkpt lat="-34.4145323" lon="138.5076287"></trkpt>
      <trkpt lat="-34.4145871" lon="138.5075807"></trkpt>
      <trkpt lat="-34.4146609" lon="138.5075313"></trkpt>
      <trkpt lat="-34.4147452" lon="138.5074908"></trkpt>
      <trkpt lat="-34.4148619" lon="138.5074619"></trkpt>
      <trkpt lat="-34.4149746" lon="138.5074391"></trkpt>
      <trkpt lat="-34.4150346" lon="138.5074207"></trkpt>
      <trkpt lat="-34.4150855" lon="138.5073993"></trkpt>
      <trkpt lat="-34.4151229" lon="138.5073759"></trkpt>
      <trkpt lat="-34.4151562" lon="138.5073486"></trkpt>
      <trkpt lat="-34.4151886" lon="138.5073160"></trkpt>
      <trkpt lat="-34.4152178" lon="138.5072797"></trkpt>
      <trkpt lat="-34.4152439" lon="138.5072403"></trkpt>
      <trkpt lat="-34.4152669" lon="138.5071963"></trkpt>
      <trkpt lat="-34.4152912" lon="138.5071346"></trkpt>
      <trkpt lat="-34.4153104" lon="138.5070675"></trkpt>
      <trkpt lat="-34.4153224" lon="138.5070027"></trkpt>
      <trkpt lat="-34.4153292" lon="138.5069213"></trkpt>
      <trkpt lat="-34.4153169" lon="138.5060901"></trkpt>
      <trkpt lat="-34.4153153" lon="138.5059471"></trkpt>
      <trkpt lat="-34.4153058" lon="138.5051247"></trkpt>
    </trkseg>
  </trk>
</gpx>
