<?xml version="1.0" encoding="UTF-8"?>
<gpx version="1.1" creator="Send-It DEM enrich">
  <trk><name>morgan_park</name><trkseg>
    <trkpt lat="-28.26211144" lon="152.03660561"><ele>492.000</ele></trkpt>
    <trkpt lat="-28.26205928" lon="152.03628183"><ele>495.000</ele></trkpt>
    <trkpt lat="-28.26208523" lon="152.03642627"><ele>494.000</ele></trkpt>
    <trkpt lat="-28.26246009" lon="152.03635460"><ele>493.000</ele></trkpt>
    <trkpt lat="-28.26324364" lon="152.03620403"><ele>496.000</ele></trkpt>
    <trkpt lat="-28.26402745" lon="152.03605935"><ele>497.000</ele></trkpt>
    <trkpt lat="-28.26413484" lon="152.03604586"><ele>497.000</ele></trkpt>
    <trkpt lat="-28.26418431" lon="152.03602319"><ele>497.000</ele></trkpt>
    <trkpt lat="-28.26421804" lon="152.03599444"><ele>496.000</ele></trkpt>
    <trkpt lat="-28.26424955" lon="152.03596092"><ele>496.000</ele></trkpt>
    <trkpt lat="-28.26424934" lon="152.03595978"><ele>496.000</ele></trkpt>
    <trkpt lat="-28.26427507" lon="152.03592346"><ele>496.000</ele></trkpt>
    <trkpt lat="-28.26431643" lon="152.03584066"><ele>495.000</ele></trkpt>
    <trkpt lat="-28.26445248" lon="152.03554105"><ele>497.000</ele></trkpt>
    <trkpt lat="-28.26454555" lon="152.03532752"><ele>499.000</ele></trkpt>
    <trkpt lat="-28.26456105" lon="152.03528769"><ele>499.000</ele></trkpt>
    <trkpt lat="-28.26456980" lon="152.03525633"><ele>500.000</ele></trkpt>
    <trkpt lat="-28.26457536" lon="152.03522518"><ele>500.000</ele></trkpt>
    <trkpt lat="-28.26457852" lon="152.03518998"><ele>500.000</ele></trkpt>
    <trkpt lat="-28.26458134" lon="152.03515048"><ele>500.000</ele></trkpt>
    <trkpt lat="-28.26457825" lon="152.03511957"><ele>501.000</ele></trkpt>
    <trkpt lat="-28.26456506" lon="152.03508062"><ele>501.000</ele></trkpt>
    <trkpt lat="-28.26454499" lon="152.03503772"><ele>501.000</ele></trkpt>
    <trkpt lat="-28.26452726" lon="152.03500582"><ele>502.000</ele></trkpt>
    <trkpt lat="-28.26449497" lon="152.03497138"><ele>502.000</ele></trkpt>
    <trkpt lat="-28.26446130" lon="152.03494009"><ele>503.000</ele></trkpt>
    <trkpt lat="-28.26441483" lon="152.03491063"><ele>504.000</ele></trkpt>
    <trkpt lat="-28.26425369" lon="152.03480796"><ele>505.000</ele></trkpt>
    <trkpt lat="-28.26399481" lon="152.03463415"><ele>505.000</ele></trkpt>
    <trkpt lat="-28.26385220" lon="152.03452676"><ele>505.000</ele></trkpt>
    <trkpt lat="-28.26373189" lon="152.03443139"><ele>505.000</ele></trkpt>
    <trkpt lat="-28.26364093" lon="152.03433856"><ele>505.000</ele></trkpt>
    <trkpt lat="-28.26357496" lon="152.03426177"><ele>506.000</ele></trkpt>
    <trkpt lat="-28.26350939" lon="152.03416844"><ele>506.000</ele></trkpt>
    <trkpt lat="-28.26345620" lon="152.03407528"><ele>506.000</ele></trkpt>
    <trkpt lat="-28.26342403" lon="152.03400999"><ele>506.000</ele></trkpt>
    <trkpt lat="-28.26338949" lon="152.03392106"><ele>507.000</ele></trkpt>
    <trkpt lat="-28.26337433" lon="152.03386212"><ele>506.000</ele></trkpt>
    <trkpt lat="-28.26336002" lon="152.03379157"><ele>506.000</ele></trkpt>
    <trkpt lat="-28.26334591" lon="152.03369046"><ele>505.000</ele></trkpt>
    <trkpt lat="-28.26334285" lon="152.03360896"><ele>504.000</ele></trkpt>
    <trkpt lat="-28.26334382" lon="152.03354257"><ele>504.000</ele></trkpt>
    <trkpt lat="-28.26335203" lon="152.03349731"><ele>505.000</ele></trkpt>
    <trkpt lat="-28.26336157" lon="152.03343793"><ele>505.000</ele></trkpt>
    <trkpt lat="-28.26337951" lon="152.03337471"><ele>506.000</ele></trkpt>
    <trkpt lat="-28.26340007" lon="152.03330886"><ele>506.000</ele></trkpt>
    <trkpt lat="-28.26342911" lon="152.03323248"><ele>506.000</ele></trkpt>
    <trkpt lat="-28.26352410" lon="152.03302268"><ele>507.000</ele></trkpt>
    <trkpt lat="-28.26362116" lon="152.03281972"><ele>506.000</ele></trkpt>
    <trkpt lat="-28.26384920" lon="152.03230608"><ele>505.000</ele></trkpt>
    <trkpt lat="-28.26426669" lon="152.03137044"><ele>502.000</ele></trkpt>
    <trkpt lat="-28.26445993" lon="152.03094183"><ele>501.000</ele></trkpt>
    <trkpt lat="-28.26447755" lon="152.03089750"><ele>501.000</ele></trkpt>
    <trkpt lat="-28.26449251" lon="152.03085229"><ele>501.000</ele></trkpt>
    <trkpt lat="-28.26450019" lon="152.03081033"><ele>501.000</ele></trkpt>
    <trkpt lat="-28.26449765" lon="152.03076796"><ele>501.000</ele></trkpt>
    <trkpt lat="-28.26449404" lon="152.03072191"><ele>501.000</ele></trkpt>
    <trkpt lat="-28.26448562" lon="152.03068363"><ele>501.000</ele></trkpt>
    <trkpt lat="-28.26447050" lon="152.03064464"><ele>502.000</ele></trkpt>
    <trkpt lat="-28.26445376" lon="152.03060547"><ele>502.000</ele></trkpt>
    <trkpt lat="-28.26442791" lon="152.03056856"><ele>502.000</ele></trkpt>
    <trkpt lat="-28.26439864" lon="152.03053346"><ele>502.000</ele></trkpt>
    <trkpt lat="-28.26436650" lon="152.03050471"><ele>502.000</ele></trkpt>
    <trkpt lat="-28.26431887" lon="152.03047359"><ele>502.000</ele></trkpt>
    <trkpt lat="-28.26428261" lon="152.03046170"><ele>501.000</ele></trkpt>
    <trkpt lat="-28.26423276" lon="152.03044716"><ele>501.000</ele></trkpt>
    <trkpt lat="-28.26416874" lon="152.03044087"><ele>501.000</ele></trkpt>
    <trkpt lat="-28.26412056" lon="152.03044641"><ele>501.000</ele></trkpt>
    <trkpt lat="-28.26405176" lon="152.03046379"><ele>501.000</ele></trkpt>
    <trkpt lat="-28.26398996" lon="152.03048364"><ele>500.000</ele></trkpt>
    <trkpt lat="-28.26391971" lon="152.03052232"><ele>500.000</ele></trkpt>
    <trkpt lat="-28.26381720" lon="152.03058414"><ele>500.000</ele></trkpt>
    <trkpt lat="-28.26357072" lon="152.03073688"><ele>502.000</ele></trkpt>
    <trkpt lat="-28.26337007" lon="152.03085030"><ele>503.000</ele></trkpt>
    <trkpt lat="-28.26323010" lon="152.03092103"><ele>502.000</ele></trkpt>
    <trkpt lat="-28.26302148" lon="152.03101003"><ele>501.000</ele></trkpt>
    <trkpt lat="-28.26278414" lon="152.03110371"><ele>500.000</ele></trkpt>
    <trkpt lat="-28.26273019" lon="152.03111771"><ele>500.000</ele></trkpt>
    <trkpt lat="-28.26264322" lon="152.03113227"><ele>500.000</ele></trkpt>
    <trkpt lat="-28.26249555" lon="152.03114249"><ele>500.000</ele></trkpt>
    <trkpt lat="-28.26237486" lon="152.03113628"><ele>500.000</ele></trkpt>
    <trkpt lat="-28.26224398" lon="152.03111301"><ele>499.000</ele></trkpt>
    <trkpt lat="-28.26224310" lon="152.03111309"><ele>499.000</ele></trkpt>
    <trkpt lat="-28.26214694" lon="152.03108477"><ele>498.000</ele></trkpt>
    <trkpt lat="-28.26202519" lon="152.03103601"><ele>498.000</ele></trkpt>
    <trkpt lat="-28.26191086" lon="152.03098169"><ele>497.000</ele></trkpt>
    <trkpt lat="-28.26151388" lon="152.03076606"><ele>493.000</ele></trkpt>
    <trkpt lat="-28.26135243" lon="152.03068662"><ele>492.000</ele></trkpt>
    <trkpt lat="-28.26131264" lon="152.03067456"><ele>492.000</ele></trkpt>
    <trkpt lat="-28.26127111" lon="152.03066910"><ele>493.000</ele></trkpt>
    <trkpt lat="-28.26123260" lon="152.03067347"><ele>493.000</ele></trkpt>
    <trkpt lat="-28.26118879" lon="152.03068108"><ele>493.000</ele></trkpt>
    <trkpt lat="-28.26112174" lon="152.03070910"><ele>493.000</ele></trkpt>
    <trkpt lat="-28.26107259" lon="152.03074285"><ele>494.000</ele></trkpt>
    <trkpt lat="-28.26103878" lon="152.03077545"><ele>494.000</ele></trkpt>
    <trkpt lat="-28.26101369" lon="152.03080583"><ele>494.000</ele></trkpt>
    <trkpt lat="-28.26099058" lon="152.03084127"><ele>494.000</ele></trkpt>
    <trkpt lat="-28.26097653" lon="152.03086825"><ele>494.000</ele></trkpt>
    <trkpt lat="-28.26096030" lon="152.03090655"><ele>494.000</ele></trkpt>
    <trkpt lat="-28.26094909" lon="152.03094478"><ele>495.000</ele></trkpt>
    <trkpt lat="-28.26094374" lon="152.03097542"><ele>495.000</ele></trkpt>
    <trkpt lat="-28.26094117" lon="152.03102993"><ele>495.000</ele></trkpt>
    <trkpt lat="-28.26094290" lon="152.03106517"><ele>495.000</ele></trkpt>
    <trkpt lat="-28.26096170" lon="152.03114962"><ele>496.000</ele></trkpt>
    <trkpt lat="-28.26098222" lon="152.03120222"><ele>496.000</ele></trkpt>
    <trkpt lat="-28.26103186" lon="152.03129530"><ele>497.000</ele></trkpt>
    <trkpt lat="-28.26130116" lon="152.03177231"><ele>496.000</ele></trkpt>
    <trkpt lat="-28.26165448" lon="152.03240413"><ele>496.000</ele></trkpt>
    <trkpt lat="-28.26167554" lon="152.03244003"><ele>497.000</ele></trkpt>
    <trkpt lat="-28.26168877" lon="152.03247269"><ele>497.000</ele></trkpt>
    <trkpt lat="-28.26170251" lon="152.03252374"><ele>497.000</ele></trkpt>
    <trkpt lat="-28.26170127" lon="152.03256380"><ele>498.000</ele></trkpt>
    <trkpt lat="-28.26169639" lon="152.03259902"><ele>498.000</ele></trkpt>
    <trkpt lat="-28.26168302" lon="152.03264760"><ele>498.000</ele></trkpt>
    <trkpt lat="-28.26166538" lon="152.03268345"><ele>498.000</ele></trkpt>
    <trkpt lat="-28.26164110" lon="152.03271330"><ele>498.000</ele></trkpt>
    <trkpt lat="-28.26160868" lon="152.03273894"><ele>498.000</ele></trkpt>
    <trkpt lat="-28.26158189" lon="152.03276463"><ele>498.000</ele></trkpt>
    <trkpt lat="-28.26135894" lon="152.03297098"><ele>499.000</ele></trkpt>
    <trkpt lat="-28.26084996" lon="152.03343374"><ele>501.000</ele></trkpt>
    <trkpt lat="-28.26036554" lon="152.03387654"><ele>500.000</ele></trkpt>
    <trkpt lat="-28.25998721" lon="152.03421820"><ele>497.000</ele></trkpt>
    <trkpt lat="-28.25986055" lon="152.03432616"><ele>495.000</ele></trkpt>
    <trkpt lat="-28.25971655" lon="152.03443310"><ele>494.000</ele></trkpt>
    <trkpt lat="-28.25959746" lon="152.03450480"><ele>494.000</ele></trkpt>
    <trkpt lat="-28.25945483" lon="152.03457466"><ele>494.000</ele></trkpt>
    <trkpt lat="-28.25935158" lon="152.03461416"><ele>493.000</ele></trkpt>
    <trkpt lat="-28.25906608" lon="152.03469499"><ele>491.000</ele></trkpt>
    <trkpt lat="-28.25854441" lon="152.03479210"><ele>490.000</ele></trkpt>
    <trkpt lat="-28.25785182" lon="152.03491450"><ele>492.000</ele></trkpt>
    <trkpt lat="-28.25772682" lon="152.03494229"><ele>492.000</ele></trkpt>
    <trkpt lat="-28.25762402" lon="152.03497876"><ele>492.000</ele></trkpt>
    <trkpt lat="-28.25754436" lon="152.03501408"><ele>492.000</ele></trkpt>
    <trkpt lat="-28.25745364" lon="152.03505772"><ele>492.000</ele></trkpt>
    <trkpt lat="-28.25736747" lon="152.03511072"><ele>492.000</ele></trkpt>
    <trkpt lat="-28.25728228" lon="152.03517243"><ele>492.000</ele></trkpt>
    <trkpt lat="-28.25719701" lon="152.03523821"><ele>492.000</ele></trkpt>
    <trkpt lat="-28.25709261" lon="152.03534133"><ele>491.000</ele></trkpt>
    <trkpt lat="-28.25699975" lon="152.03544401"><ele>491.000</ele></trkpt>
    <trkpt lat="-28.25695525" lon="152.03550461"><ele>491.000</ele></trkpt>
    <trkpt lat="-28.25691036" lon="152.03558483"><ele>491.000</ele></trkpt>
    <trkpt lat="-28.25688019" lon="152.03564947"><ele>490.000</ele></trkpt>
    <trkpt lat="-28.25672604" lon="152.03602897"><ele>489.000</ele></trkpt>
    <trkpt lat="-28.25668616" lon="152.03616728"><ele>488.000</ele></trkpt>
    <trkpt lat="-28.25664069" lon="152.03639183"><ele>487.000</ele></trkpt>
    <trkpt lat="-28.25658883" lon="152.03667527"><ele>488.000</ele></trkpt>
    <trkpt lat="-28.25650135" lon="152.03714872"><ele>485.000</ele></trkpt>
    <trkpt lat="-28.25647267" lon="152.03733246"><ele>483.000</ele></trkpt>
    <trkpt lat="-28.25646788" lon="152.03740177"><ele>482.000</ele></trkpt>
    <trkpt lat="-28.25646919" lon="152.03748198"><ele>481.000</ele></trkpt>
    <trkpt lat="-28.25647603" lon="152.03754254"><ele>480.000</ele></trkpt>
    <trkpt lat="-28.25649489" lon="152.03761099"><ele>479.000</ele></trkpt>
    <trkpt lat="-28.25651672" lon="152.03767011"><ele>479.000</ele></trkpt>
    <trkpt lat="-28.25654486" lon="152.03772974"><ele>478.000</ele></trkpt>
    <trkpt lat="-28.25657595" lon="152.03777847"><ele>478.000</ele></trkpt>
    <trkpt lat="-28.25661399" lon="152.03782399"><ele>478.000</ele></trkpt>
    <trkpt lat="-28.25665416" lon="152.03786732"><ele>478.000</ele></trkpt>
    <trkpt lat="-28.25669817" lon="152.03790186"><ele>478.000</ele></trkpt>
    <trkpt lat="-28.25673818" lon="152.03792803"><ele>478.000</ele></trkpt>
    <trkpt lat="-28.25677375" lon="152.03794655"><ele>478.000</ele></trkpt>
    <trkpt lat="-28.25682783" lon="152.03797110"><ele>479.000</ele></trkpt>
    <trkpt lat="-28.25688311" lon="152.03798273"><ele>479.000</ele></trkpt>
    <trkpt lat="-28.25692494" lon="152.03798479"><ele>479.000</ele></trkpt>
    <trkpt lat="-28.25701377" lon="152.03798490"><ele>479.000</ele></trkpt>
    <trkpt lat="-28.25712268" lon="152.03797342"><ele>480.000</ele></trkpt>
    <trkpt lat="-28.25739934" lon="152.03791770"><ele>482.000</ele></trkpt>
    <trkpt lat="-28.25808711" lon="152.03779175"><ele>487.000</ele></trkpt>
    <trkpt lat="-28.25868147" lon="152.03768761"><ele>484.000</ele></trkpt>
    <trkpt lat="-28.25875116" lon="152.03766904"><ele>484.000</ele></trkpt>
    <trkpt lat="-28.25881125" lon="152.03764405"><ele>484.000</ele></trkpt>
    <trkpt lat="-28.25885979" lon="152.03761050"><ele>484.000</ele></trkpt>
    <trkpt lat="-28.25888832" lon="152.03758552"><ele>484.000</ele></trkpt>
    <trkpt lat="-28.25892797" lon="152.03754577"><ele>484.000</ele></trkpt>
    <trkpt lat="-28.25892774" lon="152.03754381"><ele>484.000</ele></trkpt>
    <trkpt lat="-28.25895985" lon="152.03749890"><ele>484.000</ele></trkpt>
    <trkpt lat="-28.25898919" lon="152.03744412"><ele>484.000</ele></trkpt>
    <trkpt lat="-28.25911511" lon="152.03716408"><ele>486.000</ele></trkpt>
    <trkpt lat="-28.25914872" lon="152.03710863"><ele>487.000</ele></trkpt>
    <trkpt lat="-28.25918100" lon="152.03706955"><ele>487.000</ele></trkpt>
    <trkpt lat="-28.25920834" lon="152.03704663"><ele>487.000</ele></trkpt>
    <trkpt lat="-28.25923928" lon="152.03702305"><ele>488.000</ele></trkpt>
    <trkpt lat="-28.25927003" lon="152.03700433"><ele>488.000</ele></trkpt>
    <trkpt lat="-28.25930937" lon="152.03698017"><ele>488.000</ele></trkpt>
    <trkpt lat="-28.25942432" lon="152.03692774"><ele>489.000</ele></trkpt>
    <trkpt lat="-28.25965099" lon="152.03688082"><ele>490.000</ele></trkpt>
    <trkpt lat="-28.25996373" lon="152.03682394"><ele>492.000</ele></trkpt>
    <trkpt lat="-28.26031079" lon="152.03676316"><ele>494.000</ele></trkpt>
    <trkpt lat="-28.26116127" lon="152.03660559"><ele>492.000</ele></trkpt>
    <trkpt lat="-28.26189087" lon="152.03646388"><ele>493.000</ele></trkpt>
    <trkpt lat="-28.26208523" lon="152.03642627"><ele>494.000</ele></trkpt>
    <trkpt lat="-28.26206923" lon="152.03632893"><ele>494.000</ele></trkpt>
    <trkpt lat="-28.26222500" lon="152.03630049"><ele>494.000</ele></trkpt>
    <trkpt lat="-28.26264414" lon="152.03622819"><ele>493.000</ele></trkpt>
    <trkpt lat="-28.26331286" lon="152.03609973"><ele>496.000</ele></trkpt>
    <trkpt lat="-28.26400368" lon="152.03596904"><ele>497.000</ele></trkpt>
    <trkpt lat="-28.26406856" lon="152.03595206"><ele>497.000</ele></trkpt>
    <trkpt lat="-28.26411574" lon="152.03593647"><ele>496.000</ele></trkpt>
    <trkpt lat="-28.26413972" lon="152.03592218"><ele>496.000</ele></trkpt>
    <trkpt lat="-28.26416896" lon="152.03590064"><ele>496.000</ele></trkpt>
    <trkpt lat="-28.26419651" lon="152.03587641"><ele>496.000</ele></trkpt>
    <trkpt lat="-28.26421041" lon="152.03585683"><ele>496.000</ele></trkpt>
    <trkpt lat="-28.26423460" lon="152.03582169"><ele>496.000</ele></trkpt>
    <trkpt lat="-28.26425618" lon="152.03577648"><ele>496.000</ele></trkpt>
    <trkpt lat="-28.26445919" lon="152.03532805"><ele>499.000</ele></trkpt>
    <trkpt lat="-28.26449074" lon="152.03524087"><ele>500.000</ele></trkpt>
    <trkpt lat="-28.26449602" lon="152.03518776"><ele>500.000</ele></trkpt>
    <trkpt lat="-28.26449347" lon="152.03514999"><ele>501.000</ele></trkpt>
    <trkpt lat="-28.26448453" lon="152.03511644"><ele>501.000</ele></trkpt>
    <trkpt lat="-28.26446131" lon="152.03507140"><ele>501.000</ele></trkpt>
    <trkpt lat="-28.26443988" lon="152.03504155"><ele>502.000</ele></trkpt>
    <trkpt lat="-28.26442200" lon="152.03502411"><ele>502.000</ele></trkpt>
    <trkpt lat="-28.26437611" lon="152.03499280"><ele>502.000</ele></trkpt>
    <trkpt lat="-28.26420825" lon="152.03489140"><ele>503.000</ele></trkpt>
    <trkpt lat="-28.26395204" lon="152.03471718"><ele>504.000</ele></trkpt>
    <trkpt lat="-28.26378311" lon="152.03459443"><ele>504.000</ele></trkpt>
    <trkpt lat="-28.26365830" lon="152.03448902"><ele>504.000</ele></trkpt>
    <trkpt lat="-28.26357559" lon="152.03440504"><ele>504.000</ele></trkpt>
    <trkpt lat="-28.26351824" lon="152.03433596"><ele>504.000</ele></trkpt>
    <trkpt lat="-28.26343256" lon="152.03420779"><ele>505.000</ele></trkpt>
    <trkpt lat="-28.26337542" lon="152.03409801"><ele>505.000</ele></trkpt>
    <trkpt lat="-28.26333404" lon="152.03400029"><ele>505.000</ele></trkpt>
    <trkpt lat="-28.26330153" lon="152.03389292"><ele>506.000</ele></trkpt>
    <trkpt lat="-28.26328313" lon="152.03380831"><ele>505.000</ele></trkpt>
    <trkpt lat="-28.26326692" lon="152.03367133"><ele>504.000</ele></trkpt>
    <trkpt lat="-28.26326841" lon="152.03353894"><ele>504.000</ele></trkpt>
    <trkpt lat="-28.26327572" lon="152.03346574"><ele>505.000</ele></trkpt>
    <trkpt lat="-28.26329907" lon="152.03336177"><ele>505.000</ele></trkpt>
    <trkpt lat="-28.26332819" lon="152.03325688"><ele>505.000</ele></trkpt>
    <trkpt lat="-28.26336454" lon="152.03316187"><ele>505.000</ele></trkpt>
    <trkpt lat="-28.26344245" lon="152.03298798"><ele>506.000</ele></trkpt>
    <trkpt lat="-28.26362419" lon="152.03260599"><ele>505.000</ele></trkpt>
    <trkpt lat="-28.26387296" lon="152.03203143"><ele>504.000</ele></trkpt>
    <trkpt lat="-28.26408365" lon="152.03156002"><ele>503.000</ele></trkpt>
    <trkpt lat="-28.26437924" lon="152.03090185"><ele>501.000</ele></trkpt>
    <trkpt lat="-28.26439564" lon="152.03085378"><ele>501.000</ele></trkpt>
    <trkpt lat="-28.26440169" lon="152.03080348"><ele>501.000</ele></trkpt>
    <trkpt lat="-28.26440064" lon="152.03075756"><ele>502.000</ele></trkpt>
    <trkpt lat="-28.26439444" lon="152.03071566"><ele>502.000</ele></trkpt>
    <trkpt lat="-28.26437849" lon="152.03067987"><ele>502.000</ele></trkpt>
    <trkpt lat="-28.26435890" lon="152.03064547"><ele>502.000</ele></trkpt>
    <trkpt lat="-28.26433608" lon="152.03061178"><ele>502.000</ele></trkpt>
    <trkpt lat="-28.26431367" lon="152.03059386"><ele>502.000</ele></trkpt>
    <trkpt lat="-28.26428514" lon="152.03057577"><ele>502.000</ele></trkpt>
    <trkpt lat="-28.26425917" lon="152.03056468"><ele>502.000</ele></trkpt>
    <trkpt lat="-28.26423812" lon="152.03055602"><ele>502.000</ele></trkpt>
    <trkpt lat="-28.26419228" lon="152.03054636"><ele>502.000</ele></trkpt>
    <trkpt lat="-28.26417421" lon="152.03054594"><ele>502.000</ele></trkpt>
    <trkpt lat="-28.26411685" lon="152.03054950"><ele>502.000</ele></trkpt>
    <trkpt lat="-28.26406670" lon="152.03055852"><ele>501.000</ele></trkpt>
    <trkpt lat="-28.26400845" lon="152.03058143"><ele>501.000</ele></trkpt>
    <trkpt lat="-28.26396869" lon="152.03060263"><ele>501.000</ele></trkpt>
    <trkpt lat="-28.26363627" lon="152.03080548"><ele>502.000</ele></trkpt>
    <trkpt lat="-28.26335119" lon="152.03096357"><ele>503.000</ele></trkpt>
    <trkpt lat="-28.26319622" lon="152.03104124"><ele>502.000</ele></trkpt>
    <trkpt lat="-28.26292591" lon="152.03115932"><ele>501.000</ele></trkpt>
    <trkpt lat="-28.26275615" lon="152.03121286"><ele>500.000</ele></trkpt>
    <trkpt lat="-28.26263635" lon="152.03123241"><ele>500.000</ele></trkpt>
    <trkpt lat="-28.26253803" lon="152.03124185"><ele>500.000</ele></trkpt>
    <trkpt lat="-28.26243525" lon="152.03124137"><ele>500.000</ele></trkpt>
    <trkpt lat="-28.26232480" lon="152.03123130"><ele>500.000</ele></trkpt>
    <trkpt lat="-28.26222424" lon="152.03121090"><ele>499.000</ele></trkpt>
    <trkpt lat="-28.26210540" lon="152.03117421"><ele>499.000</ele></trkpt>
    <trkpt lat="-28.26198146" lon="152.03112736"><ele>498.000</ele></trkpt>
    <trkpt lat="-28.26168033" lon="152.03096800"><ele>496.000</ele></trkpt>
    <trkpt lat="-28.26136110" lon="152.03079768"><ele>492.000</ele></trkpt>
    <trkpt lat="-28.26131652" lon="152.03077873"><ele>492.000</ele></trkpt>
    <trkpt lat="-28.26126368" lon="152.03077100"><ele>493.000</ele></trkpt>
    <trkpt lat="-28.26122993" lon="152.03077577"><ele>493.000</ele></trkpt>
    <trkpt lat="-28.26119474" lon="152.03078411"><ele>493.000</ele></trkpt>
    <trkpt lat="-28.26116115" lon="152.03080016"><ele>494.000</ele></trkpt>
    <trkpt lat="-28.26112893" lon="152.03081968"><ele>494.000</ele></trkpt>
    <trkpt lat="-28.26109937" lon="152.03085008"><ele>494.000</ele></trkpt>
    <trkpt lat="-28.26106859" lon="152.03088844"><ele>494.000</ele></trkpt>
    <trkpt lat="-28.26105135" lon="152.03092151"><ele>495.000</ele></trkpt>
    <trkpt lat="-28.26103782" lon="152.03096526"><ele>495.000</ele></trkpt>
    <trkpt lat="-28.26102780" lon="152.03102607"><ele>495.000</ele></trkpt>
    <trkpt lat="-28.26103053" lon="152.03105956"><ele>495.000</ele></trkpt>
    <trkpt lat="-28.26103665" lon="152.03109146"><ele>496.000</ele></trkpt>
    <trkpt lat="-28.26104083" lon="152.03111704"><ele>496.000</ele></trkpt>
    <trkpt lat="-28.26105118" lon="152.03114615"><ele>496.000</ele></trkpt>
    <trkpt lat="-28.26108009" lon="152.03120347"><ele>497.000</ele></trkpt>
    <trkpt lat="-28.26138905" lon="152.03174529"><ele>497.000</ele></trkpt>
    <trkpt lat="-28.26179011" lon="152.03245756"><ele>497.000</ele></trkpt>
    <trkpt lat="-28.26180128" lon="152.03251315"><ele>497.000</ele></trkpt>
    <trkpt lat="-28.26179997" lon="152.03256067"><ele>498.000</ele></trkpt>
    <trkpt lat="-28.26179350" lon="152.03260927"><ele>498.000</ele></trkpt>
    <trkpt lat="-28.26177299" lon="152.03266293"><ele>499.000</ele></trkpt>
    <trkpt lat="-28.26174912" lon="152.03271447"><ele>499.000</ele></trkpt>
    <trkpt lat="-28.26171199" lon="152.03276256"><ele>499.000</ele></trkpt>
    <trkpt lat="-28.26166982" lon="152.03280693"><ele>499.000</ele></trkpt>
    <trkpt lat="-28.26161902" lon="152.03285407"><ele>499.000</ele></trkpt>
    <trkpt lat="-28.26127568" lon="152.03317073"><ele>501.000</ele></trkpt>
    <trkpt lat="-28.26074088" lon="152.03366094"><ele>502.000</ele></trkpt>
    <trkpt lat="-28.26025614" lon="152.03409723"><ele>499.000</ele></trkpt>
    <trkpt lat="-28.25997686" lon="152.03435670"><ele>496.000</ele></trkpt>
    <trkpt lat="-28.25985912" lon="152.03445005"><ele>494.000</ele></trkpt>
    <trkpt lat="-28.25973053" lon="152.03454009"><ele>494.000</ele></trkpt>
    <trkpt lat="-28.25963504" lon="152.03459823"><ele>494.000</ele></trkpt>
    <trkpt lat="-28.25952652" lon="152.03465164"><ele>494.000</ele></trkpt>
    <trkpt lat="-28.25942691" lon="152.03469314"><ele>494.000</ele></trkpt>
    <trkpt lat="-28.25934418" lon="152.03472075"><ele>493.000</ele></trkpt>
    <trkpt lat="-28.25923507" lon="152.03475319"><ele>492.000</ele></trkpt>
    <trkpt lat="-28.25906798" lon="152.03478832"><ele>491.000</ele></trkpt>
    <trkpt lat="-28.25888250" lon="152.03483269"><ele>491.000</ele></trkpt>
    <trkpt lat="-28.25850290" lon="152.03489999"><ele>491.000</ele></trkpt>
    <trkpt lat="-28.25784998" lon="152.03501297"><ele>492.000</ele></trkpt>
    <trkpt lat="-28.25772853" lon="152.03504336"><ele>492.000</ele></trkpt>
    <trkpt lat="-28.25761351" lon="152.03508640"><ele>492.000</ele></trkpt>
    <trkpt lat="-28.25745451" lon="152.03516536"><ele>492.000</ele></trkpt>
    <trkpt lat="-28.25732251" lon="152.03525468"><ele>492.000</ele></trkpt>
    <trkpt lat="-28.25721875" lon="152.03534667"><ele>492.000</ele></trkpt>
    <trkpt lat="-28.25713458" lon="152.03543226"><ele>492.000</ele></trkpt>
    <trkpt lat="-28.25705149" lon="152.03553115"><ele>491.000</ele></trkpt>
    <trkpt lat="-28.25700369" lon="152.03560100"><ele>491.000</ele></trkpt>
    <trkpt lat="-28.25696488" lon="152.03568204"><ele>491.000</ele></trkpt>
    <trkpt lat="-28.25693648" lon="152.03574587"><ele>491.000</ele></trkpt>
    <trkpt lat="-28.25685733" lon="152.03594843"><ele>490.000</ele></trkpt>
    <trkpt lat="-28.25681079" lon="152.03606884"><ele>489.000</ele></trkpt>
    <trkpt lat="-28.25676940" lon="152.03620339"><ele>488.000</ele></trkpt>
    <trkpt lat="-28.25673060" lon="152.03639622"><ele>487.000</ele></trkpt>
    <trkpt lat="-28.25659419" lon="152.03713601"><ele>485.000</ele></trkpt>
    <trkpt lat="-28.25655919" lon="152.03731805"><ele>483.000</ele></trkpt>
    <trkpt lat="-28.25655642" lon="152.03743213"><ele>482.000</ele></trkpt>
    <trkpt lat="-28.25656894" lon="152.03756550"><ele>480.000</ele></trkpt>
    <trkpt lat="-28.25658116" lon="152.03762170"><ele>480.000</ele></trkpt>
    <trkpt lat="-28.25660794" lon="152.03767600"><ele>479.000</ele></trkpt>
    <trkpt lat="-28.25663743" lon="152.03772194"><ele>479.000</ele></trkpt>
    <trkpt lat="-28.25667677" lon="152.03776921"><ele>478.000</ele></trkpt>
    <trkpt lat="-28.25672668" lon="152.03781564"><ele>478.000</ele></trkpt>
    <trkpt lat="-28.25678578" lon="152.03785269"><ele>478.000</ele></trkpt>
    <trkpt lat="-28.25684158" lon="152.03787317"><ele>479.000</ele></trkpt>
    <trkpt lat="-28.25690027" lon="152.03788225"><ele>479.000</ele></trkpt>
    <trkpt lat="-28.25695143" lon="152.03788874"><ele>479.000</ele></trkpt>
    <trkpt lat="-28.25700893" lon="152.03788507"><ele>479.000</ele></trkpt>
    <trkpt lat="-28.25711778" lon="152.03787333"><ele>480.000</ele></trkpt>
    <trkpt lat="-28.25745365" lon="152.03780805"><ele>482.000</ele></trkpt>
    <trkpt lat="-28.25809407" lon="152.03769444"><ele>487.000</ele></trkpt>
    <trkpt lat="-28.25867723" lon="152.03759114"><ele>484.000</ele></trkpt>
    <trkpt lat="-28.25873359" lon="152.03757320"><ele>484.000</ele></trkpt>
    <trkpt lat="-28.25876885" lon="152.03755635"><ele>484.000</ele></trkpt>
    <trkpt lat="-28.25879989" lon="152.03753871"><ele>484.000</ele></trkpt>
    <trkpt lat="-28.25883079" lon="152.03751269"><ele>484.000</ele></trkpt>
    <trkpt lat="-28.25886179" lon="152.03748187"><ele>484.000</ele></trkpt>
    <trkpt lat="-28.25889052" lon="152.03744079"><ele>484.000</ele></trkpt>
    <trkpt lat="-28.25890714" lon="152.03741184"><ele>484.000</ele></trkpt>
    <trkpt lat="-28.25892529" lon="152.03736975"><ele>485.000</ele></trkpt>
    <trkpt lat="-28.25903393" lon="152.03712885"><ele>486.000</ele></trkpt>
    <trkpt lat="-28.25906574" lon="152.03707214"><ele>487.000</ele></trkpt>
    <trkpt lat="-28.25908977" lon="152.03703959"><ele>487.000</ele></trkpt>
    <trkpt lat="-28.25911857" lon="152.03700473"><ele>487.000</ele></trkpt>
    <trkpt lat="-28.25916181" lon="152.03696520"><ele>488.000</ele></trkpt>
    <trkpt lat="-28.25921937" lon="152.03692531"><ele>488.000</ele></trkpt>
    <trkpt lat="-28.25926909" lon="152.03689587"><ele>489.000</ele></trkpt>
    <trkpt lat="-28.25933568" lon="152.03686502"><ele>489.000</ele></trkpt>
    <trkpt lat="-28.25940481" lon="152.03683990"><ele>489.000</ele></trkpt>
    <trkpt lat="-28.25949156" lon="152.03681494"><ele>490.000</ele></trkpt>
    <trkpt lat="-28.25955266" lon="152.03680156"><ele>490.000</ele></trkpt>
    <trkpt lat="-28.25999160" lon="152.03671925"><ele>494.000</ele></trkpt>
    <trkpt lat="-28.26067183" lon="152.03659172"><ele>494.000</ele></trkpt>
    <trkpt lat="-28.26116503" lon="152.03649997"><ele>493.000</ele></trkpt>
    <trkpt lat="-28.26176775" lon="152.03638835"><ele>494.000</ele></trkpt>
    <trkpt lat="-28.26206923" lon="152.03632893"><ele>494.000</ele></trkpt>
  </trkseg></trk>
</gpx>
