<?xml version="1.0" encoding="UTF-8"?>
<gpx version="1.1" creator="Send-It tkk-to-gpx (Harry's LapTimer .tkk)">
  <trk><name>oulton-park</name><trkseg>
    <trkpt lat="53.17969740" lon="-2.61260580"></trkpt>
    <trkpt lat="53.17897810" lon="-2.61229740"></trkpt>
    <trkpt lat="53.17833840" lon="-2.61197070"></trkpt>
    <trkpt lat="53.17825500" lon="-2.61193410"></trkpt>
    <trkpt lat="53.17817290" lon="-2.61190460"></trkpt>
    <trkpt lat="53.17809070" lon="-2.61188650"></trkpt>
    <trkpt lat="53.17800700" lon="-2.61187910"></trkpt>
    <trkpt lat="53.17792290" lon="-2.61188240"></trkpt>
    <trkpt lat="53.17784000" lon="-2.61189720"></trkpt>
    <trkpt lat="53.17775770" lon="-2.61192750"></trkpt>
    <trkpt lat="53.17767900" lon="-2.61197310"></trkpt>
    <trkpt lat="53.17760410" lon="-2.61203290"></trkpt>
    <trkpt lat="53.17753410" lon="-2.61210940"></trkpt>
    <trkpt lat="53.17746800" lon="-2.61219830"></trkpt>
    <trkpt lat="53.17740590" lon="-2.61229740"></trkpt>
    <trkpt lat="53.17734760" lon="-2.61240630"></trkpt>
    <trkpt lat="53.17729290" lon="-2.61252290"></trkpt>
    <trkpt lat="53.17724080" lon="-2.61264640"></trkpt>
    <trkpt lat="53.17699260" lon="-2.61332670"></trkpt>
    <trkpt lat="53.17631070" lon="-2.61529910"></trkpt>
    <trkpt lat="53.17621270" lon="-2.61561690"></trkpt>
    <trkpt lat="53.17617000" lon="-2.61577620"></trkpt>
    <trkpt lat="53.17609520" lon="-2.61609700"></trkpt>
    <trkpt lat="53.17606440" lon="-2.61626180"></trkpt>
    <trkpt lat="53.17603770" lon="-2.61642990"></trkpt>
    <trkpt lat="53.17588320" lon="-2.61757890"></trkpt>
    <trkpt lat="53.17577840" lon="-2.61798670"></trkpt>
    <trkpt lat="53.17573240" lon="-2.61810830"></trkpt>
    <trkpt lat="53.17567840" lon="-2.61822110"></trkpt>
    <trkpt lat="53.17561790" lon="-2.61832560"></trkpt>
    <trkpt lat="53.17555060" lon="-2.61841560"></trkpt>
    <trkpt lat="53.17547830" lon="-2.61849210"></trkpt>
    <trkpt lat="53.17540070" lon="-2.61855220"></trkpt>
    <trkpt lat="53.17531950" lon="-2.61859590"></trkpt>
    <trkpt lat="53.17523500" lon="-2.61862620"></trkpt>
    <trkpt lat="53.17514750" lon="-2.61864020"></trkpt>
    <trkpt lat="53.17505860" lon="-2.61863730"></trkpt>
    <trkpt lat="53.17487960" lon="-2.61859090"></trkpt>
    <trkpt lat="53.17470250" lon="-2.61849490"></trkpt>
    <trkpt lat="53.17436220" lon="-2.61819300"></trkpt>
    <trkpt lat="53.17365900" lon="-2.61745370"></trkpt>
    <trkpt lat="53.17299340" lon="-2.61679700"></trkpt>
    <trkpt lat="53.17198900" lon="-2.61587410"></trkpt>
    <trkpt lat="53.17139520" lon="-2.61531030"></trkpt>
    <trkpt lat="53.17114480" lon="-2.61500010"></trkpt>
    <trkpt lat="53.17100150" lon="-2.61476370"></trkpt>
    <trkpt lat="53.17093660" lon="-2.61463440"></trkpt>
    <trkpt lat="53.17087840" lon="-2.61449700"></trkpt>
    <trkpt lat="53.17082810" lon="-2.61435050"></trkpt>
    <trkpt lat="53.17074970" lon="-2.61403970"></trkpt>
    <trkpt lat="53.17072060" lon="-2.61387760"></trkpt>
    <trkpt lat="53.17068230" lon="-2.61354290"></trkpt>
    <trkpt lat="53.17066880" lon="-2.61320030"></trkpt>
    <trkpt lat="53.17069240" lon="-2.61267910"></trkpt>
    <trkpt lat="53.17078620" lon="-2.61200090"></trkpt>
    <trkpt lat="53.17088420" lon="-2.61143630"></trkpt>
    <trkpt lat="53.17089940" lon="-2.61131580"></trkpt>
    <trkpt lat="53.17090850" lon="-2.61120140"></trkpt>
    <trkpt lat="53.17091260" lon="-2.61109250"></trkpt>
    <trkpt lat="53.17091160" lon="-2.61098760"></trkpt>
    <trkpt lat="53.17090320" lon="-2.61088840"></trkpt>
    <trkpt lat="53.17088740" lon="-2.61079460"></trkpt>
    <trkpt lat="53.17087570" lon="-2.61075020"></trkpt>
    <trkpt lat="53.17086130" lon="-2.61070810"></trkpt>
    <trkpt lat="53.17084400" lon="-2.61066860"></trkpt>
    <trkpt lat="53.17082430" lon="-2.61063230"></trkpt>
    <trkpt lat="53.17080230" lon="-2.61059910"></trkpt>
    <trkpt lat="53.17077830" lon="-2.61057000"></trkpt>
    <trkpt lat="53.17075240" lon="-2.61054550"></trkpt>
    <trkpt lat="53.17072490" lon="-2.61052570"></trkpt>
    <trkpt lat="53.17069580" lon="-2.61051110"></trkpt>
    <trkpt lat="53.17066570" lon="-2.61050120"></trkpt>
    <trkpt lat="53.17063490" lon="-2.61049500"></trkpt>
    <trkpt lat="53.17060370" lon="-2.61049380"></trkpt>
    <trkpt lat="53.17057200" lon="-2.61049880"></trkpt>
    <trkpt lat="53.17054090" lon="-2.61050990"></trkpt>
    <trkpt lat="53.17051090" lon="-2.61052760"></trkpt>
    <trkpt lat="53.17048210" lon="-2.61055110"></trkpt>
    <trkpt lat="53.17045470" lon="-2.61058050"></trkpt>
    <trkpt lat="53.17042890" lon="-2.61061460"></trkpt>
    <trkpt lat="53.17038150" lon="-2.61069560"></trkpt>
    <trkpt lat="53.17034100" lon="-2.61078950"></trkpt>
    <trkpt lat="53.17030720" lon="-2.61089570"></trkpt>
    <trkpt lat="53.17028030" lon="-2.61101120"></trkpt>
    <trkpt lat="53.17025900" lon="-2.61113390"></trkpt>
    <trkpt lat="53.17024250" lon="-2.61126360"></trkpt>
    <trkpt lat="53.17022110" lon="-2.61153670"></trkpt>
    <trkpt lat="53.17020220" lon="-2.61213120"></trkpt>
    <trkpt lat="53.17021090" lon="-2.61277790"></trkpt>
    <trkpt lat="53.17021710" lon="-2.61294530"></trkpt>
    <trkpt lat="53.17022730" lon="-2.61311440"></trkpt>
    <trkpt lat="53.17024210" lon="-2.61328400"></trkpt>
    <trkpt lat="53.17026260" lon="-2.61345430"></trkpt>
    <trkpt lat="53.17028920" lon="-2.61362320"></trkpt>
    <trkpt lat="53.17032140" lon="-2.61378680"></trkpt>
    <trkpt lat="53.17035910" lon="-2.61394410"></trkpt>
    <trkpt lat="53.17040290" lon="-2.61409650"></trkpt>
    <trkpt lat="53.17045190" lon="-2.61424540"></trkpt>
    <trkpt lat="53.17051100" lon="-2.61441720"></trkpt>
    <trkpt lat="53.17058990" lon="-2.61462490"></trkpt>
    <trkpt lat="53.17087770" lon="-2.61524830"></trkpt>
    <trkpt lat="53.17090590" lon="-2.61533050"></trkpt>
    <trkpt lat="53.17094630" lon="-2.61549970"></trkpt>
    <trkpt lat="53.17098070" lon="-2.61575170"></trkpt>
    <trkpt lat="53.17099950" lon="-2.61582770"></trkpt>
    <trkpt lat="53.17101150" lon="-2.61586390"></trkpt>
    <trkpt lat="53.17102550" lon="-2.61589830"></trkpt>
    <trkpt lat="53.17104190" lon="-2.61593040"></trkpt>
    <trkpt lat="53.17106010" lon="-2.61596010"></trkpt>
    <trkpt lat="53.17110200" lon="-2.61601240"></trkpt>
    <trkpt lat="53.17115010" lon="-2.61605730"></trkpt>
    <trkpt lat="53.17120370" lon="-2.61609470"></trkpt>
    <trkpt lat="53.17145090" lon="-2.61621970"></trkpt>
    <trkpt lat="53.17171360" lon="-2.61643800"></trkpt>
    <trkpt lat="53.17209980" lon="-2.61688810"></trkpt>
    <trkpt lat="53.17323590" lon="-2.61840520"></trkpt>
    <trkpt lat="53.17458420" lon="-2.62015760"></trkpt>
    <trkpt lat="53.17468430" lon="-2.62026780"></trkpt>
    <trkpt lat="53.17473220" lon="-2.62030780"></trkpt>
    <trkpt lat="53.17478090" lon="-2.62033820"></trkpt>
    <trkpt lat="53.17483070" lon="-2.62035650"></trkpt>
    <trkpt lat="53.17488140" lon="-2.62036080"></trkpt>
    <trkpt lat="53.17493150" lon="-2.62035000"></trkpt>
    <trkpt lat="53.17502960" lon="-2.62030030"></trkpt>
    <trkpt lat="53.17513330" lon="-2.62027250"></trkpt>
    <trkpt lat="53.17516120" lon="-2.62027220"></trkpt>
    <trkpt lat="53.17518690" lon="-2.62027610"></trkpt>
    <trkpt lat="53.17523940" lon="-2.62029360"></trkpt>
    <trkpt lat="53.17529080" lon="-2.62032620"></trkpt>
    <trkpt lat="53.17534030" lon="-2.62037460"></trkpt>
    <trkpt lat="53.17538640" lon="-2.62043650"></trkpt>
    <trkpt lat="53.17542650" lon="-2.62050320"></trkpt>
    <trkpt lat="53.17547070" lon="-2.62059410"></trkpt>
    <trkpt lat="53.17564050" lon="-2.62110990"></trkpt>
    <trkpt lat="53.17567630" lon="-2.62120950"></trkpt>
    <trkpt lat="53.17571730" lon="-2.62130160"></trkpt>
    <trkpt lat="53.17576310" lon="-2.62138540"></trkpt>
    <trkpt lat="53.17581360" lon="-2.62145840"></trkpt>
    <trkpt lat="53.17586850" lon="-2.62151970"></trkpt>
    <trkpt lat="53.17592890" lon="-2.62156690"></trkpt>
    <trkpt lat="53.17599270" lon="-2.62159930"></trkpt>
    <trkpt lat="53.17605960" lon="-2.62161770"></trkpt>
    <trkpt lat="53.17612940" lon="-2.62162020"></trkpt>
    <trkpt lat="53.17620140" lon="-2.62160890"></trkpt>
    <trkpt lat="53.17627540" lon="-2.62158780"></trkpt>
    <trkpt lat="53.17642790" lon="-2.62152600"></trkpt>
    <trkpt lat="53.17674580" lon="-2.62134450"></trkpt>
    <trkpt lat="53.17778830" lon="-2.62064650"></trkpt>
    <trkpt lat="53.17821490" lon="-2.62044420"></trkpt>
    <trkpt lat="53.17881080" lon="-2.62032250"></trkpt>
    <trkpt lat="53.17974070" lon="-2.62023670"></trkpt>
    <trkpt lat="53.18010040" lon="-2.62026490"></trkpt>
    <trkpt lat="53.18046690" lon="-2.62039890"></trkpt>
    <trkpt lat="53.18083630" lon="-2.62056210"></trkpt>
    <trkpt lat="53.18108560" lon="-2.62065640"></trkpt>
    <trkpt lat="53.18116290" lon="-2.62067920"></trkpt>
    <trkpt lat="53.18123930" lon="-2.62069170"></trkpt>
    <trkpt lat="53.18131510" lon="-2.62069170"></trkpt>
    <trkpt lat="53.18138970" lon="-2.62067970"></trkpt>
    <trkpt lat="53.18146260" lon="-2.62065360"></trkpt>
    <trkpt lat="53.18153530" lon="-2.62061580"></trkpt>
    <trkpt lat="53.18160760" lon="-2.62057040"></trkpt>
    <trkpt lat="53.18167950" lon="-2.62051700"></trkpt>
    <trkpt lat="53.18174990" lon="-2.62045400"></trkpt>
    <trkpt lat="53.18181720" lon="-2.62038070"></trkpt>
    <trkpt lat="53.18188000" lon="-2.62029620"></trkpt>
    <trkpt lat="53.18193800" lon="-2.62020110"></trkpt>
    <trkpt lat="53.18199130" lon="-2.62009620"></trkpt>
    <trkpt lat="53.18203900" lon="-2.61998130"></trkpt>
    <trkpt lat="53.18208150" lon="-2.61985800"></trkpt>
    <trkpt lat="53.18211980" lon="-2.61972780"></trkpt>
    <trkpt lat="53.18215310" lon="-2.61959060"></trkpt>
    <trkpt lat="53.18218220" lon="-2.61944790"></trkpt>
    <trkpt lat="53.18220670" lon="-2.61930260"></trkpt>
    <trkpt lat="53.18222750" lon="-2.61915360"></trkpt>
    <trkpt lat="53.18237190" lon="-2.61787380"></trkpt>
    <trkpt lat="53.18264150" lon="-2.61615340"></trkpt>
    <trkpt lat="53.18280370" lon="-2.61512800"></trkpt>
    <trkpt lat="53.18301430" lon="-2.61365620"></trkpt>
    <trkpt lat="53.18302310" lon="-2.61354600"></trkpt>
    <trkpt lat="53.18302660" lon="-2.61343750"></trkpt>
    <trkpt lat="53.18302350" lon="-2.61332970"></trkpt>
    <trkpt lat="53.18301330" lon="-2.61322460"></trkpt>
    <trkpt lat="53.18299490" lon="-2.61312390"></trkpt>
    <trkpt lat="53.18296770" lon="-2.61302940"></trkpt>
    <trkpt lat="53.18293230" lon="-2.61294570"></trkpt>
    <trkpt lat="53.18288950" lon="-2.61287440"></trkpt>
    <trkpt lat="53.18284060" lon="-2.61281500"></trkpt>
    <trkpt lat="53.18278710" lon="-2.61276680"></trkpt>
    <trkpt lat="53.18272960" lon="-2.61272900"></trkpt>
    <trkpt lat="53.18266980" lon="-2.61270270"></trkpt>
    <trkpt lat="53.18260770" lon="-2.61268700"></trkpt>
    <trkpt lat="53.18254250" lon="-2.61267940"></trkpt>
    <trkpt lat="53.18247320" lon="-2.61267860"></trkpt>
    <trkpt lat="53.18239980" lon="-2.61268410"></trkpt>
    <trkpt lat="53.18224820" lon="-2.61271380"></trkpt>
    <trkpt lat="53.18156960" lon="-2.61291500"></trkpt>
    <trkpt lat="53.18110860" lon="-2.61295580"></trkpt>
    <trkpt lat="53.18061510" lon="-2.61289810"></trkpt>
    <trkpt lat="53.17990160" lon="-2.61269340"></trkpt>
    <trkpt lat="53.17969740" lon="-2.61260580"></trkpt>
  </trkseg></trk>
</gpx>
