<?xml version="1.0" encoding="UTF-8"?>
<gpx version="1.1" creator="Send-It DEM enrich">
  <trk><name>phillip_island</name><trkseg>
    <trkpt lat="-38.50256751" lon="145.23201433"><ele>46.000</ele></trkpt>
    <trkpt lat="-38.50248010" lon="145.23235398"><ele>46.000</ele></trkpt>
    <trkpt lat="-38.50252491" lon="145.23217736"><ele>46.000</ele></trkpt>
    <trkpt lat="-38.50307387" lon="145.23241724"><ele>45.000</ele></trkpt>
    <trkpt lat="-38.50352739" lon="145.23261632"><ele>45.000</ele></trkpt>
    <trkpt lat="-38.50443716" lon="145.23300870"><ele>45.000</ele></trkpt>
    <trkpt lat="-38.50488661" lon="145.23320493"><ele>43.000</ele></trkpt>
    <trkpt lat="-38.50556374" lon="145.23349199"><ele>41.000</ele></trkpt>
    <trkpt lat="-38.50600043" lon="145.23368323"><ele>39.000</ele></trkpt>
    <trkpt lat="-38.50631068" lon="145.23381223"><ele>37.000</ele></trkpt>
    <trkpt lat="-38.50640831" lon="145.23384789"><ele>37.000</ele></trkpt>
    <trkpt lat="-38.50648261" lon="145.23387379"><ele>37.000</ele></trkpt>
    <trkpt lat="-38.50653232" lon="145.23388816"><ele>36.000</ele></trkpt>
    <trkpt lat="-38.50656992" lon="145.23389995"><ele>36.000</ele></trkpt>
    <trkpt lat="-38.50661419" lon="145.23391193"><ele>36.000</ele></trkpt>
    <trkpt lat="-38.50663397" lon="145.23391925"><ele>36.000</ele></trkpt>
    <trkpt lat="-38.50668783" lon="145.23396167"><ele>36.000</ele></trkpt>
    <trkpt lat="-38.50672960" lon="145.23397551"><ele>36.000</ele></trkpt>
    <trkpt lat="-38.50681949" lon="145.23397277"><ele>35.000</ele></trkpt>
    <trkpt lat="-38.50686677" lon="145.23397608"><ele>35.000</ele></trkpt>
    <trkpt lat="-38.50695599" lon="145.23397692"><ele>35.000</ele></trkpt>
    <trkpt lat="-38.50705739" lon="145.23398107"><ele>35.000</ele></trkpt>
    <trkpt lat="-38.50712896" lon="145.23397715"><ele>35.000</ele></trkpt>
    <trkpt lat="-38.50721061" lon="145.23397308"><ele>36.000</ele></trkpt>
    <trkpt lat="-38.50727805" lon="145.23396234"><ele>36.000</ele></trkpt>
    <trkpt lat="-38.50734840" lon="145.23394549"><ele>36.000</ele></trkpt>
    <trkpt lat="-38.50743254" lon="145.23392032"><ele>36.000</ele></trkpt>
    <trkpt lat="-38.50751500" lon="145.23388607"><ele>36.000</ele></trkpt>
    <trkpt lat="-38.50757595" lon="145.23386248"><ele>36.000</ele></trkpt>
    <trkpt lat="-38.50764158" lon="145.23383193"><ele>36.000</ele></trkpt>
    <trkpt lat="-38.50768861" lon="145.23380384"><ele>36.000</ele></trkpt>
    <trkpt lat="-38.50773547" lon="145.23377850"><ele>36.000</ele></trkpt>
    <trkpt lat="-38.50777702" lon="145.23375236"><ele>36.000</ele></trkpt>
    <trkpt lat="-38.50782875" lon="145.23371735"><ele>36.000</ele></trkpt>
    <trkpt lat="-38.50787392" lon="145.23368510"><ele>36.000</ele></trkpt>
    <trkpt lat="-38.50791451" lon="145.23365280"><ele>36.000</ele></trkpt>
    <trkpt lat="-38.50795193" lon="145.23362180"><ele>36.000</ele></trkpt>
    <trkpt lat="-38.50799051" lon="145.23358350"><ele>36.000</ele></trkpt>
    <trkpt lat="-38.50804892" lon="145.23352684"><ele>36.000</ele></trkpt>
    <trkpt lat="-38.50808872" lon="145.23348196"><ele>36.000</ele></trkpt>
    <trkpt lat="-38.50815200" lon="145.23340317"><ele>37.000</ele></trkpt>
    <trkpt lat="-38.50818274" lon="145.23336237"><ele>37.000</ele></trkpt>
    <trkpt lat="-38.50821187" lon="145.23331820"><ele>37.000</ele></trkpt>
    <trkpt lat="-38.50829960" lon="145.23319048"><ele>37.000</ele></trkpt>
    <trkpt lat="-38.50835711" lon="145.23309443"><ele>37.000</ele></trkpt>
    <trkpt lat="-38.50844620" lon="145.23292992"><ele>37.000</ele></trkpt>
    <trkpt lat="-38.50853276" lon="145.23276081"><ele>38.000</ele></trkpt>
    <trkpt lat="-38.50859461" lon="145.23262685"><ele>38.000</ele></trkpt>
    <trkpt lat="-38.50868947" lon="145.23241386"><ele>38.000</ele></trkpt>
    <trkpt lat="-38.50879460" lon="145.23218983"><ele>38.000</ele></trkpt>
    <trkpt lat="-38.50888754" lon="145.23199187"><ele>39.000</ele></trkpt>
    <trkpt lat="-38.50897344" lon="145.23181571"><ele>39.000</ele></trkpt>
    <trkpt lat="-38.50900451" lon="145.23175933"><ele>39.000</ele></trkpt>
    <trkpt lat="-38.50904477" lon="145.23168679"><ele>39.000</ele></trkpt>
    <trkpt lat="-38.50908608" lon="145.23162320"><ele>39.000</ele></trkpt>
    <trkpt lat="-38.50912110" lon="145.23156635"><ele>39.000</ele></trkpt>
    <trkpt lat="-38.50917310" lon="145.23149120"><ele>40.000</ele></trkpt>
    <trkpt lat="-38.50922583" lon="145.23142710"><ele>40.000</ele></trkpt>
    <trkpt lat="-38.50928052" lon="145.23136423"><ele>40.000</ele></trkpt>
    <trkpt lat="-38.50934034" lon="145.23130676"><ele>39.000</ele></trkpt>
    <trkpt lat="-38.50942156" lon="145.23123740"><ele>39.000</ele></trkpt>
    <trkpt lat="-38.50948576" lon="145.23119278"><ele>39.000</ele></trkpt>
    <trkpt lat="-38.50955049" lon="145.23115865"><ele>39.000</ele></trkpt>
    <trkpt lat="-38.50960530" lon="145.23113704"><ele>40.000</ele></trkpt>
    <trkpt lat="-38.50967127" lon="145.23111961"><ele>40.000</ele></trkpt>
    <trkpt lat="-38.50973279" lon="145.23110846"><ele>40.000</ele></trkpt>
    <trkpt lat="-38.50980665" lon="145.23110423"><ele>40.000</ele></trkpt>
    <trkpt lat="-38.50986653" lon="145.23110607"><ele>41.000</ele></trkpt>
    <trkpt lat="-38.50993304" lon="145.23111891"><ele>41.000</ele></trkpt>
    <trkpt lat="-38.50999418" lon="145.23113257"><ele>41.000</ele></trkpt>
    <trkpt lat="-38.51003491" lon="145.23114605"><ele>41.000</ele></trkpt>
    <trkpt lat="-38.51009766" lon="145.23117767"><ele>42.000</ele></trkpt>
    <trkpt lat="-38.51013515" lon="145.23119663"><ele>42.000</ele></trkpt>
    <trkpt lat="-38.51016579" lon="145.23121695"><ele>42.000</ele></trkpt>
    <trkpt lat="-38.51021313" lon="145.23124836"><ele>42.000</ele></trkpt>
    <trkpt lat="-38.51025700" lon="145.23128652"><ele>42.000</ele></trkpt>
    <trkpt lat="-38.51028917" lon="145.23131766"><ele>42.000</ele></trkpt>
    <trkpt lat="-38.51032081" lon="145.23135374"><ele>42.000</ele></trkpt>
    <trkpt lat="-38.51035346" lon="145.23138999"><ele>42.000</ele></trkpt>
    <trkpt lat="-38.51038222" lon="145.23142731"><ele>42.000</ele></trkpt>
    <trkpt lat="-38.51040816" lon="145.23146613"><ele>42.000</ele></trkpt>
    <trkpt lat="-38.51042492" lon="145.23149118"><ele>42.000</ele></trkpt>
    <trkpt lat="-38.51044643" lon="145.23152994"><ele>42.000</ele></trkpt>
    <trkpt lat="-38.51046715" lon="145.23156927"><ele>42.000</ele></trkpt>
    <trkpt lat="-38.51048263" lon="145.23159771"><ele>42.000</ele></trkpt>
    <trkpt lat="-38.51049226" lon="145.23161995"><ele>42.000</ele></trkpt>
    <trkpt lat="-38.51050298" lon="145.23164555"><ele>42.000</ele></trkpt>
    <trkpt lat="-38.51050908" lon="145.23166050"><ele>42.000</ele></trkpt>
    <trkpt lat="-38.51051790" lon="145.23168664"><ele>42.000</ele></trkpt>
    <trkpt lat="-38.51052859" lon="145.23171648"><ele>42.000</ele></trkpt>
    <trkpt lat="-38.51053945" lon="145.23175232"><ele>42.000</ele></trkpt>
    <trkpt lat="-38.51055066" lon="145.23179360"><ele>42.000</ele></trkpt>
    <trkpt lat="-38.51055837" lon="145.23182932"><ele>41.000</ele></trkpt>
    <trkpt lat="-38.51056671" lon="145.23187827"><ele>41.000</ele></trkpt>
    <trkpt lat="-38.51057103" lon="145.23191632"><ele>41.000</ele></trkpt>
    <trkpt lat="-38.51057322" lon="145.23195580"><ele>41.000</ele></trkpt>
    <trkpt lat="-38.51057544" lon="145.23198140"><ele>41.000</ele></trkpt>
    <trkpt lat="-38.51057736" lon="145.23201606"><ele>40.000</ele></trkpt>
    <trkpt lat="-38.51057603" lon="145.23204702"><ele>40.000</ele></trkpt>
    <trkpt lat="-38.51057517" lon="145.23207124"><ele>40.000</ele></trkpt>
    <trkpt lat="-38.51057303" lon="145.23210560"><ele>40.000</ele></trkpt>
    <trkpt lat="-38.51057250" lon="145.23213859"><ele>40.000</ele></trkpt>
    <trkpt lat="-38.51057027" lon="145.23217224"><ele>39.000</ele></trkpt>
    <trkpt lat="-38.51056606" lon="145.23220455"><ele>39.000</ele></trkpt>
    <trkpt lat="-38.51056078" lon="145.23224560"><ele>39.000</ele></trkpt>
    <trkpt lat="-38.51055713" lon="145.23227801"><ele>39.000</ele></trkpt>
    <trkpt lat="-38.51054992" lon="145.23230983"><ele>38.000</ele></trkpt>
    <trkpt lat="-38.51054007" lon="145.23235620"><ele>38.000</ele></trkpt>
    <trkpt lat="-38.51053174" lon="145.23239493"><ele>38.000</ele></trkpt>
    <trkpt lat="-38.51052342" lon="145.23243009"><ele>38.000</ele></trkpt>
    <trkpt lat="-38.51051200" lon="145.23247591"><ele>37.000</ele></trkpt>
    <trkpt lat="-38.51049792" lon="145.23252425"><ele>37.000</ele></trkpt>
    <trkpt lat="-38.51048101" lon="145.23257806"><ele>37.000</ele></trkpt>
    <trkpt lat="-38.51046846" lon="145.23260750"><ele>36.000</ele></trkpt>
    <trkpt lat="-38.51045648" lon="145.23263574"><ele>36.000</ele></trkpt>
    <trkpt lat="-38.51044451" lon="145.23266441"><ele>36.000</ele></trkpt>
    <trkpt lat="-38.51042913" lon="145.23269866"><ele>36.000</ele></trkpt>
    <trkpt lat="-38.51041130" lon="145.23273760"><ele>35.000</ele></trkpt>
    <trkpt lat="-38.51038566" lon="145.23278571"><ele>35.000</ele></trkpt>
    <trkpt lat="-38.51036387" lon="145.23282299"><ele>34.000</ele></trkpt>
    <trkpt lat="-38.51034523" lon="145.23285528"><ele>34.000</ele></trkpt>
    <trkpt lat="-38.51031776" lon="145.23289665"><ele>34.000</ele></trkpt>
    <trkpt lat="-38.51029317" lon="145.23293618"><ele>34.000</ele></trkpt>
    <trkpt lat="-38.51026554" lon="145.23298083"><ele>33.000</ele></trkpt>
    <trkpt lat="-38.51011734" lon="145.23317685"><ele>33.000</ele></trkpt>
    <trkpt lat="-38.51002581" lon="145.23329475"><ele>33.000</ele></trkpt>
    <trkpt lat="-38.50993335" lon="145.23340545"><ele>33.000</ele></trkpt>
    <trkpt lat="-38.50967477" lon="145.23371180"><ele>35.000</ele></trkpt>
    <trkpt lat="-38.50949469" lon="145.23391951"><ele>36.000</ele></trkpt>
    <trkpt lat="-38.50931028" lon="145.23412540"><ele>35.000</ele></trkpt>
    <trkpt lat="-38.50902097" lon="145.23445406"><ele>32.000</ele></trkpt>
    <trkpt lat="-38.50886265" lon="145.23463032"><ele>30.000</ele></trkpt>
    <trkpt lat="-38.50875257" lon="145.23475433"><ele>28.000</ele></trkpt>
    <trkpt lat="-38.50864379" lon="145.23487076"><ele>27.000</ele></trkpt>
    <trkpt lat="-38.50857509" lon="145.23494345"><ele>28.000</ele></trkpt>
    <trkpt lat="-38.50852405" lon="145.23499731"><ele>28.000</ele></trkpt>
    <trkpt lat="-38.50848224" lon="145.23503843"><ele>29.000</ele></trkpt>
    <trkpt lat="-38.50843088" lon="145.23508655"><ele>30.000</ele></trkpt>
    <trkpt lat="-38.50837521" lon="145.23513938"><ele>31.000</ele></trkpt>
    <trkpt lat="-38.50832174" lon="145.23519114"><ele>32.000</ele></trkpt>
    <trkpt lat="-38.50827821" lon="145.23523382"><ele>33.000</ele></trkpt>
    <trkpt lat="-38.50824240" lon="145.23526442"><ele>33.000</ele></trkpt>
    <trkpt lat="-38.50821533" lon="145.23528799"><ele>33.000</ele></trkpt>
    <trkpt lat="-38.50818306" lon="145.23531630"><ele>34.000</ele></trkpt>
    <trkpt lat="-38.50814908" lon="145.23534080"><ele>34.000</ele></trkpt>
    <trkpt lat="-38.50811199" lon="145.23536985"><ele>34.000</ele></trkpt>
    <trkpt lat="-38.50807561" lon="145.23539520"><ele>34.000</ele></trkpt>
    <trkpt lat="-38.50804455" lon="145.23541516"><ele>34.000</ele></trkpt>
    <trkpt lat="-38.50800587" lon="145.23544066"><ele>34.000</ele></trkpt>
    <trkpt lat="-38.50797013" lon="145.23546119"><ele>34.000</ele></trkpt>
    <trkpt lat="-38.50792291" lon="145.23548890"><ele>34.000</ele></trkpt>
    <trkpt lat="-38.50787551" lon="145.23551844"><ele>34.000</ele></trkpt>
    <trkpt lat="-38.50782410" lon="145.23554575"><ele>34.000</ele></trkpt>
    <trkpt lat="-38.50777986" lon="145.23556723"><ele>34.000</ele></trkpt>
    <trkpt lat="-38.50773791" lon="145.23558783"><ele>34.000</ele></trkpt>
    <trkpt lat="-38.50770290" lon="145.23560368"><ele>33.000</ele></trkpt>
    <trkpt lat="-38.50767425" lon="145.23561657"><ele>33.000</ele></trkpt>
    <trkpt lat="-38.50764421" lon="145.23562750"><ele>33.000</ele></trkpt>
    <trkpt lat="-38.50761122" lon="145.23564315"><ele>32.000</ele></trkpt>
    <trkpt lat="-38.50758498" lon="145.23565329"><ele>32.000</ele></trkpt>
    <trkpt lat="-38.50755629" lon="145.23566128"><ele>32.000</ele></trkpt>
    <trkpt lat="-38.50752309" lon="145.23567214"><ele>32.000</ele></trkpt>
    <trkpt lat="-38.50748923" lon="145.23568266"><ele>32.000</ele></trkpt>
    <trkpt lat="-38.50746028" lon="145.23569021"><ele>32.000</ele></trkpt>
    <trkpt lat="-38.50742095" lon="145.23570038"><ele>32.000</ele></trkpt>
    <trkpt lat="-38.50738939" lon="145.23570833"><ele>32.000</ele></trkpt>
    <trkpt lat="-38.50735680" lon="145.23571195"><ele>32.000</ele></trkpt>
    <trkpt lat="-38.50732073" lon="145.23571984"><ele>32.000</ele></trkpt>
    <trkpt lat="-38.50728932" lon="145.23572488"><ele>32.000</ele></trkpt>
    <trkpt lat="-38.50725922" lon="145.23572892"><ele>32.000</ele></trkpt>
    <trkpt lat="-38.50721338" lon="145.23573530"><ele>32.000</ele></trkpt>
    <trkpt lat="-38.50716124" lon="145.23574119"><ele>32.000</ele></trkpt>
    <trkpt lat="-38.50710691" lon="145.23574508"><ele>32.000</ele></trkpt>
    <trkpt lat="-38.50707248" lon="145.23574513"><ele>32.000</ele></trkpt>
    <trkpt lat="-38.50704470" lon="145.23574683"><ele>33.000</ele></trkpt>
    <trkpt lat="-38.50701632" lon="145.23574585"><ele>33.000</ele></trkpt>
    <trkpt lat="-38.50698126" lon="145.23574687"><ele>33.000</ele></trkpt>
    <trkpt lat="-38.50695309" lon="145.23574589"><ele>33.000</ele></trkpt>
    <trkpt lat="-38.50692044" lon="145.23574590"><ele>33.000</ele></trkpt>
    <trkpt lat="-38.50688115" lon="145.23574244"><ele>33.000</ele></trkpt>
    <trkpt lat="-38.50683387" lon="145.23573966"><ele>33.000</ele></trkpt>
    <trkpt lat="-38.50679007" lon="145.23573523"><ele>33.000</ele></trkpt>
    <trkpt lat="-38.50673035" lon="145.23573061"><ele>33.000</ele></trkpt>
    <trkpt lat="-38.50667800" lon="145.23572227"><ele>33.000</ele></trkpt>
    <trkpt lat="-38.50663625" lon="145.23571246"><ele>33.000</ele></trkpt>
    <trkpt lat="-38.50653575" lon="145.23569812"><ele>33.000</ele></trkpt>
    <trkpt lat="-38.50635315" lon="145.23566021"><ele>34.000</ele></trkpt>
    <trkpt lat="-38.50622105" lon="145.23563030"><ele>34.000</ele></trkpt>
    <trkpt lat="-38.50613076" lon="145.23560589"><ele>35.000</ele></trkpt>
    <trkpt lat="-38.50600569" lon="145.23557606"><ele>35.000</ele></trkpt>
    <trkpt lat="-38.50583094" lon="145.23553108"><ele>36.000</ele></trkpt>
    <trkpt lat="-38.50562480" lon="145.23547377"><ele>37.000</ele></trkpt>
    <trkpt lat="-38.50534099" lon="145.23539340"><ele>37.000</ele></trkpt>
    <trkpt lat="-38.50515581" lon="145.23533769"><ele>38.000</ele></trkpt>
    <trkpt lat="-38.50501299" lon="145.23529544"><ele>38.000</ele></trkpt>
    <trkpt lat="-38.50497011" lon="145.23528336"><ele>38.000</ele></trkpt>
    <trkpt lat="-38.50493195" lon="145.23527266"><ele>38.000</ele></trkpt>
    <trkpt lat="-38.50490095" lon="145.23526373"><ele>38.000</ele></trkpt>
    <trkpt lat="-38.50487579" lon="145.23525864"><ele>39.000</ele></trkpt>
    <trkpt lat="-38.50485136" lon="145.23525491"><ele>39.000</ele></trkpt>
    <trkpt lat="-38.50482411" lon="145.23525176"><ele>39.000</ele></trkpt>
    <trkpt lat="-38.50480404" lon="145.23525034"><ele>39.000</ele></trkpt>
    <trkpt lat="-38.50477911" lon="145.23525117"><ele>39.000</ele></trkpt>
    <trkpt lat="-38.50475620" lon="145.23525132"><ele>39.000</ele></trkpt>
    <trkpt lat="-38.50472999" lon="145.23525642"><ele>39.000</ele></trkpt>
    <trkpt lat="-38.50470557" lon="145.23526311"><ele>39.000</ele></trkpt>
    <trkpt lat="-38.50468198" lon="145.23527230"><ele>39.000</ele></trkpt>
    <trkpt lat="-38.50466402" lon="145.23528035"><ele>39.000</ele></trkpt>
    <trkpt lat="-38.50464691" lon="145.23528960"><ele>39.000</ele></trkpt>
    <trkpt lat="-38.50462895" lon="145.23529966"><ele>39.000</ele></trkpt>
    <trkpt lat="-38.50460763" lon="145.23531048"><ele>39.000</ele></trkpt>
    <trkpt lat="-38.50458153" lon="145.23533210"><ele>39.000</ele></trkpt>
    <trkpt lat="-38.50456208" lon="145.23535495"><ele>39.000</ele></trkpt>
    <trkpt lat="-38.50454511" lon="145.23537567"><ele>39.000</ele></trkpt>
    <trkpt lat="-38.50452712" lon="145.23540285"><ele>39.000</ele></trkpt>
    <trkpt lat="-38.50451456" lon="145.23542635"><ele>39.000</ele></trkpt>
    <trkpt lat="-38.50450015" lon="145.23545579"><ele>39.000</ele></trkpt>
    <trkpt lat="-38.50449084" lon="145.23547953"><ele>39.000</ele></trkpt>
    <trkpt lat="-38.50448134" lon="145.23550859"><ele>39.000</ele></trkpt>
    <trkpt lat="-38.50447643" lon="145.23552882"><ele>39.000</ele></trkpt>
    <trkpt lat="-38.50447202" lon="145.23555597"><ele>39.000</ele></trkpt>
    <trkpt lat="-38.50446595" lon="145.23558687"><ele>39.000</ele></trkpt>
    <trkpt lat="-38.50446111" lon="145.23562540"><ele>39.000</ele></trkpt>
    <trkpt lat="-38.50446103" lon="145.23565273"><ele>39.000</ele></trkpt>
    <trkpt lat="-38.50446039" lon="145.23568706"><ele>39.000</ele></trkpt>
    <trkpt lat="-38.50446791" lon="145.23572270"><ele>39.000</ele></trkpt>
    <trkpt lat="-38.50447513" lon="145.23576292"><ele>39.000</ele></trkpt>
    <trkpt lat="-38.50448397" lon="145.23580038"><ele>39.000</ele></trkpt>
    <trkpt lat="-38.50450097" lon="145.23584390"><ele>39.000</ele></trkpt>
    <trkpt lat="-38.50451344" lon="145.23587181"><ele>39.000</ele></trkpt>
    <trkpt lat="-38.50452682" lon="145.23590148"><ele>39.000</ele></trkpt>
    <trkpt lat="-38.50453851" lon="145.23591863"><ele>39.000</ele></trkpt>
    <trkpt lat="-38.50454790" lon="145.23593197"><ele>38.000</ele></trkpt>
    <trkpt lat="-38.50456025" lon="145.23594831"><ele>38.000</ele></trkpt>
    <trkpt lat="-38.50457466" lon="145.23596435"><ele>38.000</ele></trkpt>
    <trkpt lat="-38.50462296" lon="145.23600895"><ele>38.000</ele></trkpt>
    <trkpt lat="-38.50466963" lon="145.23605187"><ele>38.000</ele></trkpt>
    <trkpt lat="-38.50471521" lon="145.23609225"><ele>37.000</ele></trkpt>
    <trkpt lat="-38.50478196" lon="145.23614606"><ele>37.000</ele></trkpt>
    <trkpt lat="-38.50483829" lon="145.23619587"><ele>36.000</ele></trkpt>
    <trkpt lat="-38.50490154" lon="145.23624724"><ele>36.000</ele></trkpt>
    <trkpt lat="-38.50498320" lon="145.23631794"><ele>35.000</ele></trkpt>
    <trkpt lat="-38.50502673" lon="145.23635296"><ele>35.000</ele></trkpt>
    <trkpt lat="-38.50507537" lon="145.23639259"><ele>35.000</ele></trkpt>
    <trkpt lat="-38.50510190" lon="145.23641668"><ele>35.000</ele></trkpt>
    <trkpt lat="-38.50512635" lon="145.23643910"><ele>35.000</ele></trkpt>
    <trkpt lat="-38.50515617" lon="145.23646377"><ele>35.000</ele></trkpt>
    <trkpt lat="-38.50517637" lon="145.23648231"><ele>35.000</ele></trkpt>
    <trkpt lat="-38.50520544" lon="145.23650048"><ele>35.000</ele></trkpt>
    <trkpt lat="-38.50524105" lon="145.23652760"><ele>35.000</ele></trkpt>
    <trkpt lat="-38.50527409" lon="145.23655186"><ele>35.000</ele></trkpt>
    <trkpt lat="-38.50531300" lon="145.23657740"><ele>35.000</ele></trkpt>
    <trkpt lat="-38.50535296" lon="145.23660468"><ele>35.000</ele></trkpt>
    <trkpt lat="-38.50538760" lon="145.23662417"><ele>34.000</ele></trkpt>
    <trkpt lat="-38.50541525" lon="145.23664197"><ele>34.000</ele></trkpt>
    <trkpt lat="-38.50545519" lon="145.23666533"><ele>34.000</ele></trkpt>
    <trkpt lat="-38.50549573" lon="145.23668384"><ele>34.000</ele></trkpt>
    <trkpt lat="-38.50583409" lon="145.23681812"><ele>32.000</ele></trkpt>
    <trkpt lat="-38.50595226" lon="145.23686295"><ele>32.000</ele></trkpt>
    <trkpt lat="-38.50600169" lon="145.23688457"><ele>32.000</ele></trkpt>
    <trkpt lat="-38.50603998" lon="145.23690300"><ele>32.000</ele></trkpt>
    <trkpt lat="-38.50606311" lon="145.23691485"><ele>32.000</ele></trkpt>
    <trkpt lat="-38.50608339" lon="145.23692705"><ele>32.000</ele></trkpt>
    <trkpt lat="-38.50610636" lon="145.23694346"><ele>32.000</ele></trkpt>
    <trkpt lat="-38.50612343" lon="145.23695716"><ele>32.000</ele></trkpt>
    <trkpt lat="-38.50614245" lon="145.23697455"><ele>32.000</ele></trkpt>
    <trkpt lat="-38.50617849" lon="145.23700491"><ele>32.000</ele></trkpt>
    <trkpt lat="-38.50620867" lon="145.23703577"><ele>33.000</ele></trkpt>
    <trkpt lat="-38.50623056" lon="145.23706123"><ele>33.000</ele></trkpt>
    <trkpt lat="-38.50624313" lon="145.23707809"><ele>33.000</ele></trkpt>
    <trkpt lat="-38.50625584" lon="145.23709744"><ele>33.000</ele></trkpt>
    <trkpt lat="-38.50627115" lon="145.23712149"><ele>33.000</ele></trkpt>
    <trkpt lat="-38.50628331" lon="145.23713876"><ele>33.000</ele></trkpt>
    <trkpt lat="-38.50630823" lon="145.23717929"><ele>34.000</ele></trkpt>
    <trkpt lat="-38.50632180" lon="145.23720684"><ele>34.000</ele></trkpt>
    <trkpt lat="-38.50633170" lon="145.23723077"><ele>34.000</ele></trkpt>
    <trkpt lat="-38.50634196" lon="145.23725242"><ele>34.000</ele></trkpt>
    <trkpt lat="-38.50635114" lon="145.23727703"><ele>34.000</ele></trkpt>
    <trkpt lat="-38.50635851" lon="145.23730335"><ele>34.000</ele></trkpt>
    <trkpt lat="-38.50636394" lon="145.23732727"><ele>34.000</ele></trkpt>
    <trkpt lat="-38.50637150" lon="145.23735730"><ele>34.000</ele></trkpt>
    <trkpt lat="-38.50637861" lon="145.23739269"><ele>35.000</ele></trkpt>
    <trkpt lat="-38.50638293" lon="145.23743592"><ele>35.000</ele></trkpt>
    <trkpt lat="-38.50638362" lon="145.23747027"><ele>35.000</ele></trkpt>
    <trkpt lat="-38.50638504" lon="145.23749636"><ele>35.000</ele></trkpt>
    <trkpt lat="-38.50638519" lon="145.23752392"><ele>35.000</ele></trkpt>
    <trkpt lat="-38.50638356" lon="145.23754735"><ele>35.000</ele></trkpt>
    <trkpt lat="-38.50638318" lon="145.23756866"><ele>35.000</ele></trkpt>
    <trkpt lat="-38.50638112" lon="145.23759347"><ele>35.000</ele></trkpt>
    <trkpt lat="-38.50637516" lon="145.23761992"><ele>35.000</ele></trkpt>
    <trkpt lat="-38.50637004" lon="145.23764790"><ele>35.000</ele></trkpt>
    <trkpt lat="-38.50636501" lon="145.23767541"><ele>34.000</ele></trkpt>
    <trkpt lat="-38.50635937" lon="145.23769717"><ele>34.000</ele></trkpt>
    <trkpt lat="-38.50635059" lon="145.23771922"><ele>34.000</ele></trkpt>
    <trkpt lat="-38.50634095" lon="145.23774104"><ele>34.000</ele></trkpt>
    <trkpt lat="-38.50633103" lon="145.23776481"><ele>34.000</ele></trkpt>
    <trkpt lat="-38.50632168" lon="145.23778597"><ele>34.000</ele></trkpt>
    <trkpt lat="-38.50631030" lon="145.23781091"><ele>34.000</ele></trkpt>
    <trkpt lat="-38.50629310" lon="145.23784434"><ele>35.000</ele></trkpt>
    <trkpt lat="-38.50627371" lon="145.23787131"><ele>35.000</ele></trkpt>
    <trkpt lat="-38.50625398" lon="145.23790061"><ele>35.000</ele></trkpt>
    <trkpt lat="-38.50623965" lon="145.23792314"><ele>35.000</ele></trkpt>
    <trkpt lat="-38.50622260" lon="145.23794193"><ele>35.000</ele></trkpt>
    <trkpt lat="-38.50620992" lon="145.23795395"><ele>35.000</ele></trkpt>
    <trkpt lat="-38.50619329" lon="145.23797230"><ele>35.000</ele></trkpt>
    <trkpt lat="-38.50617948" lon="145.23798573"><ele>36.000</ele></trkpt>
    <trkpt lat="-38.50616842" lon="145.23799642"><ele>36.000</ele></trkpt>
    <trkpt lat="-38.50615771" lon="145.23800466"><ele>36.000</ele></trkpt>
    <trkpt lat="-38.50614574" lon="145.23801449"><ele>36.000</ele></trkpt>
    <trkpt lat="-38.50613377" lon="145.23802488"><ele>36.000</ele></trkpt>
    <trkpt lat="-38.50612209" lon="145.23803247"><ele>36.000</ele></trkpt>
    <trkpt lat="-38.50610880" lon="145.23804140"><ele>36.000</ele></trkpt>
    <trkpt lat="-38.50609513" lon="145.23805072"><ele>36.000</ele></trkpt>
    <trkpt lat="-38.50607736" lon="145.23805934"><ele>36.000</ele></trkpt>
    <trkpt lat="-38.50606157" lon="145.23806756"><ele>36.000</ele></trkpt>
    <trkpt lat="-38.50604357" lon="145.23807499"><ele>36.000</ele></trkpt>
    <trkpt lat="-38.50601954" lon="145.23808271"><ele>36.000</ele></trkpt>
    <trkpt lat="-38.50599149" lon="145.23809130"><ele>36.000</ele></trkpt>
    <trkpt lat="-38.50596810" lon="145.23809664"><ele>36.000</ele></trkpt>
    <trkpt lat="-38.50590410" lon="145.23810807"><ele>36.000</ele></trkpt>
    <trkpt lat="-38.50585930" lon="145.23811333"><ele>36.000</ele></trkpt>
    <trkpt lat="-38.50576058" lon="145.23812533"><ele>36.000</ele></trkpt>
    <trkpt lat="-38.50559640" lon="145.23812977"><ele>37.000</ele></trkpt>
    <trkpt lat="-38.50541924" lon="145.23813375"><ele>37.000</ele></trkpt>
    <trkpt lat="-38.50510713" lon="145.23812957"><ele>38.000</ele></trkpt>
    <trkpt lat="-38.50478759" lon="145.23811907"><ele>40.000</ele></trkpt>
    <trkpt lat="-38.50457807" lon="145.23810737"><ele>41.000</ele></trkpt>
    <trkpt lat="-38.50453843" lon="145.23810331"><ele>41.000</ele></trkpt>
    <trkpt lat="-38.50437961" lon="145.23807150"><ele>41.000</ele></trkpt>
    <trkpt lat="-38.50433984" lon="145.23806261"><ele>41.000</ele></trkpt>
    <trkpt lat="-38.50431918" lon="145.23805700"><ele>41.000</ele></trkpt>
    <trkpt lat="-38.50430250" lon="145.23805241"><ele>41.000</ele></trkpt>
    <trkpt lat="-38.50428652" lon="145.23804673"><ele>41.000</ele></trkpt>
    <trkpt lat="-38.50426468" lon="145.23804027"><ele>41.000</ele></trkpt>
    <trkpt lat="-38.50423438" lon="145.23802961"><ele>41.000</ele></trkpt>
    <trkpt lat="-38.50420299" lon="145.23801723"><ele>41.000</ele></trkpt>
    <trkpt lat="-38.50417337" lon="145.23800458"><ele>41.000</ele></trkpt>
    <trkpt lat="-38.50414469" lon="145.23799296"><ele>41.000</ele></trkpt>
    <trkpt lat="-38.50411294" lon="145.23797936"><ele>41.000</ele></trkpt>
    <trkpt lat="-38.50408146" lon="145.23796283"><ele>41.000</ele></trkpt>
    <trkpt lat="-38.50404467" lon="145.23794429"><ele>41.000</ele></trkpt>
    <trkpt lat="-38.50397286" lon="145.23790288"><ele>41.000</ele></trkpt>
    <trkpt lat="-38.50392354" lon="145.23787468"><ele>41.000</ele></trkpt>
    <trkpt lat="-38.50362650" lon="145.23770140"><ele>41.000</ele></trkpt>
    <trkpt lat="-38.50330834" lon="145.23751306"><ele>43.000</ele></trkpt>
    <trkpt lat="-38.50317924" lon="145.23743647"><ele>43.000</ele></trkpt>
    <trkpt lat="-38.50313743" lon="145.23741088"><ele>43.000</ele></trkpt>
    <trkpt lat="-38.50310329" lon="145.23739091"><ele>43.000</ele></trkpt>
    <trkpt lat="-38.50307919" lon="145.23737768"><ele>43.000</ele></trkpt>
    <trkpt lat="-38.50306438" lon="145.23736987"><ele>43.000</ele></trkpt>
    <trkpt lat="-38.50304832" lon="145.23736202"><ele>44.000</ele></trkpt>
    <trkpt lat="-38.50303311" lon="145.23735445"><ele>44.000</ele></trkpt>
    <trkpt lat="-38.50301816" lon="145.23734747"><ele>44.000</ele></trkpt>
    <trkpt lat="-38.50300567" lon="145.23734054"><ele>44.000</ele></trkpt>
    <trkpt lat="-38.50299116" lon="145.23733261"><ele>44.000</ele></trkpt>
    <trkpt lat="-38.50297815" lon="145.23732554"><ele>44.000</ele></trkpt>
    <trkpt lat="-38.50296857" lon="145.23732085"><ele>44.000</ele></trkpt>
    <trkpt lat="-38.50295223" lon="145.23731150"><ele>44.000</ele></trkpt>
    <trkpt lat="-38.50294052" lon="145.23730556"><ele>44.000</ele></trkpt>
    <trkpt lat="-38.50292546" lon="145.23729877"><ele>44.000</ele></trkpt>
    <trkpt lat="-38.50290717" lon="145.23728959"><ele>44.000</ele></trkpt>
    <trkpt lat="-38.50289366" lon="145.23728275"><ele>44.000</ele></trkpt>
    <trkpt lat="-38.50286017" lon="145.23726778"><ele>44.000</ele></trkpt>
    <trkpt lat="-38.50283153" lon="145.23725597"><ele>44.000</ele></trkpt>
    <trkpt lat="-38.50280683" lon="145.23724504"><ele>44.000</ele></trkpt>
    <trkpt lat="-38.50277662" lon="145.23723426"><ele>44.000</ele></trkpt>
    <trkpt lat="-38.50274553" lon="145.23722192"><ele>44.000</ele></trkpt>
    <trkpt lat="-38.50271488" lon="145.23721196"><ele>44.000</ele></trkpt>
    <trkpt lat="-38.50268858" lon="145.23720450"><ele>44.000</ele></trkpt>
    <trkpt lat="-38.50266136" lon="145.23719691"><ele>44.000</ele></trkpt>
    <trkpt lat="-38.50263134" lon="145.23718882"><ele>44.000</ele></trkpt>
    <trkpt lat="-38.50259665" lon="145.23717880"><ele>44.000</ele></trkpt>
    <trkpt lat="-38.50256947" lon="145.23717193"><ele>44.000</ele></trkpt>
    <trkpt lat="-38.50254583" lon="145.23716841"><ele>44.000</ele></trkpt>
    <trkpt lat="-38.50252148" lon="145.23716409"><ele>44.000</ele></trkpt>
    <trkpt lat="-38.50249700" lon="145.23715981"><ele>44.000</ele></trkpt>
    <trkpt lat="-38.50247771" lon="145.23715672"><ele>44.000</ele></trkpt>
    <trkpt lat="-38.50245125" lon="145.23715123"><ele>44.000</ele></trkpt>
    <trkpt lat="-38.50242268" lon="145.23714875"><ele>44.000</ele></trkpt>
    <trkpt lat="-38.50240254" lon="145.23714721"><ele>44.000</ele></trkpt>
    <trkpt lat="-38.50237413" lon="145.23714478"><ele>44.000</ele></trkpt>
    <trkpt lat="-38.50234569" lon="145.23714347"><ele>44.000</ele></trkpt>
    <trkpt lat="-38.50231968" lon="145.23714043"><ele>44.000</ele></trkpt>
    <trkpt lat="-38.50229060" lon="145.23714351"><ele>44.000</ele></trkpt>
    <trkpt lat="-38.50225624" lon="145.23714262"><ele>44.000</ele></trkpt>
    <trkpt lat="-38.50222494" lon="145.23714508"><ele>44.000</ele></trkpt>
    <trkpt lat="-38.50219215" lon="145.23714710"><ele>44.000</ele></trkpt>
    <trkpt lat="-38.50215357" lon="145.23715267"><ele>44.000</ele></trkpt>
    <trkpt lat="-38.50212043" lon="145.23715947"><ele>44.000</ele></trkpt>
    <trkpt lat="-38.50208847" lon="145.23716641"><ele>44.000</ele></trkpt>
    <trkpt lat="-38.50205719" lon="145.23717095"><ele>43.000</ele></trkpt>
    <trkpt lat="-38.50203034" lon="145.23717652"><ele>43.000</ele></trkpt>
    <trkpt lat="-38.50200191" lon="145.23718259"><ele>43.000</ele></trkpt>
    <trkpt lat="-38.50196707" lon="145.23719335"><ele>43.000</ele></trkpt>
    <trkpt lat="-38.50192561" lon="145.23720391"><ele>43.000</ele></trkpt>
    <trkpt lat="-38.50186869" lon="145.23722282"><ele>43.000</ele></trkpt>
    <trkpt lat="-38.50166922" lon="145.23730772"><ele>43.000</ele></trkpt>
    <trkpt lat="-38.50143997" lon="145.23743284"><ele>45.000</ele></trkpt>
    <trkpt lat="-38.50114832" lon="145.23759886"><ele>46.000</ele></trkpt>
    <trkpt lat="-38.50104525" lon="145.23765694"><ele>46.000</ele></trkpt>
    <trkpt lat="-38.50097434" lon="145.23769398"><ele>46.000</ele></trkpt>
    <trkpt lat="-38.50092911" lon="145.23771945"><ele>46.000</ele></trkpt>
    <trkpt lat="-38.50088525" lon="145.23774446"><ele>46.000</ele></trkpt>
    <trkpt lat="-38.50084775" lon="145.23776072"><ele>46.000</ele></trkpt>
    <trkpt lat="-38.50079990" lon="145.23778835"><ele>46.000</ele></trkpt>
    <trkpt lat="-38.50076663" lon="145.23780632"><ele>46.000</ele></trkpt>
    <trkpt lat="-38.50073890" lon="145.23782074"><ele>46.000</ele></trkpt>
    <trkpt lat="-38.50068923" lon="145.23784494"><ele>47.000</ele></trkpt>
    <trkpt lat="-38.50064063" lon="145.23787032"><ele>47.000</ele></trkpt>
    <trkpt lat="-38.50060335" lon="145.23788833"><ele>47.000</ele></trkpt>
    <trkpt lat="-38.50056620" lon="145.23790498"><ele>47.000</ele></trkpt>
    <trkpt lat="-38.50052744" lon="145.23792099"><ele>47.000</ele></trkpt>
    <trkpt lat="-38.50048347" lon="145.23793545"><ele>47.000</ele></trkpt>
    <trkpt lat="-38.50042185" lon="145.23795564"><ele>47.000</ele></trkpt>
    <trkpt lat="-38.50036724" lon="145.23797142"><ele>48.000</ele></trkpt>
    <trkpt lat="-38.50027346" lon="145.23799176"><ele>48.000</ele></trkpt>
    <trkpt lat="-38.50019717" lon="145.23800832"><ele>49.000</ele></trkpt>
    <trkpt lat="-38.50009167" lon="145.23802383"><ele>49.000</ele></trkpt>
    <trkpt lat="-38.50000855" lon="145.23803104"><ele>50.000</ele></trkpt>
    <trkpt lat="-38.49993485" lon="145.23803101"><ele>50.000</ele></trkpt>
    <trkpt lat="-38.49988479" lon="145.23802502"><ele>50.000</ele></trkpt>
    <trkpt lat="-38.49984190" lon="145.23801948"><ele>50.000</ele></trkpt>
    <trkpt lat="-38.49981702" lon="145.23801539"><ele>50.000</ele></trkpt>
    <trkpt lat="-38.49979394" lon="145.23800995"><ele>50.000</ele></trkpt>
    <trkpt lat="-38.49975782" lon="145.23800239"><ele>51.000</ele></trkpt>
    <trkpt lat="-38.49972808" lon="145.23799252"><ele>51.000</ele></trkpt>
    <trkpt lat="-38.49968415" lon="145.23797783"><ele>51.000</ele></trkpt>
    <trkpt lat="-38.49964111" lon="145.23796004"><ele>51.000</ele></trkpt>
    <trkpt lat="-38.49960224" lon="145.23794337"><ele>51.000</ele></trkpt>
    <trkpt lat="-38.49956655" lon="145.23792474"><ele>51.000</ele></trkpt>
    <trkpt lat="-38.49951853" lon="145.23789467"><ele>51.000</ele></trkpt>
    <trkpt lat="-38.49947712" lon="145.23786663"><ele>51.000</ele></trkpt>
    <trkpt lat="-38.49941595" lon="145.23782135"><ele>51.000</ele></trkpt>
    <trkpt lat="-38.49937228" lon="145.23778585"><ele>52.000</ele></trkpt>
    <trkpt lat="-38.49932481" lon="145.23774477"><ele>53.000</ele></trkpt>
    <trkpt lat="-38.49928052" lon="145.23769681"><ele>53.000</ele></trkpt>
    <trkpt lat="-38.49923699" lon="145.23764721"><ele>54.000</ele></trkpt>
    <trkpt lat="-38.49920532" lon="145.23760248"><ele>55.000</ele></trkpt>
    <trkpt lat="-38.49916570" lon="145.23753924"><ele>55.000</ele></trkpt>
    <trkpt lat="-38.49912272" lon="145.23746778"><ele>55.000</ele></trkpt>
    <trkpt lat="-38.49908755" lon="145.23739674"><ele>55.000</ele></trkpt>
    <trkpt lat="-38.49905729" lon="145.23733580"><ele>55.000</ele></trkpt>
    <trkpt lat="-38.49902899" lon="145.23726796"><ele>55.000</ele></trkpt>
    <trkpt lat="-38.49901172" lon="145.23722562"><ele>55.000</ele></trkpt>
    <trkpt lat="-38.49899493" lon="145.23716990"><ele>55.000</ele></trkpt>
    <trkpt lat="-38.49898216" lon="145.23711586"><ele>55.000</ele></trkpt>
    <trkpt lat="-38.49896503" lon="145.23703978"><ele>55.000</ele></trkpt>
    <trkpt lat="-38.49895477" lon="145.23699175"><ele>55.000</ele></trkpt>
    <trkpt lat="-38.49894350" lon="145.23690569"><ele>55.000</ele></trkpt>
    <trkpt lat="-38.49893141" lon="145.23681961"><ele>55.000</ele></trkpt>
    <trkpt lat="-38.49892771" lon="145.23674445"><ele>56.000</ele></trkpt>
    <trkpt lat="-38.49892265" lon="145.23669628"><ele>56.000</ele></trkpt>
    <trkpt lat="-38.49892197" lon="145.23665858"><ele>56.000</ele></trkpt>
    <trkpt lat="-38.49892298" lon="145.23660037"><ele>56.000</ele></trkpt>
    <trkpt lat="-38.49892707" lon="145.23645153"><ele>57.000</ele></trkpt>
    <trkpt lat="-38.49893576" lon="145.23629613"><ele>57.000</ele></trkpt>
    <trkpt lat="-38.49894535" lon="145.23621673"><ele>57.000</ele></trkpt>
    <trkpt lat="-38.49895911" lon="145.23610515"><ele>57.000</ele></trkpt>
    <trkpt lat="-38.49896727" lon="145.23603062"><ele>56.000</ele></trkpt>
    <trkpt lat="-38.49898809" lon="145.23592020"><ele>56.000</ele></trkpt>
    <trkpt lat="-38.49900920" lon="145.23579492"><ele>55.000</ele></trkpt>
    <trkpt lat="-38.49904060" lon="145.23564129"><ele>55.000</ele></trkpt>
    <trkpt lat="-38.49906258" lon="145.23553577"><ele>55.000</ele></trkpt>
    <trkpt lat="-38.49910503" lon="145.23535064"><ele>54.000</ele></trkpt>
    <trkpt lat="-38.49914841" lon="145.23515583"><ele>52.000</ele></trkpt>
    <trkpt lat="-38.49916073" lon="145.23508808"><ele>51.000</ele></trkpt>
    <trkpt lat="-38.49916784" lon="145.23504058"><ele>50.000</ele></trkpt>
    <trkpt lat="-38.49916853" lon="145.23501356"><ele>50.000</ele></trkpt>
    <trkpt lat="-38.49917164" lon="145.23497878"><ele>50.000</ele></trkpt>
    <trkpt lat="-38.49917189" lon="145.23494938"><ele>50.000</ele></trkpt>
    <trkpt lat="-38.49917135" lon="145.23492749"><ele>49.000</ele></trkpt>
    <trkpt lat="-38.49917116" lon="145.23490769"><ele>49.000</ele></trkpt>
    <trkpt lat="-38.49917111" lon="145.23488254"><ele>49.000</ele></trkpt>
    <trkpt lat="-38.49916695" lon="145.23485602"><ele>49.000</ele></trkpt>
    <trkpt lat="-38.49916164" lon="145.23483006"><ele>49.000</ele></trkpt>
    <trkpt lat="-38.49915574" lon="145.23480622"><ele>49.000</ele></trkpt>
    <trkpt lat="-38.49914765" lon="145.23477896"><ele>48.000</ele></trkpt>
    <trkpt lat="-38.49913669" lon="145.23475168"><ele>48.000</ele></trkpt>
    <trkpt lat="-38.49912365" lon="145.23472998"><ele>48.000</ele></trkpt>
    <trkpt lat="-38.49911004" lon="145.23470470"><ele>48.000</ele></trkpt>
    <trkpt lat="-38.49909991" lon="145.23468985"><ele>48.000</ele></trkpt>
    <trkpt lat="-38.49908687" lon="145.23466996"><ele>48.000</ele></trkpt>
    <trkpt lat="-38.49906896" lon="145.23465144"><ele>48.000</ele></trkpt>
    <trkpt lat="-38.49905331" lon="145.23463477"><ele>48.000</ele></trkpt>
    <trkpt lat="-38.49903717" lon="145.23462075"><ele>48.000</ele></trkpt>
    <trkpt lat="-38.49900893" lon="145.23460232"><ele>48.000</ele></trkpt>
    <trkpt lat="-38.49898372" lon="145.23458985"><ele>48.000</ele></trkpt>
    <trkpt lat="-38.49896202" lon="145.23458050"><ele>48.000</ele></trkpt>
    <trkpt lat="-38.49893786" lon="145.23457064"><ele>48.000</ele></trkpt>
    <trkpt lat="-38.49891047" lon="145.23456447"><ele>48.000</ele></trkpt>
    <trkpt lat="-38.49888254" lon="145.23456551"><ele>48.000</ele></trkpt>
    <trkpt lat="-38.49885137" lon="145.23457178"><ele>49.000</ele></trkpt>
    <trkpt lat="-38.49882209" lon="145.23457872"><ele>49.000</ele></trkpt>
    <trkpt lat="-38.49879929" lon="145.23458809"><ele>49.000</ele></trkpt>
    <trkpt lat="-38.49877258" lon="145.23460390"><ele>50.000</ele></trkpt>
    <trkpt lat="-38.49873983" lon="145.23462096"><ele>50.000</ele></trkpt>
    <trkpt lat="-38.49859971" lon="145.23471031"><ele>51.000</ele></trkpt>
    <trkpt lat="-38.49843698" lon="145.23484433"><ele>53.000</ele></trkpt>
    <trkpt lat="-38.49839121" lon="145.23487424"><ele>53.000</ele></trkpt>
    <trkpt lat="-38.49834405" lon="145.23490827"><ele>54.000</ele></trkpt>
    <trkpt lat="-38.49831236" lon="145.23492707"><ele>54.000</ele></trkpt>
    <trkpt lat="-38.49827738" lon="145.23494409"><ele>55.000</ele></trkpt>
    <trkpt lat="-38.49824272" lon="145.23496314"><ele>55.000</ele></trkpt>
    <trkpt lat="-38.49820904" lon="145.23497944"><ele>55.000</ele></trkpt>
    <trkpt lat="-38.49817288" lon="145.23499153"><ele>56.000</ele></trkpt>
    <trkpt lat="-38.49813154" lon="145.23500127"><ele>56.000</ele></trkpt>
    <trkpt lat="-38.49807983" lon="145.23500764"><ele>57.000</ele></trkpt>
    <trkpt lat="-38.49805165" lon="145.23500684"><ele>57.000</ele></trkpt>
    <trkpt lat="-38.49801845" lon="145.23500584"><ele>57.000</ele></trkpt>
    <trkpt lat="-38.49796970" lon="145.23499976"><ele>57.000</ele></trkpt>
    <trkpt lat="-38.49791734" lon="145.23499431"><ele>56.000</ele></trkpt>
    <trkpt lat="-38.49787215" lon="145.23498063"><ele>56.000</ele></trkpt>
    <trkpt lat="-38.49782339" lon="145.23496401"><ele>56.000</ele></trkpt>
    <trkpt lat="-38.49777933" lon="145.23494553"><ele>56.000</ele></trkpt>
    <trkpt lat="-38.49773734" lon="145.23492391"><ele>56.000</ele></trkpt>
    <trkpt lat="-38.49770289" lon="145.23490451"><ele>55.000</ele></trkpt>
    <trkpt lat="-38.49766288" lon="145.23487279"><ele>55.000</ele></trkpt>
    <trkpt lat="-38.49763518" lon="145.23484577"><ele>55.000</ele></trkpt>
    <trkpt lat="-38.49760203" lon="145.23481201"><ele>55.000</ele></trkpt>
    <trkpt lat="-38.49757058" lon="145.23478134"><ele>55.000</ele></trkpt>
    <trkpt lat="-38.49754215" lon="145.23474690"><ele>55.000</ele></trkpt>
    <trkpt lat="-38.49751751" lon="145.23471677"><ele>55.000</ele></trkpt>
    <trkpt lat="-38.49748573" lon="145.23467048"><ele>55.000</ele></trkpt>
    <trkpt lat="-38.49745081" lon="145.23461158"><ele>55.000</ele></trkpt>
    <trkpt lat="-38.49742880" lon="145.23456777"><ele>55.000</ele></trkpt>
    <trkpt lat="-38.49740643" lon="145.23451976"><ele>55.000</ele></trkpt>
    <trkpt lat="-38.49739309" lon="145.23448287"><ele>54.000</ele></trkpt>
    <trkpt lat="-38.49738108" lon="145.23445245"><ele>54.000</ele></trkpt>
    <trkpt lat="-38.49736473" lon="145.23441123"><ele>54.000</ele></trkpt>
    <trkpt lat="-38.49734933" lon="145.23436444"><ele>55.000</ele></trkpt>
    <trkpt lat="-38.49734124" lon="145.23432836"><ele>55.000</ele></trkpt>
    <trkpt lat="-38.49732635" lon="145.23426742"><ele>55.000</ele></trkpt>
    <trkpt lat="-38.49731158" lon="145.23420529"><ele>55.000</ele></trkpt>
    <trkpt lat="-38.49730284" lon="145.23415368"><ele>55.000</ele></trkpt>
    <trkpt lat="-38.49729748" lon="145.23410852"><ele>55.000</ele></trkpt>
    <trkpt lat="-38.49728708" lon="145.23403729"><ele>55.000</ele></trkpt>
    <trkpt lat="-38.49727865" lon="145.23392226"><ele>55.000</ele></trkpt>
    <trkpt lat="-38.49726333" lon="145.23351443"><ele>55.000</ele></trkpt>
    <trkpt lat="-38.49726228" lon="145.23338373"><ele>55.000</ele></trkpt>
    <trkpt lat="-38.49726467" lon="145.23329919"><ele>55.000</ele></trkpt>
    <trkpt lat="-38.49728788" lon="145.23262770"><ele>56.000</ele></trkpt>
    <trkpt lat="-38.49729685" lon="145.23254478"><ele>56.000</ele></trkpt>
    <trkpt lat="-38.49730597" lon="145.23242282"><ele>56.000</ele></trkpt>
    <trkpt lat="-38.49731727" lon="145.23234577"><ele>56.000</ele></trkpt>
    <trkpt lat="-38.49733214" lon="145.23224650"><ele>55.000</ele></trkpt>
    <trkpt lat="-38.49734482" lon="145.23216639"><ele>55.000</ele></trkpt>
    <trkpt lat="-38.49735770" lon="145.23209526"><ele>55.000</ele></trkpt>
    <trkpt lat="-38.49737641" lon="145.23200883"><ele>54.000</ele></trkpt>
    <trkpt lat="-38.49739380" lon="145.23193435"><ele>54.000</ele></trkpt>
    <trkpt lat="-38.49741532" lon="145.23186000"><ele>54.000</ele></trkpt>
    <trkpt lat="-38.49745001" lon="145.23176021"><ele>53.000</ele></trkpt>
    <trkpt lat="-38.49747388" lon="145.23169538"><ele>53.000</ele></trkpt>
    <trkpt lat="-38.49750609" lon="145.23162333"><ele>53.000</ele></trkpt>
    <trkpt lat="-38.49752973" lon="145.23156355"><ele>53.000</ele></trkpt>
    <trkpt lat="-38.49756348" lon="145.23149395"><ele>53.000</ele></trkpt>
    <trkpt lat="-38.49760101" lon="145.23142249"><ele>53.000</ele></trkpt>
    <trkpt lat="-38.49763914" lon="145.23134887"><ele>53.000</ele></trkpt>
    <trkpt lat="-38.49766880" lon="145.23129905"><ele>53.000</ele></trkpt>
    <trkpt lat="-38.49770109" lon="145.23126036"><ele>52.000</ele></trkpt>
    <trkpt lat="-38.49773698" lon="145.23121092"><ele>52.000</ele></trkpt>
    <trkpt lat="-38.49779353" lon="145.23114312"><ele>52.000</ele></trkpt>
    <trkpt lat="-38.49782874" lon="145.23110580"><ele>52.000</ele></trkpt>
    <trkpt lat="-38.49785828" lon="145.23107642"><ele>52.000</ele></trkpt>
    <trkpt lat="-38.49788822" lon="145.23104694"><ele>52.000</ele></trkpt>
    <trkpt lat="-38.49791979" lon="145.23101749"><ele>52.000</ele></trkpt>
    <trkpt lat="-38.49796655" lon="145.23098433"><ele>52.000</ele></trkpt>
    <trkpt lat="-38.49800513" lon="145.23095718"><ele>52.000</ele></trkpt>
    <trkpt lat="-38.49804647" lon="145.23093188"><ele>52.000</ele></trkpt>
    <trkpt lat="-38.49808605" lon="145.23090521"><ele>52.000</ele></trkpt>
    <trkpt lat="-38.49813659" lon="145.23087331"><ele>52.000</ele></trkpt>
    <trkpt lat="-38.49816918" lon="145.23085801"><ele>52.000</ele></trkpt>
    <trkpt lat="-38.49820343" lon="145.23083582"><ele>52.000</ele></trkpt>
    <trkpt lat="-38.49824747" lon="145.23081864"><ele>52.000</ele></trkpt>
    <trkpt lat="-38.49828486" lon="145.23080229"><ele>52.000</ele></trkpt>
    <trkpt lat="-38.49833698" lon="145.23078068"><ele>52.000</ele></trkpt>
    <trkpt lat="-38.49837948" lon="145.23076957"><ele>52.000</ele></trkpt>
    <trkpt lat="-38.49841558" lon="145.23076178"><ele>52.000</ele></trkpt>
    <trkpt lat="-38.49845617" lon="145.23075160"><ele>52.000</ele></trkpt>
    <trkpt lat="-38.49849980" lon="145.23074717"><ele>52.000</ele></trkpt>
    <trkpt lat="-38.49856735" lon="145.23073873"><ele>52.000</ele></trkpt>
    <trkpt lat="-38.49861527" lon="145.23073541"><ele>52.000</ele></trkpt>
    <trkpt lat="-38.49866510" lon="145.23073074"><ele>52.000</ele></trkpt>
    <trkpt lat="-38.49870922" lon="145.23072976"><ele>52.000</ele></trkpt>
    <trkpt lat="-38.49880296" lon="145.23073432"><ele>53.000</ele></trkpt>
    <trkpt lat="-38.49884461" lon="145.23073611"><ele>53.000</ele></trkpt>
    <trkpt lat="-38.49891949" lon="145.23073922"><ele>53.000</ele></trkpt>
    <trkpt lat="-38.49899855" lon="145.23075043"><ele>53.000</ele></trkpt>
    <trkpt lat="-38.49905570" lon="145.23075774"><ele>53.000</ele></trkpt>
    <trkpt lat="-38.49914744" lon="145.23077829"><ele>53.000</ele></trkpt>
    <trkpt lat="-38.49920795" lon="145.23079179"><ele>53.000</ele></trkpt>
    <trkpt lat="-38.49929487" lon="145.23081613"><ele>54.000</ele></trkpt>
    <trkpt lat="-38.49934284" lon="145.23082843"><ele>54.000</ele></trkpt>
    <trkpt lat="-38.49940964" lon="145.23084910"><ele>54.000</ele></trkpt>
    <trkpt lat="-38.49949525" lon="145.23087270"><ele>54.000</ele></trkpt>
    <trkpt lat="-38.49958550" lon="145.23091115"><ele>53.000</ele></trkpt>
    <trkpt lat="-38.49992665" lon="145.23105343"><ele>51.000</ele></trkpt>
    <trkpt lat="-38.50036416" lon="145.23124621"><ele>50.000</ele></trkpt>
    <trkpt lat="-38.50113893" lon="145.23158652"><ele>48.000</ele></trkpt>
    <trkpt lat="-38.50198608" lon="145.23194918"><ele>49.000</ele></trkpt>
    <trkpt lat="-38.50243520" lon="145.23214239"><ele>46.000</ele></trkpt>
    <trkpt lat="-38.50252491" lon="145.23217736"><ele>46.000</ele></trkpt>
    <trkpt lat="-38.50255656" lon="145.23205039"><ele>46.000</ele></trkpt>
    <trkpt lat="-38.50261177" lon="145.23207380"><ele>46.000</ele></trkpt>
    <trkpt lat="-38.50268865" lon="145.23210465"><ele>46.000</ele></trkpt>
    <trkpt lat="-38.50272701" lon="145.23212182"><ele>45.000</ele></trkpt>
    <trkpt lat="-38.50278863" lon="145.23214894"><ele>45.000</ele></trkpt>
    <trkpt lat="-38.50295245" lon="145.23222162"><ele>46.000</ele></trkpt>
    <trkpt lat="-38.50301571" lon="145.23225048"><ele>46.000</ele></trkpt>
    <trkpt lat="-38.50312215" lon="145.23229497"><ele>46.000</ele></trkpt>
    <trkpt lat="-38.50324799" lon="145.23235120"><ele>46.000</ele></trkpt>
    <trkpt lat="-38.50354009" lon="145.23247941"><ele>45.000</ele></trkpt>
    <trkpt lat="-38.50396260" lon="145.23266089"><ele>45.000</ele></trkpt>
    <trkpt lat="-38.50420986" lon="145.23276872"><ele>45.000</ele></trkpt>
    <trkpt lat="-38.50430799" lon="145.23281101"><ele>45.000</ele></trkpt>
    <trkpt lat="-38.50460573" lon="145.23294310"><ele>45.000</ele></trkpt>
    <trkpt lat="-38.50486069" lon="145.23305327"><ele>44.000</ele></trkpt>
    <trkpt lat="-38.50504662" lon="145.23313232"><ele>43.000</ele></trkpt>
    <trkpt lat="-38.50524694" lon="145.23321773"><ele>42.000</ele></trkpt>
    <trkpt lat="-38.50545167" lon="145.23330467"><ele>42.000</ele></trkpt>
    <trkpt lat="-38.50571727" lon="145.23342154"><ele>41.000</ele></trkpt>
    <trkpt lat="-38.50586987" lon="145.23349026"><ele>41.000</ele></trkpt>
    <trkpt lat="-38.50612507" lon="145.23361039"><ele>39.000</ele></trkpt>
    <trkpt lat="-38.50633651" lon="145.23370716"><ele>38.000</ele></trkpt>
    <trkpt lat="-38.50648637" lon="145.23376168"><ele>37.000</ele></trkpt>
    <trkpt lat="-38.50659684" lon="145.23379772"><ele>36.000</ele></trkpt>
    <trkpt lat="-38.50668290" lon="145.23382064"><ele>36.000</ele></trkpt>
    <trkpt lat="-38.50675229" lon="145.23383515"><ele>36.000</ele></trkpt>
    <trkpt lat="-38.50680778" lon="145.23384802"><ele>36.000</ele></trkpt>
    <trkpt lat="-38.50686495" lon="145.23385766"><ele>35.000</ele></trkpt>
    <trkpt lat="-38.50691071" lon="145.23386155"><ele>35.000</ele></trkpt>
    <trkpt lat="-38.50695571" lon="145.23386571"><ele>35.000</ele></trkpt>
    <trkpt lat="-38.50702978" lon="145.23386889"><ele>35.000</ele></trkpt>
    <trkpt lat="-38.50706144" lon="145.23386913"><ele>35.000</ele></trkpt>
    <trkpt lat="-38.50709145" lon="145.23386903"><ele>36.000</ele></trkpt>
    <trkpt lat="-38.50711955" lon="145.23386607"><ele>36.000</ele></trkpt>
    <trkpt lat="-38.50718278" lon="145.23386174"><ele>36.000</ele></trkpt>
    <trkpt lat="-38.50723151" lon="145.23385752"><ele>36.000</ele></trkpt>
    <trkpt lat="-38.50730332" lon="145.23383952"><ele>36.000</ele></trkpt>
    <trkpt lat="-38.50738565" lon="145.23381947"><ele>36.000</ele></trkpt>
    <trkpt lat="-38.50742286" lon="145.23380873"><ele>36.000</ele></trkpt>
    <trkpt lat="-38.50745744" lon="145.23379846"><ele>36.000</ele></trkpt>
    <trkpt lat="-38.50751648" lon="145.23377191"><ele>36.000</ele></trkpt>
    <trkpt lat="-38.50755425" lon="145.23375751"><ele>36.000</ele></trkpt>
    <trkpt lat="-38.50761369" lon="145.23372947"><ele>36.000</ele></trkpt>
    <trkpt lat="-38.50767069" lon="145.23369680"><ele>36.000</ele></trkpt>
    <trkpt lat="-38.50774870" lon="145.23364861"><ele>36.000</ele></trkpt>
    <trkpt lat="-38.50778377" lon="145.23362577"><ele>36.000</ele></trkpt>
    <trkpt lat="-38.50783118" lon="145.23359137"><ele>36.000</ele></trkpt>
    <trkpt lat="-38.50788391" lon="145.23355103"><ele>36.000</ele></trkpt>
    <trkpt lat="-38.50795227" lon="145.23348979"><ele>36.000</ele></trkpt>
    <trkpt lat="-38.50801952" lon="145.23342225"><ele>37.000</ele></trkpt>
    <trkpt lat="-38.50807731" lon="145.23335604"><ele>37.000</ele></trkpt>
    <trkpt lat="-38.50812833" lon="145.23327814"><ele>37.000</ele></trkpt>
    <trkpt lat="-38.50812876" lon="145.23327677"><ele>37.000</ele></trkpt>
    <trkpt lat="-38.50820724" lon="145.23315370"><ele>37.000</ele></trkpt>
    <trkpt lat="-38.50826961" lon="145.23304960"><ele>37.000</ele></trkpt>
    <trkpt lat="-38.50831986" lon="145.23296798"><ele>37.000</ele></trkpt>
    <trkpt lat="-38.50835890" lon="145.23290056"><ele>38.000</ele></trkpt>
    <trkpt lat="-38.50843191" lon="145.23275694"><ele>38.000</ele></trkpt>
    <trkpt lat="-38.50866210" lon="145.23225833"><ele>38.000</ele></trkpt>
    <trkpt lat="-38.50881789" lon="145.23190844"><ele>39.000</ele></trkpt>
    <trkpt lat="-38.50891355" lon="145.23172500"><ele>40.000</ele></trkpt>
    <trkpt lat="-38.50895583" lon="145.23164795"><ele>40.000</ele></trkpt>
    <trkpt lat="-38.50902242" lon="145.23154033"><ele>40.000</ele></trkpt>
    <trkpt lat="-38.50905472" lon="145.23149183"><ele>40.000</ele></trkpt>
    <trkpt lat="-38.50907314" lon="145.23146672"><ele>40.000</ele></trkpt>
    <trkpt lat="-38.50908685" lon="145.23144347"><ele>40.000</ele></trkpt>
    <trkpt lat="-38.50910708" lon="145.23141644"><ele>40.000</ele></trkpt>
    <trkpt lat="-38.50914528" lon="145.23136970"><ele>40.000</ele></trkpt>
    <trkpt lat="-38.50917688" lon="145.23132913"><ele>40.000</ele></trkpt>
    <trkpt lat="-38.50921823" lon="145.23128521"><ele>40.000</ele></trkpt>
    <trkpt lat="-38.50925463" lon="145.23124898"><ele>39.000</ele></trkpt>
    <trkpt lat="-38.50929554" lon="145.23121232"><ele>39.000</ele></trkpt>
    <trkpt lat="-38.50932351" lon="145.23118715"><ele>39.000</ele></trkpt>
    <trkpt lat="-38.50937609" lon="145.23114475"><ele>39.000</ele></trkpt>
    <trkpt lat="-38.50942179" lon="145.23111199"><ele>39.000</ele></trkpt>
    <trkpt lat="-38.50945230" lon="145.23109204"><ele>39.000</ele></trkpt>
    <trkpt lat="-38.50948193" lon="145.23107416"><ele>39.000</ele></trkpt>
    <trkpt lat="-38.50950809" lon="145.23106054"><ele>39.000</ele></trkpt>
    <trkpt lat="-38.50954710" lon="145.23104525"><ele>39.000</ele></trkpt>
    <trkpt lat="-38.50958246" lon="145.23103388"><ele>39.000</ele></trkpt>
    <trkpt lat="-38.50961483" lon="145.23102311"><ele>40.000</ele></trkpt>
    <trkpt lat="-38.50965160" lon="145.23101582"><ele>40.000</ele></trkpt>
    <trkpt lat="-38.50968305" lon="145.23100987"><ele>40.000</ele></trkpt>
    <trkpt lat="-38.50972857" lon="145.23100238"><ele>40.000</ele></trkpt>
    <trkpt lat="-38.50975778" lon="145.23099944"><ele>40.000</ele></trkpt>
    <trkpt lat="-38.50979672" lon="145.23099823"><ele>40.000</ele></trkpt>
    <trkpt lat="-38.50983282" lon="145.23099940"><ele>40.000</ele></trkpt>
    <trkpt lat="-38.50987327" lon="145.23100282"><ele>41.000</ele></trkpt>
    <trkpt lat="-38.50992006" lon="145.23101039"><ele>41.000</ele></trkpt>
    <trkpt lat="-38.50995199" lon="145.23101662"><ele>41.000</ele></trkpt>
    <trkpt lat="-38.50999402" lon="145.23102733"><ele>41.000</ele></trkpt>
    <trkpt lat="-38.51002381" lon="145.23103707"><ele>41.000</ele></trkpt>
    <trkpt lat="-38.51006512" lon="145.23105068"><ele>41.000</ele></trkpt>
    <trkpt lat="-38.51009886" lon="145.23106633"><ele>41.000</ele></trkpt>
    <trkpt lat="-38.51012733" lon="145.23107969"><ele>41.000</ele></trkpt>
    <trkpt lat="-38.51015848" lon="145.23109772"><ele>42.000</ele></trkpt>
    <trkpt lat="-38.51018487" lon="145.23111376"><ele>42.000</ele></trkpt>
    <trkpt lat="-38.51021787" lon="145.23113191"><ele>42.000</ele></trkpt>
    <trkpt lat="-38.51025200" lon="145.23115909"><ele>42.000</ele></trkpt>
    <trkpt lat="-38.51028063" lon="145.23118288"><ele>42.000</ele></trkpt>
    <trkpt lat="-38.51029702" lon="145.23119576"><ele>42.000</ele></trkpt>
    <trkpt lat="-38.51033639" lon="145.23123273"><ele>42.000</ele></trkpt>
    <trkpt lat="-38.51037327" lon="145.23127369"><ele>42.000</ele></trkpt>
    <trkpt lat="-38.51040570" lon="145.23130894"><ele>42.000</ele></trkpt>
    <trkpt lat="-38.51042674" lon="145.23133595"><ele>43.000</ele></trkpt>
    <trkpt lat="-38.51046520" lon="145.23138642"><ele>43.000</ele></trkpt>
    <trkpt lat="-38.51049454" lon="145.23143045"><ele>43.000</ele></trkpt>
    <trkpt lat="-38.51051763" lon="145.23146758"><ele>43.000</ele></trkpt>
    <trkpt lat="-38.51054051" lon="145.23150973"><ele>43.000</ele></trkpt>
    <trkpt lat="-38.51056236" lon="145.23155733"><ele>42.000</ele></trkpt>
    <trkpt lat="-38.51057895" lon="145.23159442"><ele>42.000</ele></trkpt>
    <trkpt lat="-38.51059377" lon="145.23162853"><ele>42.000</ele></trkpt>
    <trkpt lat="-38.51060392" lon="145.23166145"><ele>42.000</ele></trkpt>
    <trkpt lat="-38.51061556" lon="145.23169405"><ele>42.000</ele></trkpt>
    <trkpt lat="-38.51062432" lon="145.23173210"><ele>42.000</ele></trkpt>
    <trkpt lat="-38.51063322" lon="145.23176613"><ele>42.000</ele></trkpt>
    <trkpt lat="-38.51063978" lon="145.23179654"><ele>41.000</ele></trkpt>
    <trkpt lat="-38.51064729" lon="145.23184273"><ele>41.000</ele></trkpt>
    <trkpt lat="-38.51065259" lon="145.23188057"><ele>41.000</ele></trkpt>
    <trkpt lat="-38.51065619" lon="145.23191796"><ele>41.000</ele></trkpt>
    <trkpt lat="-38.51066020" lon="145.23196010"><ele>41.000</ele></trkpt>
    <trkpt lat="-38.51065939" lon="145.23199329"><ele>40.000</ele></trkpt>
    <trkpt lat="-38.51066089" lon="145.23204645"><ele>40.000</ele></trkpt>
    <trkpt lat="-38.51066146" lon="145.23208201"><ele>40.000</ele></trkpt>
    <trkpt lat="-38.51066050" lon="145.23211950"><ele>39.000</ele></trkpt>
    <trkpt lat="-38.51065645" lon="145.23216045"><ele>39.000</ele></trkpt>
    <trkpt lat="-38.51064999" lon="145.23220708"><ele>39.000</ele></trkpt>
    <trkpt lat="-38.51064232" lon="145.23227156"><ele>38.000</ele></trkpt>
    <trkpt lat="-38.51062951" lon="145.23233929"><ele>38.000</ele></trkpt>
    <trkpt lat="-38.51061896" lon="145.23239459"><ele>38.000</ele></trkpt>
    <trkpt lat="-38.51061334" lon="145.23241696"><ele>38.000</ele></trkpt>
    <trkpt lat="-38.51060275" lon="145.23246282"><ele>37.000</ele></trkpt>
    <trkpt lat="-38.51059425" lon="145.23249545"><ele>37.000</ele></trkpt>
    <trkpt lat="-38.51058415" lon="145.23253086"><ele>37.000</ele></trkpt>
    <trkpt lat="-38.51054774" lon="145.23264665"><ele>36.000</ele></trkpt>
    <trkpt lat="-38.51052243" lon="145.23271308"><ele>36.000</ele></trkpt>
    <trkpt lat="-38.51050016" lon="145.23275841"><ele>36.000</ele></trkpt>
    <trkpt lat="-38.51048041" lon="145.23280113"><ele>35.000</ele></trkpt>
    <trkpt lat="-38.51046147" lon="145.23283787"><ele>35.000</ele></trkpt>
    <trkpt lat="-38.51041040" lon="145.23292629"><ele>34.000</ele></trkpt>
    <trkpt lat="-38.51031412" lon="145.23306613"><ele>33.000</ele></trkpt>
    <trkpt lat="-38.51004383" lon="145.23341904"><ele>33.000</ele></trkpt>
    <trkpt lat="-38.50989527" lon="145.23359883"><ele>34.000</ele></trkpt>
    <trkpt lat="-38.50980321" lon="145.23371021"><ele>35.000</ele></trkpt>
    <trkpt lat="-38.50961770" lon="145.23392483"><ele>35.000</ele></trkpt>
    <trkpt lat="-38.50922153" lon="145.23437020"><ele>33.000</ele></trkpt>
    <trkpt lat="-38.50878474" lon="145.23486812"><ele>27.000</ele></trkpt>
    <trkpt lat="-38.50834332" lon="145.23531603"><ele>33.000</ele></trkpt>
    <trkpt lat="-38.50826931" lon="145.23538308"><ele>34.000</ele></trkpt>
    <trkpt lat="-38.50820032" lon="145.23543560"><ele>34.000</ele></trkpt>
    <trkpt lat="-38.50811602" lon="145.23549566"><ele>35.000</ele></trkpt>
    <trkpt lat="-38.50802972" lon="145.23555176"><ele>35.000</ele></trkpt>
    <trkpt lat="-38.50793699" lon="145.23560717"><ele>34.000</ele></trkpt>
    <trkpt lat="-38.50784664" lon="145.23565525"><ele>34.000</ele></trkpt>
    <trkpt lat="-38.50778368" lon="145.23568766"><ele>34.000</ele></trkpt>
    <trkpt lat="-38.50773184" lon="145.23571128"><ele>33.000</ele></trkpt>
    <trkpt lat="-38.50767117" lon="145.23573571"><ele>33.000</ele></trkpt>
    <trkpt lat="-38.50760825" lon="145.23575741"><ele>32.000</ele></trkpt>
    <trkpt lat="-38.50756400" lon="145.23577548"><ele>32.000</ele></trkpt>
    <trkpt lat="-38.50751734" lon="145.23578827"><ele>31.000</ele></trkpt>
    <trkpt lat="-38.50746993" lon="145.23580111"><ele>31.000</ele></trkpt>
    <trkpt lat="-38.50737530" lon="145.23582374"><ele>31.000</ele></trkpt>
    <trkpt lat="-38.50729544" lon="145.23583878"><ele>32.000</ele></trkpt>
    <trkpt lat="-38.50721731" lon="145.23584745"><ele>32.000</ele></trkpt>
    <trkpt lat="-38.50715835" lon="145.23585059"><ele>32.000</ele></trkpt>
    <trkpt lat="-38.50709916" lon="145.23585260"><ele>32.000</ele></trkpt>
    <trkpt lat="-38.50698162" lon="145.23585469"><ele>32.000</ele></trkpt>
    <trkpt lat="-38.50688542" lon="145.23585183"><ele>32.000</ele></trkpt>
    <trkpt lat="-38.50682361" lon="145.23584719"><ele>32.000</ele></trkpt>
    <trkpt lat="-38.50675778" lon="145.23584015"><ele>32.000</ele></trkpt>
    <trkpt lat="-38.50663698" lon="145.23582617"><ele>32.000</ele></trkpt>
    <trkpt lat="-38.50656237" lon="145.23581486"><ele>32.000</ele></trkpt>
    <trkpt lat="-38.50649922" lon="145.23580284"><ele>33.000</ele></trkpt>
    <trkpt lat="-38.50635259" lon="145.23577263"><ele>33.000</ele></trkpt>
    <trkpt lat="-38.50621921" lon="145.23574153"><ele>34.000</ele></trkpt>
    <trkpt lat="-38.50607984" lon="145.23570796"><ele>34.000</ele></trkpt>
    <trkpt lat="-38.50584519" lon="145.23564091"><ele>36.000</ele></trkpt>
    <trkpt lat="-38.50539714" lon="145.23551750"><ele>37.000</ele></trkpt>
    <trkpt lat="-38.50492714" lon="145.23538226"><ele>38.000</ele></trkpt>
    <trkpt lat="-38.50487027" lon="145.23536653"><ele>38.000</ele></trkpt>
    <trkpt lat="-38.50483463" lon="145.23535756"><ele>38.000</ele></trkpt>
    <trkpt lat="-38.50479799" lon="145.23535574"><ele>38.000</ele></trkpt>
    <trkpt lat="-38.50477327" lon="145.23535764"><ele>39.000</ele></trkpt>
    <trkpt lat="-38.50475398" lon="145.23536158"><ele>39.000</ele></trkpt>
    <trkpt lat="-38.50472766" lon="145.23536839"><ele>39.000</ele></trkpt>
    <trkpt lat="-38.50470155" lon="145.23537889"><ele>39.000</ele></trkpt>
    <trkpt lat="-38.50467500" lon="145.23539314"><ele>39.000</ele></trkpt>
    <trkpt lat="-38.50464493" lon="145.23541547"><ele>39.000</ele></trkpt>
    <trkpt lat="-38.50462247" lon="145.23543503"><ele>39.000</ele></trkpt>
    <trkpt lat="-38.50460587" lon="145.23546005"><ele>39.000</ele></trkpt>
    <trkpt lat="-38.50459377" lon="145.23548381"><ele>39.000</ele></trkpt>
    <trkpt lat="-38.50457827" lon="145.23551031"><ele>39.000</ele></trkpt>
    <trkpt lat="-38.50456611" lon="145.23554886"><ele>39.000</ele></trkpt>
    <trkpt lat="-38.50455758" lon="145.23558513"><ele>39.000</ele></trkpt>
    <trkpt lat="-38.50455235" lon="145.23562958"><ele>39.000</ele></trkpt>
    <trkpt lat="-38.50455081" lon="145.23567253"><ele>38.000</ele></trkpt>
    <trkpt lat="-38.50456068" lon="145.23573079"><ele>38.000</ele></trkpt>
    <trkpt lat="-38.50457583" lon="145.23577884"><ele>38.000</ele></trkpt>
    <trkpt lat="-38.50459319" lon="145.23582396"><ele>38.000</ele></trkpt>
    <trkpt lat="-38.50461229" lon="145.23585396"><ele>38.000</ele></trkpt>
    <trkpt lat="-38.50463198" lon="145.23588039"><ele>38.000</ele></trkpt>
    <trkpt lat="-38.50465095" lon="145.23590236"><ele>38.000</ele></trkpt>
    <trkpt lat="-38.50470043" lon="145.23594944"><ele>37.000</ele></trkpt>
    <trkpt lat="-38.50481543" lon="145.23604738"><ele>36.000</ele></trkpt>
    <trkpt lat="-38.50509203" lon="145.23627951"><ele>35.000</ele></trkpt>
    <trkpt lat="-38.50528246" lon="145.23643554"><ele>34.000</ele></trkpt>
    <trkpt lat="-38.50532578" lon="145.23646572"><ele>34.000</ele></trkpt>
    <trkpt lat="-38.50536773" lon="145.23649300"><ele>34.000</ele></trkpt>
    <trkpt lat="-38.50540145" lon="145.23651562"><ele>34.000</ele></trkpt>
    <trkpt lat="-38.50543406" lon="145.23653237"><ele>34.000</ele></trkpt>
    <trkpt lat="-38.50547688" lon="145.23655863"><ele>34.000</ele></trkpt>
    <trkpt lat="-38.50561375" lon="145.23662376"><ele>33.000</ele></trkpt>
    <trkpt lat="-38.50571571" lon="145.23666002"><ele>32.000</ele></trkpt>
    <trkpt lat="-38.50582518" lon="145.23670235"><ele>31.000</ele></trkpt>
    <trkpt lat="-38.50604003" lon="145.23678833"><ele>31.000</ele></trkpt>
    <trkpt lat="-38.50609615" lon="145.23681608"><ele>31.000</ele></trkpt>
    <trkpt lat="-38.50613354" lon="145.23683731"><ele>31.000</ele></trkpt>
    <trkpt lat="-38.50615855" lon="145.23685759"><ele>31.000</ele></trkpt>
    <trkpt lat="-38.50618581" lon="145.23688058"><ele>32.000</ele></trkpt>
    <trkpt lat="-38.50621299" lon="145.23690308"><ele>32.000</ele></trkpt>
    <trkpt lat="-38.50626662" lon="145.23695398"><ele>32.000</ele></trkpt>
    <trkpt lat="-38.50629905" lon="145.23699389"><ele>32.000</ele></trkpt>
    <trkpt lat="-38.50632553" lon="145.23702853"><ele>33.000</ele></trkpt>
    <trkpt lat="-38.50634587" lon="145.23706250"><ele>33.000</ele></trkpt>
    <trkpt lat="-38.50636840" lon="145.23710472"><ele>33.000</ele></trkpt>
    <trkpt lat="-38.50638346" lon="145.23713753"><ele>33.000</ele></trkpt>
    <trkpt lat="-38.50639746" lon="145.23716666"><ele>34.000</ele></trkpt>
    <trkpt lat="-38.50640828" lon="145.23719100"><ele>34.000</ele></trkpt>
    <trkpt lat="-38.50642600" lon="145.23723083"><ele>34.000</ele></trkpt>
    <trkpt lat="-38.50643799" lon="145.23727359"><ele>34.000</ele></trkpt>
    <trkpt lat="-38.50644595" lon="145.23730182"><ele>34.000</ele></trkpt>
    <trkpt lat="-38.50645389" lon="145.23733513"><ele>34.000</ele></trkpt>
    <trkpt lat="-38.50646233" lon="145.23738531"><ele>34.000</ele></trkpt>
    <trkpt lat="-38.50646722" lon="145.23742357"><ele>34.000</ele></trkpt>
    <trkpt lat="-38.50646965" lon="145.23746408"><ele>35.000</ele></trkpt>
    <trkpt lat="-38.50646747" lon="145.23750195"><ele>35.000</ele></trkpt>
    <trkpt lat="-38.50646676" lon="145.23753342"><ele>35.000</ele></trkpt>
    <trkpt lat="-38.50646637" lon="145.23756046"><ele>35.000</ele></trkpt>
    <trkpt lat="-38.50646257" lon="145.23759940"><ele>34.000</ele></trkpt>
    <trkpt lat="-38.50645705" lon="145.23764795"><ele>34.000</ele></trkpt>
    <trkpt lat="-38.50644868" lon="145.23769103"><ele>34.000</ele></trkpt>
    <trkpt lat="-38.50643830" lon="145.23773301"><ele>34.000</ele></trkpt>
    <trkpt lat="-38.50642649" lon="145.23776672"><ele>34.000</ele></trkpt>
    <trkpt lat="-38.50641540" lon="145.23779773"><ele>34.000</ele></trkpt>
    <trkpt lat="-38.50640515" lon="145.23782082"><ele>34.000</ele></trkpt>
    <trkpt lat="-38.50639353" lon="145.23784689"><ele>34.000</ele></trkpt>
    <trkpt lat="-38.50638026" lon="145.23787177"><ele>34.000</ele></trkpt>
    <trkpt lat="-38.50636515" lon="145.23789864"><ele>35.000</ele></trkpt>
    <trkpt lat="-38.50635277" lon="145.23792304"><ele>35.000</ele></trkpt>
    <trkpt lat="-38.50634281" lon="145.23793847"><ele>35.000</ele></trkpt>
    <trkpt lat="-38.50633483" lon="145.23795154"><ele>35.000</ele></trkpt>
    <trkpt lat="-38.50632466" lon="145.23796562"><ele>35.000</ele></trkpt>
    <trkpt lat="-38.50631417" lon="145.23798177"><ele>35.000</ele></trkpt>
    <trkpt lat="-38.50630359" lon="145.23799332"><ele>35.000</ele></trkpt>
    <trkpt lat="-38.50629540" lon="145.23800617"><ele>35.000</ele></trkpt>
    <trkpt lat="-38.50628552" lon="145.23801834"><ele>35.000</ele></trkpt>
    <trkpt lat="-38.50626700" lon="145.23804069"><ele>35.000</ele></trkpt>
    <trkpt lat="-38.50623791" lon="145.23806958"><ele>36.000</ele></trkpt>
    <trkpt lat="-38.50620447" lon="145.23810203"><ele>36.000</ele></trkpt>
    <trkpt lat="-38.50617070" lon="145.23813001"><ele>36.000</ele></trkpt>
    <trkpt lat="-38.50614065" lon="145.23814697"><ele>36.000</ele></trkpt>
    <trkpt lat="-38.50611432" lon="145.23816242"><ele>36.000</ele></trkpt>
    <trkpt lat="-38.50608968" lon="145.23817591"><ele>36.000</ele></trkpt>
    <trkpt lat="-38.50607402" lon="145.23818081"><ele>36.000</ele></trkpt>
    <trkpt lat="-38.50605451" lon="145.23818948"><ele>36.000</ele></trkpt>
    <trkpt lat="-38.50603193" lon="145.23819500"><ele>37.000</ele></trkpt>
    <trkpt lat="-38.50600654" lon="145.23819980"><ele>37.000</ele></trkpt>
    <trkpt lat="-38.50598587" lon="145.23820476"><ele>37.000</ele></trkpt>
    <trkpt lat="-38.50596900" lon="145.23820726"><ele>37.000</ele></trkpt>
    <trkpt lat="-38.50587985" lon="145.23822441"><ele>37.000</ele></trkpt>
    <trkpt lat="-38.50581377" lon="145.23822982"><ele>37.000</ele></trkpt>
    <trkpt lat="-38.50570407" lon="145.23823709"><ele>37.000</ele></trkpt>
    <trkpt lat="-38.50538848" lon="145.23824050"><ele>38.000</ele></trkpt>
    <trkpt lat="-38.50523697" lon="145.23823860"><ele>38.000</ele></trkpt>
    <trkpt lat="-38.50484412" lon="145.23822933"><ele>40.000</ele></trkpt>
    <trkpt lat="-38.50459241" lon="145.23821505"><ele>40.000</ele></trkpt>
    <trkpt lat="-38.50451527" lon="145.23820700"><ele>41.000</ele></trkpt>
    <trkpt lat="-38.50445209" lon="145.23819614"><ele>41.000</ele></trkpt>
    <trkpt lat="-38.50434060" lon="145.23817034"><ele>41.000</ele></trkpt>
    <trkpt lat="-38.50428126" lon="145.23815422"><ele>41.000</ele></trkpt>
    <trkpt lat="-38.50422882" lon="145.23813969"><ele>41.000</ele></trkpt>
    <trkpt lat="-38.50418442" lon="145.23812349"><ele>41.000</ele></trkpt>
    <trkpt lat="-38.50408973" lon="145.23808299"><ele>41.000</ele></trkpt>
    <trkpt lat="-38.50396872" lon="145.23802180"><ele>42.000</ele></trkpt>
    <trkpt lat="-38.50374135" lon="145.23789031"><ele>41.000</ele></trkpt>
    <trkpt lat="-38.50311871" lon="145.23751812"><ele>43.000</ele></trkpt>
    <trkpt lat="-38.50301199" lon="145.23746099"><ele>43.000</ele></trkpt>
    <trkpt lat="-38.50294967" lon="145.23742648"><ele>44.000</ele></trkpt>
    <trkpt lat="-38.50289088" lon="145.23739868"><ele>44.000</ele></trkpt>
    <trkpt lat="-38.50282045" lon="145.23736413"><ele>44.000</ele></trkpt>
    <trkpt lat="-38.50277097" lon="145.23734312"><ele>44.000</ele></trkpt>
    <trkpt lat="-38.50273265" lon="145.23732887"><ele>44.000</ele></trkpt>
    <trkpt lat="-38.50263528" lon="145.23729679"><ele>44.000</ele></trkpt>
    <trkpt lat="-38.50258060" lon="145.23728295"><ele>44.000</ele></trkpt>
    <trkpt lat="-38.50250765" lon="145.23726915"><ele>44.000</ele></trkpt>
    <trkpt lat="-38.50243516" lon="145.23726005"><ele>44.000</ele></trkpt>
    <trkpt lat="-38.50238073" lon="145.23725467"><ele>44.000</ele></trkpt>
    <trkpt lat="-38.50232731" lon="145.23725398"><ele>44.000</ele></trkpt>
    <trkpt lat="-38.50227417" lon="145.23725172"><ele>44.000</ele></trkpt>
    <trkpt lat="-38.50223628" lon="145.23725466"><ele>44.000</ele></trkpt>
    <trkpt lat="-38.50220233" lon="145.23725555"><ele>44.000</ele></trkpt>
    <trkpt lat="-38.50216195" lon="145.23726044"><ele>44.000</ele></trkpt>
    <trkpt lat="-38.50211138" lon="145.23727124"><ele>43.000</ele></trkpt>
    <trkpt lat="-38.50204654" lon="145.23728688"><ele>43.000</ele></trkpt>
    <trkpt lat="-38.50199595" lon="145.23729723"><ele>43.000</ele></trkpt>
    <trkpt lat="-38.50189948" lon="145.23732663"><ele>43.000</ele></trkpt>
    <trkpt lat="-38.50181867" lon="145.23736197"><ele>43.000</ele></trkpt>
    <trkpt lat="-38.50168292" lon="145.23742088"><ele>44.000</ele></trkpt>
    <trkpt lat="-38.50143700" lon="145.23755530"><ele>45.000</ele></trkpt>
    <trkpt lat="-38.50137704" lon="145.23759471"><ele>45.000</ele></trkpt>
    <trkpt lat="-38.50126684" lon="145.23765361"><ele>45.000</ele></trkpt>
    <trkpt lat="-38.50113600" lon="145.23772529"><ele>45.000</ele></trkpt>
    <trkpt lat="-38.50102581" lon="145.23779262"><ele>45.000</ele></trkpt>
    <trkpt lat="-38.50093331" lon="145.23783777"><ele>46.000</ele></trkpt>
    <trkpt lat="-38.50081552" lon="145.23790089"><ele>46.000</ele></trkpt>
    <trkpt lat="-38.50073693" lon="145.23794358"><ele>46.000</ele></trkpt>
    <trkpt lat="-38.50067838" lon="145.23796892"><ele>47.000</ele></trkpt>
    <trkpt lat="-38.50059698" lon="145.23801415"><ele>47.000</ele></trkpt>
    <trkpt lat="-38.50054145" lon="145.23803242"><ele>47.000</ele></trkpt>
    <trkpt lat="-38.50049508" lon="145.23805049"><ele>47.000</ele></trkpt>
    <trkpt lat="-38.50044108" lon="145.23806616"><ele>47.000</ele></trkpt>
    <trkpt lat="-38.50040846" lon="145.23807642"><ele>48.000</ele></trkpt>
    <trkpt lat="-38.50034939" lon="145.23808811"><ele>48.000</ele></trkpt>
    <trkpt lat="-38.50027736" lon="145.23810446"><ele>48.000</ele></trkpt>
    <trkpt lat="-38.50021692" lon="145.23811360"><ele>49.000</ele></trkpt>
    <trkpt lat="-38.50012727" lon="145.23812837"><ele>49.000</ele></trkpt>
    <trkpt lat="-38.50005864" lon="145.23814004"><ele>50.000</ele></trkpt>
    <trkpt lat="-38.50001170" lon="145.23814096"><ele>50.000</ele></trkpt>
    <trkpt lat="-38.49997430" lon="145.23814308"><ele>50.000</ele></trkpt>
    <trkpt lat="-38.49994536" lon="145.23814215"><ele>51.000</ele></trkpt>
    <trkpt lat="-38.49990346" lon="145.23814062"><ele>51.000</ele></trkpt>
    <trkpt lat="-38.49987065" lon="145.23813922"><ele>51.000</ele></trkpt>
    <trkpt lat="-38.49983490" lon="145.23813424"><ele>51.000</ele></trkpt>
    <trkpt lat="-38.49979448" lon="145.23812712"><ele>51.000</ele></trkpt>
    <trkpt lat="-38.49975088" lon="145.23811728"><ele>51.000</ele></trkpt>
    <trkpt lat="-38.49970821" lon="145.23810571"><ele>51.000</ele></trkpt>
    <trkpt lat="-38.49965677" lon="145.23808726"><ele>51.000</ele></trkpt>
    <trkpt lat="-38.49962204" lon="145.23807403"><ele>51.000</ele></trkpt>
    <trkpt lat="-38.49958121" lon="145.23805453"><ele>51.000</ele></trkpt>
    <trkpt lat="-38.49952914" lon="145.23802781"><ele>51.000</ele></trkpt>
    <trkpt lat="-38.49948055" lon="145.23799835"><ele>51.000</ele></trkpt>
    <trkpt lat="-38.49940035" lon="145.23794212"><ele>52.000</ele></trkpt>
    <trkpt lat="-38.49934261" lon="145.23789606"><ele>52.000</ele></trkpt>
    <trkpt lat="-38.49930168" lon="145.23786026"><ele>53.000</ele></trkpt>
    <trkpt lat="-38.49924185" lon="145.23780224"><ele>54.000</ele></trkpt>
    <trkpt lat="-38.49920975" lon="145.23776772"><ele>54.000</ele></trkpt>
    <trkpt lat="-38.49918184" lon="145.23773129"><ele>55.000</ele></trkpt>
    <trkpt lat="-38.49914717" lon="145.23768667"><ele>55.000</ele></trkpt>
    <trkpt lat="-38.49909161" lon="145.23760599"><ele>55.000</ele></trkpt>
    <trkpt lat="-38.49905221" lon="145.23753784"><ele>55.000</ele></trkpt>
    <trkpt lat="-38.49902036" lon="145.23747556"><ele>55.000</ele></trkpt>
    <trkpt lat="-38.49899596" lon="145.23742632"><ele>56.000</ele></trkpt>
    <trkpt lat="-38.49897105" lon="145.23737387"><ele>56.000</ele></trkpt>
    <trkpt lat="-38.49895298" lon="145.23732807"><ele>56.000</ele></trkpt>
    <trkpt lat="-38.49893119" lon="145.23726558"><ele>56.000</ele></trkpt>
    <trkpt lat="-38.49891085" lon="145.23719202"><ele>56.000</ele></trkpt>
    <trkpt lat="-38.49889014" lon="145.23711821"><ele>56.000</ele></trkpt>
    <trkpt lat="-38.49887345" lon="145.23704122"><ele>55.000</ele></trkpt>
    <trkpt lat="-38.49886762" lon="145.23699696"><ele>55.000</ele></trkpt>
    <trkpt lat="-38.49886070" lon="145.23695858"><ele>55.000</ele></trkpt>
    <trkpt lat="-38.49885418" lon="145.23690708"><ele>55.000</ele></trkpt>
    <trkpt lat="-38.49884697" lon="145.23685160"><ele>55.000</ele></trkpt>
    <trkpt lat="-38.49884244" lon="145.23680235"><ele>55.000</ele></trkpt>
    <trkpt lat="-38.49883953" lon="145.23676872"><ele>56.000</ele></trkpt>
    <trkpt lat="-38.49883701" lon="145.23672573"><ele>56.000</ele></trkpt>
    <trkpt lat="-38.49883470" lon="145.23668979"><ele>56.000</ele></trkpt>
    <trkpt lat="-38.49883372" lon="145.23663129"><ele>56.000</ele></trkpt>
    <trkpt lat="-38.49883403" lon="145.23650599"><ele>56.000</ele></trkpt>
    <trkpt lat="-38.49883990" lon="145.23640966"><ele>57.000</ele></trkpt>
    <trkpt lat="-38.49884338" lon="145.23633557"><ele>57.000</ele></trkpt>
    <trkpt lat="-38.49885063" lon="145.23627069"><ele>57.000</ele></trkpt>
    <trkpt lat="-38.49886185" lon="145.23617342"><ele>57.000</ele></trkpt>
    <trkpt lat="-38.49888261" lon="145.23600876"><ele>57.000</ele></trkpt>
    <trkpt lat="-38.49889591" lon="145.23592613"><ele>56.000</ele></trkpt>
    <trkpt lat="-38.49890692" lon="145.23585975"><ele>56.000</ele></trkpt>
    <trkpt lat="-38.49892443" lon="145.23575767"><ele>56.000</ele></trkpt>
    <trkpt lat="-38.49893981" lon="145.23567446"><ele>55.000</ele></trkpt>
    <trkpt lat="-38.49902326" lon="145.23529325"><ele>53.000</ele></trkpt>
    <trkpt lat="-38.49906490" lon="145.23510072"><ele>51.000</ele></trkpt>
    <trkpt lat="-38.49907503" lon="145.23503451"><ele>51.000</ele></trkpt>
    <trkpt lat="-38.49908233" lon="145.23499211"><ele>50.000</ele></trkpt>
    <trkpt lat="-38.49908500" lon="145.23495958"><ele>50.000</ele></trkpt>
    <trkpt lat="-38.49908622" lon="145.23492563"><ele>50.000</ele></trkpt>
    <trkpt lat="-38.49908808" lon="145.23489203"><ele>50.000</ele></trkpt>
    <trkpt lat="-38.49908440" lon="145.23487035"><ele>49.000</ele></trkpt>
    <trkpt lat="-38.49907892" lon="145.23484874"><ele>49.000</ele></trkpt>
    <trkpt lat="-38.49907337" lon="145.23482667"><ele>49.000</ele></trkpt>
    <trkpt lat="-38.49906378" lon="145.23480744"><ele>49.000</ele></trkpt>
    <trkpt lat="-38.49905750" lon="145.23479323"><ele>49.000</ele></trkpt>
    <trkpt lat="-38.49904607" lon="145.23477284"><ele>49.000</ele></trkpt>
    <trkpt lat="-38.49903200" lon="145.23475155"><ele>49.000</ele></trkpt>
    <trkpt lat="-38.49901465" lon="145.23473358"><ele>49.000</ele></trkpt>
    <trkpt lat="-38.49899728" lon="145.23471786"><ele>49.000</ele></trkpt>
    <trkpt lat="-38.49897108" lon="145.23470330"><ele>49.000</ele></trkpt>
    <trkpt lat="-38.49894752" lon="145.23469083"><ele>49.000</ele></trkpt>
    <trkpt lat="-38.49892508" lon="145.23468378"><ele>49.000</ele></trkpt>
    <trkpt lat="-38.49890917" lon="145.23468010"><ele>49.000</ele></trkpt>
    <trkpt lat="-38.49889450" lon="145.23467793"><ele>49.000</ele></trkpt>
    <trkpt lat="-38.49887617" lon="145.23467825"><ele>49.000</ele></trkpt>
    <trkpt lat="-38.49885753" lon="145.23468064"><ele>49.000</ele></trkpt>
    <trkpt lat="-38.49884331" lon="145.23468503"><ele>49.000</ele></trkpt>
    <trkpt lat="-38.49882336" lon="145.23469511"><ele>49.000</ele></trkpt>
    <trkpt lat="-38.49880044" lon="145.23470627"><ele>50.000</ele></trkpt>
    <trkpt lat="-38.49870562" lon="145.23476541"><ele>50.000</ele></trkpt>
    <trkpt lat="-38.49865903" lon="145.23479530"><ele>51.000</ele></trkpt>
    <trkpt lat="-38.49857283" lon="145.23486417"><ele>51.000</ele></trkpt>
    <trkpt lat="-38.49851125" lon="145.23491407"><ele>52.000</ele></trkpt>
    <trkpt lat="-38.49846247" lon="145.23495309"><ele>53.000</ele></trkpt>
    <trkpt lat="-38.49837555" lon="145.23501153"><ele>54.000</ele></trkpt>
    <trkpt lat="-38.49830642" lon="145.23505397"><ele>54.000</ele></trkpt>
    <trkpt lat="-38.49826291" lon="145.23507573"><ele>55.000</ele></trkpt>
    <trkpt lat="-38.49820258" lon="145.23509902"><ele>55.000</ele></trkpt>
    <trkpt lat="-38.49816632" lon="145.23510758"><ele>56.000</ele></trkpt>
    <trkpt lat="-38.49811619" lon="145.23511966"><ele>56.000</ele></trkpt>
    <trkpt lat="-38.49807187" lon="145.23512222"><ele>56.000</ele></trkpt>
    <trkpt lat="-38.49803011" lon="145.23511959"><ele>57.000</ele></trkpt>
    <trkpt lat="-38.49796880" lon="145.23511374"><ele>57.000</ele></trkpt>
    <trkpt lat="-38.49792621" lon="145.23510683"><ele>57.000</ele></trkpt>
    <trkpt lat="-38.49786863" lon="145.23509281"><ele>56.000</ele></trkpt>
    <trkpt lat="-38.49782037" lon="145.23507906"><ele>56.000</ele></trkpt>
    <trkpt lat="-38.49778631" lon="145.23506700"><ele>56.000</ele></trkpt>
    <trkpt lat="-38.49774838" lon="145.23505138"><ele>56.000</ele></trkpt>
    <trkpt lat="-38.49770413" lon="145.23502744"><ele>56.000</ele></trkpt>
    <trkpt lat="-38.49765286" lon="145.23499008"><ele>56.000</ele></trkpt>
    <trkpt lat="-38.49761687" lon="145.23496447"><ele>55.000</ele></trkpt>
    <trkpt lat="-38.49758136" lon="145.23493305"><ele>55.000</ele></trkpt>
    <trkpt lat="-38.49755717" lon="145.23490691"><ele>55.000</ele></trkpt>
    <trkpt lat="-38.49750929" lon="145.23485539"><ele>55.000</ele></trkpt>
    <trkpt lat="-38.49746917" lon="145.23480815"><ele>55.000</ele></trkpt>
    <trkpt lat="-38.49744191" lon="145.23476906"><ele>55.000</ele></trkpt>
    <trkpt lat="-38.49741433" lon="145.23473141"><ele>55.000</ele></trkpt>
    <trkpt lat="-38.49738711" lon="145.23468559"><ele>55.000</ele></trkpt>
    <trkpt lat="-38.49736426" lon="145.23464372"><ele>55.000</ele></trkpt>
    <trkpt lat="-38.49734041" lon="145.23459709"><ele>55.000</ele></trkpt>
    <trkpt lat="-38.49730794" lon="145.23452457"><ele>55.000</ele></trkpt>
    <trkpt lat="-38.49729090" lon="145.23447627"><ele>55.000</ele></trkpt>
    <trkpt lat="-38.49727394" lon="145.23442616"><ele>55.000</ele></trkpt>
    <trkpt lat="-38.49725897" lon="145.23437589"><ele>55.000</ele></trkpt>
    <trkpt lat="-38.49723965" lon="145.23430743"><ele>55.000</ele></trkpt>
    <trkpt lat="-38.49722650" lon="145.23425150"><ele>55.000</ele></trkpt>
    <trkpt lat="-38.49721393" lon="145.23418404"><ele>55.000</ele></trkpt>
    <trkpt lat="-38.49720679" lon="145.23413601"><ele>55.000</ele></trkpt>
    <trkpt lat="-38.49720443" lon="145.23409101"><ele>55.000</ele></trkpt>
    <trkpt lat="-38.49719783" lon="145.23402942"><ele>55.000</ele></trkpt>
    <trkpt lat="-38.49718598" lon="145.23381705"><ele>55.000</ele></trkpt>
    <trkpt lat="-38.49718422" lon="145.23372143"><ele>56.000</ele></trkpt>
    <trkpt lat="-38.49717860" lon="145.23360659"><ele>56.000</ele></trkpt>
    <trkpt lat="-38.49717754" lon="145.23349207"><ele>56.000</ele></trkpt>
    <trkpt lat="-38.49717605" lon="145.23335067"><ele>56.000</ele></trkpt>
    <trkpt lat="-38.49717874" lon="145.23318529"><ele>55.000</ele></trkpt>
    <trkpt lat="-38.49718253" lon="145.23308004"><ele>55.000</ele></trkpt>
    <trkpt lat="-38.49718424" lon="145.23298797"><ele>56.000</ele></trkpt>
    <trkpt lat="-38.49718955" lon="145.23289647"><ele>56.000</ele></trkpt>
    <trkpt lat="-38.49719579" lon="145.23277900"><ele>56.000</ele></trkpt>
    <trkpt lat="-38.49720022" lon="145.23268588"><ele>57.000</ele></trkpt>
    <trkpt lat="-38.49720693" lon="145.23258361"><ele>57.000</ele></trkpt>
    <trkpt lat="-38.49721078" lon="145.23251239"><ele>57.000</ele></trkpt>
    <trkpt lat="-38.49722091" lon="145.23243625"><ele>57.000</ele></trkpt>
    <trkpt lat="-38.49722761" lon="145.23236479"><ele>57.000</ele></trkpt>
    <trkpt lat="-38.49723756" lon="145.23229942"><ele>57.000</ele></trkpt>
    <trkpt lat="-38.49724325" lon="145.23225298"><ele>57.000</ele></trkpt>
    <trkpt lat="-38.49725205" lon="145.23220051"><ele>57.000</ele></trkpt>
    <trkpt lat="-38.49726576" lon="145.23212590"><ele>56.000</ele></trkpt>
    <trkpt lat="-38.49728435" lon="145.23204588"><ele>56.000</ele></trkpt>
    <trkpt lat="-38.49729333" lon="145.23199206"><ele>55.000</ele></trkpt>
    <trkpt lat="-38.49729725" lon="145.23195581"><ele>55.000</ele></trkpt>
    <trkpt lat="-38.49732593" lon="145.23185879"><ele>55.000</ele></trkpt>
    <trkpt lat="-38.49735500" lon="145.23176034"><ele>54.000</ele></trkpt>
    <trkpt lat="-38.49737288" lon="145.23170419"><ele>54.000</ele></trkpt>
    <trkpt lat="-38.49740324" lon="145.23161698"><ele>54.000</ele></trkpt>
    <trkpt lat="-38.49743041" lon="145.23155325"><ele>54.000</ele></trkpt>
    <trkpt lat="-38.49745244" lon="145.23150005"><ele>53.000</ele></trkpt>
    <trkpt lat="-38.49748425" lon="145.23143525"><ele>53.000</ele></trkpt>
    <trkpt lat="-38.49750576" lon="145.23139362"><ele>53.000</ele></trkpt>
    <trkpt lat="-38.49753430" lon="145.23134149"><ele>53.000</ele></trkpt>
    <trkpt lat="-38.49757850" lon="145.23126547"><ele>53.000</ele></trkpt>
    <trkpt lat="-38.49761619" lon="145.23120356"><ele>53.000</ele></trkpt>
    <trkpt lat="-38.49765677" lon="145.23115196"><ele>53.000</ele></trkpt>
    <trkpt lat="-38.49770901" lon="145.23109056"><ele>53.000</ele></trkpt>
    <trkpt lat="-38.49777350" lon="145.23101753"><ele>53.000</ele></trkpt>
    <trkpt lat="-38.49781184" lon="145.23098165"><ele>53.000</ele></trkpt>
    <trkpt lat="-38.49786801" lon="145.23093139"><ele>53.000</ele></trkpt>
    <trkpt lat="-38.49791749" lon="145.23089002"><ele>53.000</ele></trkpt>
    <trkpt lat="-38.49800617" lon="145.23082663"><ele>52.000</ele></trkpt>
    <trkpt lat="-38.49805639" lon="145.23079584"><ele>52.000</ele></trkpt>
    <trkpt lat="-38.49812710" lon="145.23075634"><ele>52.000</ele></trkpt>
    <trkpt lat="-38.49819194" lon="145.23072129"><ele>52.000</ele></trkpt>
    <trkpt lat="-38.49823470" lon="145.23070314"><ele>52.000</ele></trkpt>
    <trkpt lat="-38.49829231" lon="145.23068199"><ele>52.000</ele></trkpt>
    <trkpt lat="-38.49832170" lon="145.23066869"><ele>52.000</ele></trkpt>
    <trkpt lat="-38.49835646" lon="145.23065847"><ele>52.000</ele></trkpt>
    <trkpt lat="-38.49839334" lon="145.23065097"><ele>52.000</ele></trkpt>
    <trkpt lat="-38.49849658" lon="145.23062974"><ele>52.000</ele></trkpt>
    <trkpt lat="-38.49858237" lon="145.23062304"><ele>52.000</ele></trkpt>
    <trkpt lat="-38.49866376" lon="145.23062020"><ele>52.000</ele></trkpt>
    <trkpt lat="-38.49873386" lon="145.23061932"><ele>52.000</ele></trkpt>
    <trkpt lat="-38.49888738" lon="145.23062153"><ele>53.000</ele></trkpt>
    <trkpt lat="-38.49893133" lon="145.23062886"><ele>53.000</ele></trkpt>
    <trkpt lat="-38.49898948" lon="145.23063590"><ele>53.000</ele></trkpt>
    <trkpt lat="-38.49906372" lon="145.23064555"><ele>53.000</ele></trkpt>
    <trkpt lat="-38.49914985" lon="145.23066567"><ele>54.000</ele></trkpt>
    <trkpt lat="-38.49924725" lon="145.23068766"><ele>54.000</ele></trkpt>
    <trkpt lat="-38.49934833" lon="145.23071347"><ele>54.000</ele></trkpt>
    <trkpt lat="-38.49942454" lon="145.23073865"><ele>54.000</ele></trkpt>
    <trkpt lat="-38.49950512" lon="145.23076394"><ele>54.000</ele></trkpt>
    <trkpt lat="-38.49964938" lon="145.23081609"><ele>53.000</ele></trkpt>
    <trkpt lat="-38.49982603" lon="145.23089047"><ele>52.000</ele></trkpt>
    <trkpt lat="-38.50001737" lon="145.23097353"><ele>51.000</ele></trkpt>
    <trkpt lat="-38.50011858" lon="145.23101281"><ele>50.000</ele></trkpt>
    <trkpt lat="-38.50058399" lon="145.23120945"><ele>50.000</ele></trkpt>
    <trkpt lat="-38.50110871" lon="145.23143233"><ele>48.000</ele></trkpt>
    <trkpt lat="-38.50133241" lon="145.23152778"><ele>48.000</ele></trkpt>
    <trkpt lat="-38.50225111" lon="145.23191908"><ele>48.000</ele></trkpt>
    <trkpt lat="-38.50250963" lon="145.23203301"><ele>46.000</ele></trkpt>
    <trkpt lat="-38.50255656" lon="145.23205039"><ele>46.000</ele></trkpt>
  </trkseg></trk>
</gpx>
