<?xml version='1.0' encoding='utf-8'?>
<gpx version="1.1" creator="Australian Track GeoJSON to GPX converter" xmlns="http://www.topografix.com/GPX/1/1" xmlns:xsi="http://www.w3.org/2001/XMLSchema-instance" xsi:schemaLocation="http://www.topografix.com/GPX/1/1 http://www.topografix.com/GPX/1/1/gpx.xsd"><metadata><name>Queensland Raceway</name><desc>Race circuit layout centreline; no geofence data.</desc><link href="https://docs.emtronaustralia.com.au/tracks/AUS/Queensland%20Raceway.geojson" /></metadata><trk><name>queensland_raceway</name><trkseg>
    <trkpt lat="-27.69061895" lon="152.65468680"><ele>0.000</ele></trkpt>
    <trkpt lat="-27.69106666" lon="152.65467970"><ele>0.000</ele></trkpt>
    <trkpt lat="-27.69162473" lon="152.65467052"><ele>0.000</ele></trkpt>
    <trkpt lat="-27.69211652" lon="152.65466183"><ele>0.000</ele></trkpt>
    <trkpt lat="-27.69255997" lon="152.65465243"><ele>0.000</ele></trkpt>
    <trkpt lat="-27.69290550" lon="152.65464655"><ele>0.000</ele></trkpt>
    <trkpt lat="-27.69312241" lon="152.65464049"><ele>0.000</ele></trkpt>
    <trkpt lat="-27.69325874" lon="152.65462766"><ele>0.000</ele></trkpt>
    <trkpt lat="-27.69336139" lon="152.65460047"><ele>0.000</ele></trkpt>
    <trkpt lat="-27.69340782" lon="152.65458369"><ele>0.000</ele></trkpt>
    <trkpt lat="-27.69352741" lon="152.65451640"><ele>0.000</ele></trkpt>
    <trkpt lat="-27.69357175" lon="152.65448416"><ele>0.000</ele></trkpt>
    <trkpt lat="-27.69365539" lon="152.65442646"><ele>0.000</ele></trkpt>
    <trkpt lat="-27.69369449" lon="152.65439073"><ele>0.000</ele></trkpt>
    <trkpt lat="-27.69374183" lon="152.65434733"><ele>0.000</ele></trkpt>
    <trkpt lat="-27.69378749" lon="152.65428789"><ele>0.000</ele></trkpt>
    <trkpt lat="-27.69383447" lon="152.65422106"><ele>0.000</ele></trkpt>
    <trkpt lat="-27.69387056" lon="152.65416035"><ele>0.000</ele></trkpt>
    <trkpt lat="-27.69390120" lon="152.65410299"><ele>0.000</ele></trkpt>
    <trkpt lat="-27.69393206" lon="152.65402892"><ele>0.000</ele></trkpt>
    <trkpt lat="-27.69396306" lon="152.65393421"><ele>0.000</ele></trkpt>
    <trkpt lat="-27.69399253" lon="152.65381369"><ele>0.000</ele></trkpt>
    <trkpt lat="-27.69405002" lon="152.65357104"><ele>0.000</ele></trkpt>
    <trkpt lat="-27.69410291" lon="152.65326384"><ele>0.000</ele></trkpt>
    <trkpt lat="-27.69415884" lon="152.65298083"><ele>0.000</ele></trkpt>
    <trkpt lat="-27.69423160" lon="152.65262668"><ele>0.000</ele></trkpt>
    <trkpt lat="-27.69430187" lon="152.65226311"><ele>0.000</ele></trkpt>
    <trkpt lat="-27.69433549" lon="152.65207010"><ele>0.000</ele></trkpt>
    <trkpt lat="-27.69433945" lon="152.65194067"><ele>0.000</ele></trkpt>
    <trkpt lat="-27.69433150" lon="152.65182336"><ele>0.000</ele></trkpt>
    <trkpt lat="-27.69431909" lon="152.65173219"><ele>0.000</ele></trkpt>
    <trkpt lat="-27.69430255" lon="152.65165221"><ele>0.000</ele></trkpt>
    <trkpt lat="-27.69427673" lon="152.65156601"><ele>0.000</ele></trkpt>
    <trkpt lat="-27.69425077" lon="152.65147764"><ele>0.000</ele></trkpt>
    <trkpt lat="-27.69419694" lon="152.65136454"><ele>0.000</ele></trkpt>
    <trkpt lat="-27.69414888" lon="152.65128436"><ele>0.000</ele></trkpt>
    <trkpt lat="-27.69409304" lon="152.65121143"><ele>0.000</ele></trkpt>
    <trkpt lat="-27.69404750" lon="152.65114945"><ele>0.000</ele></trkpt>
    <trkpt lat="-27.69398996" lon="152.65109356"><ele>0.000</ele></trkpt>
    <trkpt lat="-27.69393326" lon="152.65104334"><ele>0.000</ele></trkpt>
    <trkpt lat="-27.69389135" lon="152.65100651"><ele>0.000</ele></trkpt>
    <trkpt lat="-27.69384907" lon="152.65097762"><ele>0.000</ele></trkpt>
    <trkpt lat="-27.69379886" lon="152.65094680"><ele>0.000</ele></trkpt>
    <trkpt lat="-27.69372904" lon="152.65091045"><ele>0.000</ele></trkpt>
    <trkpt lat="-27.69365180" lon="152.65087686"><ele>0.000</ele></trkpt>
    <trkpt lat="-27.69358008" lon="152.65085069"><ele>0.000</ele></trkpt>
    <trkpt lat="-27.69351165" lon="152.65083613"><ele>0.000</ele></trkpt>
    <trkpt lat="-27.69342463" lon="152.65081972"><ele>0.000</ele></trkpt>
    <trkpt lat="-27.69333250" lon="152.65081686"><ele>0.000</ele></trkpt>
    <trkpt lat="-27.69317020" lon="152.65082802"><ele>0.000</ele></trkpt>
    <trkpt lat="-27.69302878" lon="152.65085737"><ele>0.000</ele></trkpt>
    <trkpt lat="-27.69273348" lon="152.65091058"><ele>0.000</ele></trkpt>
    <trkpt lat="-27.69236628" lon="152.65098038"><ele>0.000</ele></trkpt>
    <trkpt lat="-27.69204775" lon="152.65103912"><ele>0.000</ele></trkpt>
    <trkpt lat="-27.69164860" lon="152.65111422"><ele>0.000</ele></trkpt>
    <trkpt lat="-27.69092279" lon="152.65125187"><ele>0.000</ele></trkpt>
    <trkpt lat="-27.69036008" lon="152.65135356"><ele>0.000</ele></trkpt>
    <trkpt lat="-27.68995620" lon="152.65143054"><ele>0.000</ele></trkpt>
    <trkpt lat="-27.68949871" lon="152.65151713"><ele>0.000</ele></trkpt>
    <trkpt lat="-27.68902134" lon="152.65160341"><ele>0.000</ele></trkpt>
    <trkpt lat="-27.68851318" lon="152.65169883"><ele>0.000</ele></trkpt>
    <trkpt lat="-27.68807969" lon="152.65177766"><ele>0.000</ele></trkpt>
    <trkpt lat="-27.68756584" lon="152.65187567"><ele>0.000</ele></trkpt>
    <trkpt lat="-27.68728582" lon="152.65193037"><ele>0.000</ele></trkpt>
    <trkpt lat="-27.68712124" lon="152.65196553"><ele>0.000</ele></trkpt>
    <trkpt lat="-27.68704258" lon="152.65199185"><ele>0.000</ele></trkpt>
    <trkpt lat="-27.68699727" lon="152.65202521"><ele>0.000</ele></trkpt>
    <trkpt lat="-27.68694888" lon="152.65207218"><ele>0.000</ele></trkpt>
    <trkpt lat="-27.68691602" lon="152.65213852"><ele>0.000</ele></trkpt>
    <trkpt lat="-27.68689247" lon="152.65219594"><ele>0.000</ele></trkpt>
    <trkpt lat="-27.68688907" lon="152.65227144"><ele>0.000</ele></trkpt>
    <trkpt lat="-27.68688859" lon="152.65234658"><ele>0.000</ele></trkpt>
    <trkpt lat="-27.68690408" lon="152.65243166"><ele>0.000</ele></trkpt>
    <trkpt lat="-27.68693856" lon="152.65253252"><ele>0.000</ele></trkpt>
    <trkpt lat="-27.68696652" lon="152.65259071"><ele>0.000</ele></trkpt>
    <trkpt lat="-27.68701469" lon="152.65266262"><ele>0.000</ele></trkpt>
    <trkpt lat="-27.68706128" lon="152.65272009"><ele>0.000</ele></trkpt>
    <trkpt lat="-27.68711940" lon="152.65278013"><ele>0.000</ele></trkpt>
    <trkpt lat="-27.68719773" lon="152.65283887"><ele>0.000</ele></trkpt>
    <trkpt lat="-27.68728884" lon="152.65287982"><ele>0.000</ele></trkpt>
    <trkpt lat="-27.68737288" lon="152.65291185"><ele>0.000</ele></trkpt>
    <trkpt lat="-27.68747749" lon="152.65292791"><ele>0.000</ele></trkpt>
    <trkpt lat="-27.68765013" lon="152.65292183"><ele>0.000</ele></trkpt>
    <trkpt lat="-27.68788144" lon="152.65289258"><ele>0.000</ele></trkpt>
    <trkpt lat="-27.68844865" lon="152.65277428"><ele>0.000</ele></trkpt>
    <trkpt lat="-27.68893210" lon="152.65268481"><ele>0.000</ele></trkpt>
    <trkpt lat="-27.68931487" lon="152.65261220"><ele>0.000</ele></trkpt>
    <trkpt lat="-27.68989037" lon="152.65250425"><ele>0.000</ele></trkpt>
    <trkpt lat="-27.69070844" lon="152.65235172"><ele>0.000</ele></trkpt>
    <trkpt lat="-27.69123396" lon="152.65225772"><ele>0.000</ele></trkpt>
    <trkpt lat="-27.69178319" lon="152.65215130"><ele>0.000</ele></trkpt>
    <trkpt lat="-27.69204978" lon="152.65210750"><ele>0.000</ele></trkpt>
    <trkpt lat="-27.69215267" lon="152.65210912"><ele>0.000</ele></trkpt>
    <trkpt lat="-27.69221578" lon="152.65213964"><ele>0.000</ele></trkpt>
    <trkpt lat="-27.69226380" lon="152.65217265"><ele>0.000</ele></trkpt>
    <trkpt lat="-27.69229733" lon="152.65220143"><ele>0.000</ele></trkpt>
    <trkpt lat="-27.69233652" lon="152.65225240"><ele>0.000</ele></trkpt>
    <trkpt lat="-27.69235925" lon="152.65228629"><ele>0.000</ele></trkpt>
    <trkpt lat="-27.69238113" lon="152.65233786"><ele>0.000</ele></trkpt>
    <trkpt lat="-27.69239890" lon="152.65239137"><ele>0.000</ele></trkpt>
    <trkpt lat="-27.69240606" lon="152.65243773"><ele>0.000</ele></trkpt>
    <trkpt lat="-27.69240176" lon="152.65248397"><ele>0.000</ele></trkpt>
    <trkpt lat="-27.69239341" lon="152.65252469"><ele>0.000</ele></trkpt>
    <trkpt lat="-27.69236009" lon="152.65267475"><ele>0.000</ele></trkpt>
    <trkpt lat="-27.69230397" lon="152.65291127"><ele>0.000</ele></trkpt>
    <trkpt lat="-27.69224445" lon="152.65316566"><ele>0.000</ele></trkpt>
    <trkpt lat="-27.69221658" lon="152.65327786"><ele>0.000</ele></trkpt>
    <trkpt lat="-27.69219590" lon="152.65333824"><ele>0.000</ele></trkpt>
    <trkpt lat="-27.69214744" lon="152.65341962"><ele>0.000</ele></trkpt>
    <trkpt lat="-27.69209269" lon="152.65348640"><ele>0.000</ele></trkpt>
    <trkpt lat="-27.69201371" lon="152.65354739"><ele>0.000</ele></trkpt>
    <trkpt lat="-27.69195558" lon="152.65358152"><ele>0.000</ele></trkpt>
    <trkpt lat="-27.69188787" lon="152.65360654"><ele>0.000</ele></trkpt>
    <trkpt lat="-27.69165334" lon="152.65361926"><ele>0.000</ele></trkpt>
    <trkpt lat="-27.69103232" lon="152.65362409"><ele>0.000</ele></trkpt>
    <trkpt lat="-27.69022246" lon="152.65364235"><ele>0.000</ele></trkpt>
    <trkpt lat="-27.68942707" lon="152.65365736"><ele>0.000</ele></trkpt>
    <trkpt lat="-27.68851112" lon="152.65366936"><ele>0.000</ele></trkpt>
    <trkpt lat="-27.68800790" lon="152.65368638"><ele>0.000</ele></trkpt>
    <trkpt lat="-27.68790347" lon="152.65372845"><ele>0.000</ele></trkpt>
    <trkpt lat="-27.68785328" lon="152.65377402"><ele>0.000</ele></trkpt>
    <trkpt lat="-27.68779839" lon="152.65382840"><ele>0.000</ele></trkpt>
    <trkpt lat="-27.68775677" lon="152.65389924"><ele>0.000</ele></trkpt>
    <trkpt lat="-27.68773231" lon="152.65395556"><ele>0.000</ele></trkpt>
    <trkpt lat="-27.68771729" lon="152.65401551"><ele>0.000</ele></trkpt>
    <trkpt lat="-27.68771056" lon="152.65407839"><ele>0.000</ele></trkpt>
    <trkpt lat="-27.68770697" lon="152.65414023"><ele>0.000</ele></trkpt>
    <trkpt lat="-27.68771288" lon="152.65422586"><ele>0.000</ele></trkpt>
    <trkpt lat="-27.68773517" lon="152.65432755"><ele>0.000</ele></trkpt>
    <trkpt lat="-27.68776023" lon="152.65439433"><ele>0.000</ele></trkpt>
    <trkpt lat="-27.68780936" lon="152.65448380"><ele>0.000</ele></trkpt>
    <trkpt lat="-27.68786494" lon="152.65454172"><ele>0.000</ele></trkpt>
    <trkpt lat="-27.68797892" lon="152.65463507"><ele>0.000</ele></trkpt>
    <trkpt lat="-27.68803399" lon="152.65466869"><ele>0.000</ele></trkpt>
    <trkpt lat="-27.68812094" lon="152.65470434"><ele>0.000</ele></trkpt>
    <trkpt lat="-27.68821182" lon="152.65472240"><ele>0.000</ele></trkpt>
    <trkpt lat="-27.68865879" lon="152.65471561"><ele>0.000</ele></trkpt>
    <trkpt lat="-27.68950651" lon="152.65470596"><ele>0.000</ele></trkpt>
    <trkpt lat="-27.68987120" lon="152.65469638"><ele>0.000</ele></trkpt>
    <trkpt lat="-27.69014306" lon="152.65469364"><ele>0.000</ele></trkpt>
    <trkpt lat="-27.69037932" lon="152.65468818"><ele>0.000</ele></trkpt>
    <trkpt lat="-27.69061895" lon="152.65468680"><ele>0.000</ele></trkpt>
  </trkseg></trk>
</gpx>
