<?xml version="1.0" encoding="UTF-8"?>
<gpx version="1.1" creator="Send-It DEM enrich">
  <trk><name>sandown</name><trkseg>
    <trkpt lat="-37.94934078" lon="145.16453160"><ele>46.000</ele></trkpt>
    <trkpt lat="-37.94935637" lon="145.16396634"><ele>47.000</ele></trkpt>
    <trkpt lat="-37.94935268" lon="145.16442344"><ele>45.000</ele></trkpt>
    <trkpt lat="-37.94989912" lon="145.16444741"><ele>47.000</ele></trkpt>
    <trkpt lat="-37.95043308" lon="145.16447226"><ele>47.000</ele></trkpt>
    <trkpt lat="-37.95095164" lon="145.16449797"><ele>44.000</ele></trkpt>
    <trkpt lat="-37.95155190" lon="145.16452715"><ele>47.000</ele></trkpt>
    <trkpt lat="-37.95241340" lon="145.16456841"><ele>50.000</ele></trkpt>
    <trkpt lat="-37.95311793" lon="145.16461253"><ele>48.000</ele></trkpt>
    <trkpt lat="-37.95477372" lon="145.16467979"><ele>45.000</ele></trkpt>
    <trkpt lat="-37.95528146" lon="145.16470125"><ele>51.000</ele></trkpt>
    <trkpt lat="-37.95539835" lon="145.16470959"><ele>52.000</ele></trkpt>
    <trkpt lat="-37.95548928" lon="145.16474031"><ele>52.000</ele></trkpt>
    <trkpt lat="-37.95555091" lon="145.16478610"><ele>53.000</ele></trkpt>
    <trkpt lat="-37.95559538" lon="145.16485017"><ele>53.000</ele></trkpt>
    <trkpt lat="-37.95562059" lon="145.16490037"><ele>52.000</ele></trkpt>
    <trkpt lat="-37.95563808" lon="145.16494734"><ele>52.000</ele></trkpt>
    <trkpt lat="-37.95565654" lon="145.16502249"><ele>51.000</ele></trkpt>
    <trkpt lat="-37.95581380" lon="145.16593741"><ele>46.000</ele></trkpt>
    <trkpt lat="-37.95601066" lon="145.16707754"><ele>39.000</ele></trkpt>
    <trkpt lat="-37.95604995" lon="145.16729538"><ele>40.000</ele></trkpt>
    <trkpt lat="-37.95607214" lon="145.16736051"><ele>40.000</ele></trkpt>
    <trkpt lat="-37.95610092" lon="145.16740582"><ele>40.000</ele></trkpt>
    <trkpt lat="-37.95613552" lon="145.16744420"><ele>40.000</ele></trkpt>
    <trkpt lat="-37.95616845" lon="145.16747151"><ele>40.000</ele></trkpt>
    <trkpt lat="-37.95620342" lon="145.16748753"><ele>40.000</ele></trkpt>
    <trkpt lat="-37.95625235" lon="145.16749627"><ele>41.000</ele></trkpt>
    <trkpt lat="-37.95633553" lon="145.16751375"><ele>41.000</ele></trkpt>
    <trkpt lat="-37.95640757" lon="145.16754960"><ele>41.000</ele></trkpt>
    <trkpt lat="-37.95644337" lon="145.16757788"><ele>41.000</ele></trkpt>
    <trkpt lat="-37.95646451" lon="145.16760693"><ele>42.000</ele></trkpt>
    <trkpt lat="-37.95648346" lon="145.16764745"><ele>42.000</ele></trkpt>
    <trkpt lat="-37.95649860" lon="145.16768818"><ele>42.000</ele></trkpt>
    <trkpt lat="-37.95652014" lon="145.16783345"><ele>43.000</ele></trkpt>
    <trkpt lat="-37.95656590" lon="145.16821103"><ele>44.000</ele></trkpt>
    <trkpt lat="-37.95657981" lon="145.16840795"><ele>45.000</ele></trkpt>
    <trkpt lat="-37.95658278" lon="145.16854142"><ele>45.000</ele></trkpt>
    <trkpt lat="-37.95657742" lon="145.16862785"><ele>45.000</ele></trkpt>
    <trkpt lat="-37.95655699" lon="145.16868085"><ele>45.000</ele></trkpt>
    <trkpt lat="-37.95653593" lon="145.16870145"><ele>45.000</ele></trkpt>
    <trkpt lat="-37.95651427" lon="145.16871143"><ele>44.000</ele></trkpt>
    <trkpt lat="-37.95648411" lon="145.16871188"><ele>44.000</ele></trkpt>
    <trkpt lat="-37.95544067" lon="145.16865817"><ele>44.000</ele></trkpt>
    <trkpt lat="-37.95471596" lon="145.16862255"><ele>41.000</ele></trkpt>
    <trkpt lat="-37.95427571" lon="145.16860205"><ele>42.000</ele></trkpt>
    <trkpt lat="-37.95414101" lon="145.16860083"><ele>42.000</ele></trkpt>
    <trkpt lat="-37.95403641" lon="145.16861862"><ele>42.000</ele></trkpt>
    <trkpt lat="-37.95376958" lon="145.16870084"><ele>43.000</ele></trkpt>
    <trkpt lat="-37.95324517" lon="145.16883726"><ele>43.000</ele></trkpt>
    <trkpt lat="-37.95177345" lon="145.16923113"><ele>46.000</ele></trkpt>
    <trkpt lat="-37.94977746" lon="145.16975798"><ele>56.000</ele></trkpt>
    <trkpt lat="-37.94850156" lon="145.17009677"><ele>56.000</ele></trkpt>
    <trkpt lat="-37.94767410" lon="145.17034787"><ele>56.000</ele></trkpt>
    <trkpt lat="-37.94733731" lon="145.17042082"><ele>54.000</ele></trkpt>
    <trkpt lat="-37.94722544" lon="145.17042946"><ele>53.000</ele></trkpt>
    <trkpt lat="-37.94715400" lon="145.17042393"><ele>54.000</ele></trkpt>
    <trkpt lat="-37.94706723" lon="145.17041335"><ele>55.000</ele></trkpt>
    <trkpt lat="-37.94698077" lon="145.17039134"><ele>55.000</ele></trkpt>
    <trkpt lat="-37.94690099" lon="145.17036813"><ele>56.000</ele></trkpt>
    <trkpt lat="-37.94679111" lon="145.17032534"><ele>57.000</ele></trkpt>
    <trkpt lat="-37.94671396" lon="145.17028130"><ele>58.000</ele></trkpt>
    <trkpt lat="-37.94662369" lon="145.17021201"><ele>58.000</ele></trkpt>
    <trkpt lat="-37.94648363" lon="145.17009446"><ele>58.000</ele></trkpt>
    <trkpt lat="-37.94625221" lon="145.16984657"><ele>58.000</ele></trkpt>
    <trkpt lat="-37.94615451" lon="145.16976512"><ele>57.000</ele></trkpt>
    <trkpt lat="-37.94609337" lon="145.16973208"><ele>56.000</ele></trkpt>
    <trkpt lat="-37.94603640" lon="145.16971125"><ele>56.000</ele></trkpt>
    <trkpt lat="-37.94596995" lon="145.16969745"><ele>55.000</ele></trkpt>
    <trkpt lat="-37.94590956" lon="145.16968891"><ele>55.000</ele></trkpt>
    <trkpt lat="-37.94583452" lon="145.16967416"><ele>55.000</ele></trkpt>
    <trkpt lat="-37.94577756" lon="145.16965535"><ele>54.000</ele></trkpt>
    <trkpt lat="-37.94570585" lon="145.16962235"><ele>54.000</ele></trkpt>
    <trkpt lat="-37.94563462" lon="145.16958538"><ele>54.000</ele></trkpt>
    <trkpt lat="-37.94556797" lon="145.16953344"><ele>53.000</ele></trkpt>
    <trkpt lat="-37.94511689" lon="145.16912722"><ele>53.000</ele></trkpt>
    <trkpt lat="-37.94509090" lon="145.16910539"><ele>53.000</ele></trkpt>
    <trkpt lat="-37.94506695" lon="145.16907593"><ele>53.000</ele></trkpt>
    <trkpt lat="-37.94505525" lon="145.16904445"><ele>53.000</ele></trkpt>
    <trkpt lat="-37.94505178" lon="145.16901984"><ele>53.000</ele></trkpt>
    <trkpt lat="-37.94505718" lon="145.16899542"><ele>53.000</ele></trkpt>
    <trkpt lat="-37.94506841" lon="145.16897105"><ele>53.000</ele></trkpt>
    <trkpt lat="-37.94529503" lon="145.16862827"><ele>55.000</ele></trkpt>
    <trkpt lat="-37.94547182" lon="145.16836316"><ele>55.000</ele></trkpt>
    <trkpt lat="-37.94560749" lon="145.16819508"><ele>55.000</ele></trkpt>
    <trkpt lat="-37.94579555" lon="145.16797597"><ele>54.000</ele></trkpt>
    <trkpt lat="-37.94583233" lon="145.16793714"><ele>53.000</ele></trkpt>
    <trkpt lat="-37.94601860" lon="145.16773100"><ele>52.000</ele></trkpt>
    <trkpt lat="-37.94608117" lon="145.16764915"><ele>52.000</ele></trkpt>
    <trkpt lat="-37.94616238" lon="145.16752064"><ele>51.000</ele></trkpt>
    <trkpt lat="-37.94624542" lon="145.16736411"><ele>51.000</ele></trkpt>
    <trkpt lat="-37.94659947" lon="145.16668204"><ele>50.000</ele></trkpt>
    <trkpt lat="-37.94684173" lon="145.16620963"><ele>48.000</ele></trkpt>
    <trkpt lat="-37.94704067" lon="145.16582971"><ele>47.000</ele></trkpt>
    <trkpt lat="-37.94709600" lon="145.16571566"><ele>47.000</ele></trkpt>
    <trkpt lat="-37.94710612" lon="145.16564904"><ele>47.000</ele></trkpt>
    <trkpt lat="-37.94710997" lon="145.16558985"><ele>46.000</ele></trkpt>
    <trkpt lat="-37.94710602" lon="145.16554200"><ele>46.000</ele></trkpt>
    <trkpt lat="-37.94709448" lon="145.16550170"><ele>46.000</ele></trkpt>
    <trkpt lat="-37.94698542" lon="145.16514533"><ele>45.000</ele></trkpt>
    <trkpt lat="-37.94696514" lon="145.16506987"><ele>46.000</ele></trkpt>
    <trkpt lat="-37.94696007" lon="145.16502526"><ele>46.000</ele></trkpt>
    <trkpt lat="-37.94696131" lon="145.16499301"><ele>46.000</ele></trkpt>
    <trkpt lat="-37.94696907" lon="145.16496438"><ele>46.000</ele></trkpt>
    <trkpt lat="-37.94698384" lon="145.16493420"><ele>46.000</ele></trkpt>
    <trkpt lat="-37.94699957" lon="145.16491664"><ele>46.000</ele></trkpt>
    <trkpt lat="-37.94701280" lon="145.16490359"><ele>46.000</ele></trkpt>
    <trkpt lat="-37.94730450" lon="145.16474976"><ele>45.000</ele></trkpt>
    <trkpt lat="-37.94753604" lon="145.16463284"><ele>45.000</ele></trkpt>
    <trkpt lat="-37.94801760" lon="145.16442147"><ele>44.000</ele></trkpt>
    <trkpt lat="-37.94810180" lon="145.16438512"><ele>44.000</ele></trkpt>
    <trkpt lat="-37.94820156" lon="145.16437102"><ele>44.000</ele></trkpt>
    <trkpt lat="-37.94834520" lon="145.16437306"><ele>44.000</ele></trkpt>
    <trkpt lat="-37.94888322" lon="145.16439889"><ele>43.000</ele></trkpt>
    <trkpt lat="-37.94935268" lon="145.16442344"><ele>45.000</ele></trkpt>
    <trkpt lat="-37.94935358" lon="145.16428412"><ele>46.000</ele></trkpt>
    <trkpt lat="-37.95091607" lon="145.16435681"><ele>45.000</ele></trkpt>
    <trkpt lat="-37.95195108" lon="145.16440763"><ele>51.000</ele></trkpt>
    <trkpt lat="-37.95279703" lon="145.16444078"><ele>50.000</ele></trkpt>
    <trkpt lat="-37.95381720" lon="145.16449189"><ele>46.000</ele></trkpt>
    <trkpt lat="-37.95476738" lon="145.16453755"><ele>46.000</ele></trkpt>
    <trkpt lat="-37.95531037" lon="145.16456925"><ele>52.000</ele></trkpt>
    <trkpt lat="-37.95543334" lon="145.16457750"><ele>53.000</ele></trkpt>
    <trkpt lat="-37.95550698" lon="145.16460575"><ele>53.000</ele></trkpt>
    <trkpt lat="-37.95556972" lon="145.16464347"><ele>53.000</ele></trkpt>
    <trkpt lat="-37.95561899" lon="145.16469143"><ele>53.000</ele></trkpt>
    <trkpt lat="-37.95565963" lon="145.16473339"><ele>53.000</ele></trkpt>
    <trkpt lat="-37.95569143" lon="145.16478509"><ele>53.000</ele></trkpt>
    <trkpt lat="-37.95571294" lon="145.16483025"><ele>53.000</ele></trkpt>
    <trkpt lat="-37.95573496" lon="145.16489952"><ele>52.000</ele></trkpt>
    <trkpt lat="-37.95574231" lon="145.16492438"><ele>52.000</ele></trkpt>
    <trkpt lat="-37.95583733" lon="145.16549399"><ele>47.000</ele></trkpt>
    <trkpt lat="-37.95612087" lon="145.16717724"><ele>40.000</ele></trkpt>
    <trkpt lat="-37.95613955" lon="145.16726721"><ele>40.000</ele></trkpt>
    <trkpt lat="-37.95615801" lon="145.16730921"><ele>40.000</ele></trkpt>
    <trkpt lat="-37.95616977" lon="145.16732907"><ele>40.000</ele></trkpt>
    <trkpt lat="-37.95618167" lon="145.16734439"><ele>40.000</ele></trkpt>
    <trkpt lat="-37.95619557" lon="145.16736129"><ele>40.000</ele></trkpt>
    <trkpt lat="-37.95621272" lon="145.16737405"><ele>40.000</ele></trkpt>
    <trkpt lat="-37.95624169" lon="145.16739114"><ele>40.000</ele></trkpt>
    <trkpt lat="-37.95627726" lon="145.16739744"><ele>41.000</ele></trkpt>
    <trkpt lat="-37.95632138" lon="145.16740424"><ele>41.000</ele></trkpt>
    <trkpt lat="-37.95637177" lon="145.16741211"><ele>41.000</ele></trkpt>
    <trkpt lat="-37.95639108" lon="145.16741887"><ele>41.000</ele></trkpt>
    <trkpt lat="-37.95641236" lon="145.16742870"><ele>41.000</ele></trkpt>
    <trkpt lat="-37.95644860" lon="145.16745249"><ele>41.000</ele></trkpt>
    <trkpt lat="-37.95648695" lon="145.16748342"><ele>41.000</ele></trkpt>
    <trkpt lat="-37.95651873" lon="145.16752305"><ele>42.000</ele></trkpt>
    <trkpt lat="-37.95654946" lon="145.16757278"><ele>42.000</ele></trkpt>
    <trkpt lat="-37.95656747" lon="145.16761739"><ele>42.000</ele></trkpt>
    <trkpt lat="-37.95658773" lon="145.16770801"><ele>42.000</ele></trkpt>
    <trkpt lat="-37.95663950" lon="145.16809934"><ele>44.000</ele></trkpt>
    <trkpt lat="-37.95666797" lon="145.16846135"><ele>45.000</ele></trkpt>
    <trkpt lat="-37.95666668" lon="145.16854153"><ele>45.000</ele></trkpt>
    <trkpt lat="-37.95666310" lon="145.16861052"><ele>45.000</ele></trkpt>
    <trkpt lat="-37.95665403" lon="145.16866403"><ele>45.000</ele></trkpt>
    <trkpt lat="-37.95664674" lon="145.16869858"><ele>45.000</ele></trkpt>
    <trkpt lat="-37.95663678" lon="145.16872059"><ele>45.000</ele></trkpt>
    <trkpt lat="-37.95661001" lon="145.16876233"><ele>45.000</ele></trkpt>
    <trkpt lat="-37.95657675" lon="145.16879463"><ele>45.000</ele></trkpt>
    <trkpt lat="-37.95653681" lon="145.16881229"><ele>45.000</ele></trkpt>
    <trkpt lat="-37.95646269" lon="145.16881871"><ele>44.000</ele></trkpt>
    <trkpt lat="-37.95628628" lon="145.16880842"><ele>43.000</ele></trkpt>
    <trkpt lat="-37.95597212" lon="145.16879085"><ele>42.000</ele></trkpt>
    <trkpt lat="-37.95547474" lon="145.16876713"><ele>43.000</ele></trkpt>
    <trkpt lat="-37.95472694" lon="145.16872852"><ele>41.000</ele></trkpt>
    <trkpt lat="-37.95424018" lon="145.16870627"><ele>42.000</ele></trkpt>
    <trkpt lat="-37.95416056" lon="145.16870511"><ele>42.000</ele></trkpt>
    <trkpt lat="-37.95410161" lon="145.16871453"><ele>42.000</ele></trkpt>
    <trkpt lat="-37.95392693" lon="145.16876589"><ele>43.000</ele></trkpt>
    <trkpt lat="-37.95322969" lon="145.16896433"><ele>44.000</ele></trkpt>
    <trkpt lat="-37.95248594" lon="145.16916191"><ele>48.000</ele></trkpt>
    <trkpt lat="-37.95184015" lon="145.16933178"><ele>46.000</ele></trkpt>
    <trkpt lat="-37.95136086" lon="145.16945923"><ele>47.000</ele></trkpt>
    <trkpt lat="-37.95075067" lon="145.16962123"><ele>52.000</ele></trkpt>
    <trkpt lat="-37.95030899" lon="145.16973744"><ele>54.000</ele></trkpt>
    <trkpt lat="-37.94974319" lon="145.16988791"><ele>57.000</ele></trkpt>
    <trkpt lat="-37.94920453" lon="145.17003351"><ele>55.000</ele></trkpt>
    <trkpt lat="-37.94860658" lon="145.17019054"><ele>57.000</ele></trkpt>
    <trkpt lat="-37.94798015" lon="145.17035726"><ele>56.000</ele></trkpt>
    <trkpt lat="-37.94750434" lon="145.17048442"><ele>56.000</ele></trkpt>
    <trkpt lat="-37.94739393" lon="145.17050796"><ele>55.000</ele></trkpt>
    <trkpt lat="-37.94729700" lon="145.17051946"><ele>54.000</ele></trkpt>
    <trkpt lat="-37.94722554" lon="145.17052355"><ele>53.000</ele></trkpt>
    <trkpt lat="-37.94714757" lon="145.17052170"><ele>54.000</ele></trkpt>
    <trkpt lat="-37.94706991" lon="145.17051072"><ele>54.000</ele></trkpt>
    <trkpt lat="-37.94701202" lon="145.17049529"><ele>55.000</ele></trkpt>
    <trkpt lat="-37.94688489" lon="145.17045727"><ele>56.000</ele></trkpt>
    <trkpt lat="-37.94677464" lon="145.17041446"><ele>57.000</ele></trkpt>
    <trkpt lat="-37.94671309" lon="145.17038261"><ele>58.000</ele></trkpt>
    <trkpt lat="-37.94662520" lon="145.17032199"><ele>58.000</ele></trkpt>
    <trkpt lat="-37.94650493" lon="145.17022544"><ele>59.000</ele></trkpt>
    <trkpt lat="-37.94641626" lon="145.17014606"><ele>59.000</ele></trkpt>
    <trkpt lat="-37.94624545" lon="145.16995908"><ele>58.000</ele></trkpt>
    <trkpt lat="-37.94619526" lon="145.16991070"><ele>58.000</ele></trkpt>
    <trkpt lat="-37.94614996" lon="145.16987330"><ele>58.000</ele></trkpt>
    <trkpt lat="-37.94611076" lon="145.16984843"><ele>57.000</ele></trkpt>
    <trkpt lat="-37.94605523" lon="145.16982174"><ele>57.000</ele></trkpt>
    <trkpt lat="-37.94599829" lon="145.16980436"><ele>56.000</ele></trkpt>
    <trkpt lat="-37.94583550" lon="145.16977312"><ele>56.000</ele></trkpt>
    <trkpt lat="-37.94573000" lon="145.16973904"><ele>55.000</ele></trkpt>
    <trkpt lat="-37.94563218" lon="145.16970036"><ele>54.000</ele></trkpt>
    <trkpt lat="-37.94557589" lon="145.16966592"><ele>54.000</ele></trkpt>
    <trkpt lat="-37.94545090" lon="145.16956113"><ele>53.000</ele></trkpt>
    <trkpt lat="-37.94532770" lon="145.16945094"><ele>53.000</ele></trkpt>
    <trkpt lat="-37.94515502" lon="145.16929401"><ele>53.000</ele></trkpt>
    <trkpt lat="-37.94500916" lon="145.16915859"><ele>52.000</ele></trkpt>
    <trkpt lat="-37.94498471" lon="145.16911659"><ele>52.000</ele></trkpt>
    <trkpt lat="-37.94497738" lon="145.16909548"><ele>52.000</ele></trkpt>
    <trkpt lat="-37.94497158" lon="145.16907564"><ele>52.000</ele></trkpt>
    <trkpt lat="-37.94496794" lon="145.16904909"><ele>52.000</ele></trkpt>
    <trkpt lat="-37.94496861" lon="145.16901890"><ele>52.000</ele></trkpt>
    <trkpt lat="-37.94497033" lon="145.16899629"><ele>53.000</ele></trkpt>
    <trkpt lat="-37.94497397" lon="145.16897726"><ele>53.000</ele></trkpt>
    <trkpt lat="-37.94497985" lon="145.16895158"><ele>53.000</ele></trkpt>
    <trkpt lat="-37.94499362" lon="145.16892138"><ele>53.000</ele></trkpt>
    <trkpt lat="-37.94501315" lon="145.16888945"><ele>53.000</ele></trkpt>
    <trkpt lat="-37.94516864" lon="145.16865390"><ele>55.000</ele></trkpt>
    <trkpt lat="-37.94534164" lon="145.16839475"><ele>56.000</ele></trkpt>
    <trkpt lat="-37.94539829" lon="145.16830865"><ele>56.000</ele></trkpt>
    <trkpt lat="-37.94554735" lon="145.16811867"><ele>55.000</ele></trkpt>
    <trkpt lat="-37.94567384" lon="145.16796664"><ele>54.000</ele></trkpt>
    <trkpt lat="-37.94593206" lon="145.16768783"><ele>52.000</ele></trkpt>
    <trkpt lat="-37.94601092" lon="145.16758918"><ele>51.000</ele></trkpt>
    <trkpt lat="-37.94604923" lon="145.16753222"><ele>51.000</ele></trkpt>
    <trkpt lat="-37.94608084" lon="145.16747782"><ele>51.000</ele></trkpt>
    <trkpt lat="-37.94611708" lon="145.16741647"><ele>51.000</ele></trkpt>
    <trkpt lat="-37.94626377" lon="145.16713415"><ele>50.000</ele></trkpt>
    <trkpt lat="-37.94643284" lon="145.16680709"><ele>50.000</ele></trkpt>
    <trkpt lat="-37.94664739" lon="145.16639029"><ele>49.000</ele></trkpt>
    <trkpt lat="-37.94690503" lon="145.16589408"><ele>47.000</ele></trkpt>
    <trkpt lat="-37.94700497" lon="145.16569969"><ele>47.000</ele></trkpt>
    <trkpt lat="-37.94702130" lon="145.16565425"><ele>46.000</ele></trkpt>
    <trkpt lat="-37.94702491" lon="145.16562232"><ele>46.000</ele></trkpt>
    <trkpt lat="-37.94702533" lon="145.16560394"><ele>46.000</ele></trkpt>
    <trkpt lat="-37.94702467" lon="145.16558449"><ele>46.000</ele></trkpt>
    <trkpt lat="-37.94702141" lon="145.16556009"><ele>46.000</ele></trkpt>
    <trkpt lat="-37.94699389" lon="145.16546980"><ele>46.000</ele></trkpt>
    <trkpt lat="-37.94690896" lon="145.16518805"><ele>46.000</ele></trkpt>
    <trkpt lat="-37.94686448" lon="145.16503968"><ele>46.000</ele></trkpt>
    <trkpt lat="-37.94685834" lon="145.16498355"><ele>47.000</ele></trkpt>
    <trkpt lat="-37.94686121" lon="145.16494524"><ele>47.000</ele></trkpt>
    <trkpt lat="-37.94686759" lon="145.16491863"><ele>47.000</ele></trkpt>
    <trkpt lat="-37.94687950" lon="145.16489005"><ele>47.000</ele></trkpt>
    <trkpt lat="-37.94689349" lon="145.16486965"><ele>47.000</ele></trkpt>
    <trkpt lat="-37.94692004" lon="145.16484331"><ele>47.000</ele></trkpt>
    <trkpt lat="-37.94706203" lon="145.16474734"><ele>46.000</ele></trkpt>
    <trkpt lat="-37.94711183" lon="145.16473322"><ele>46.000</ele></trkpt>
    <trkpt lat="-37.94720297" lon="145.16468394"><ele>45.000</ele></trkpt>
    <trkpt lat="-37.94758917" lon="145.16447758"><ele>45.000</ele></trkpt>
    <trkpt lat="-37.94781578" lon="145.16435316"><ele>46.000</ele></trkpt>
    <trkpt lat="-37.94790762" lon="145.16431412"><ele>45.000</ele></trkpt>
    <trkpt lat="-37.94805033" lon="145.16427221"><ele>45.000</ele></trkpt>
    <trkpt lat="-37.94820479" lon="145.16424097"><ele>45.000</ele></trkpt>
    <trkpt lat="-37.94828910" lon="145.16423307"><ele>45.000</ele></trkpt>
    <trkpt lat="-37.94835506" lon="145.16423489"><ele>44.000</ele></trkpt>
    <trkpt lat="-37.94864470" lon="145.16424760"><ele>43.000</ele></trkpt>
    <trkpt lat="-37.94935358" lon="145.16428412"><ele>46.000</ele></trkpt>
  </trkseg></trk>
</gpx>
