<?xml version="1.0" encoding="UTF-8"?>
<gpx version="1.1" creator="Send-It tkk-to-gpx (Harry's LapTimer .tkk)">
  <trk><name>silverstone</name><trkseg>
    <trkpt lat="52.07886250" lon="-1.01523480"></trkpt>
    <trkpt lat="52.07891880" lon="-1.01415520"></trkpt>
    <trkpt lat="52.07896800" lon="-1.01296320"></trkpt>
    <trkpt lat="52.07896020" lon="-1.01262520"></trkpt>
    <trkpt lat="52.07892640" lon="-1.01231110"></trkpt>
    <trkpt lat="52.07887030" lon="-1.01201960"></trkpt>
    <trkpt lat="52.07880780" lon="-1.01180030"></trkpt>
    <trkpt lat="52.07872640" lon="-1.01159670"></trkpt>
    <trkpt lat="52.07862790" lon="-1.01140790"></trkpt>
    <trkpt lat="52.07851200" lon="-1.01123840"></trkpt>
    <trkpt lat="52.07833910" lon="-1.01105040"></trkpt>
    <trkpt lat="52.07814380" lon="-1.01088590"></trkpt>
    <trkpt lat="52.07793230" lon="-1.01075210"></trkpt>
    <trkpt lat="52.07770080" lon="-1.01064320"></trkpt>
    <trkpt lat="52.07729380" lon="-1.01050850"></trkpt>
    <trkpt lat="52.07690350" lon="-1.01042200"></trkpt>
    <trkpt lat="52.07648790" lon="-1.01037140"></trkpt>
    <trkpt lat="52.07490560" lon="-1.01029680"></trkpt>
    <trkpt lat="52.07447070" lon="-1.01016940"></trkpt>
    <trkpt lat="52.07402160" lon="-1.00994240"></trkpt>
    <trkpt lat="52.07363460" lon="-1.00968250"></trkpt>
    <trkpt lat="52.07346410" lon="-1.00960570"></trkpt>
    <trkpt lat="52.07341070" lon="-1.00959300"></trkpt>
    <trkpt lat="52.07335890" lon="-1.00958920"></trkpt>
    <trkpt lat="52.07329750" lon="-1.00959490"></trkpt>
    <trkpt lat="52.07323880" lon="-1.00961050"></trkpt>
    <trkpt lat="52.07319610" lon="-1.00963180"></trkpt>
    <trkpt lat="52.07315730" lon="-1.00966140"></trkpt>
    <trkpt lat="52.07311130" lon="-1.00971150"></trkpt>
    <trkpt lat="52.07306910" lon="-1.00977130"></trkpt>
    <trkpt lat="52.07302900" lon="-1.00984190"></trkpt>
    <trkpt lat="52.07299560" lon="-1.00991640"></trkpt>
    <trkpt lat="52.07297280" lon="-1.00998400"></trkpt>
    <trkpt lat="52.07295520" lon="-1.01005570"></trkpt>
    <trkpt lat="52.07293750" lon="-1.01015680"></trkpt>
    <trkpt lat="52.07292550" lon="-1.01026230"></trkpt>
    <trkpt lat="52.07292040" lon="-1.01035540"></trkpt>
    <trkpt lat="52.07292070" lon="-1.01045130"></trkpt>
    <trkpt lat="52.07294100" lon="-1.01071120"></trkpt>
    <trkpt lat="52.07299260" lon="-1.01098960"></trkpt>
    <trkpt lat="52.07307560" lon="-1.01128920"></trkpt>
    <trkpt lat="52.07318960" lon="-1.01160170"></trkpt>
    <trkpt lat="52.07339080" lon="-1.01204850"></trkpt>
    <trkpt lat="52.07362950" lon="-1.01250310"></trkpt>
    <trkpt lat="52.07542400" lon="-1.01556460"></trkpt>
    <trkpt lat="52.07604760" lon="-1.01664300"></trkpt>
    <trkpt lat="52.07680630" lon="-1.01803420"></trkpt>
    <trkpt lat="52.07700130" lon="-1.01846310"></trkpt>
    <trkpt lat="52.07706390" lon="-1.01865610"></trkpt>
    <trkpt lat="52.07710840" lon="-1.01883080"></trkpt>
    <trkpt lat="52.07712600" lon="-1.01892000"></trkpt>
    <trkpt lat="52.07713580" lon="-1.01900820"></trkpt>
    <trkpt lat="52.07714020" lon="-1.01916070"></trkpt>
    <trkpt lat="52.07713310" lon="-1.01932270"></trkpt>
    <trkpt lat="52.07711380" lon="-1.01947380"></trkpt>
    <trkpt lat="52.07708490" lon="-1.01961410"></trkpt>
    <trkpt lat="52.07705710" lon="-1.01970940"></trkpt>
    <trkpt lat="52.07702290" lon="-1.01979550"></trkpt>
    <trkpt lat="52.07698380" lon="-1.01987150"></trkpt>
    <trkpt lat="52.07693600" lon="-1.01994300"></trkpt>
    <trkpt lat="52.07686940" lon="-1.02002110"></trkpt>
    <trkpt lat="52.07679200" lon="-1.02009000"></trkpt>
    <trkpt lat="52.07671260" lon="-1.02013790"></trkpt>
    <trkpt lat="52.07661910" lon="-1.02017760"></trkpt>
    <trkpt lat="52.07622780" lon="-1.02028520"></trkpt>
    <trkpt lat="52.07616120" lon="-1.02031880"></trkpt>
    <trkpt lat="52.07610890" lon="-1.02035600"></trkpt>
    <trkpt lat="52.07606620" lon="-1.02039580"></trkpt>
    <trkpt lat="52.07602900" lon="-1.02044040"></trkpt>
    <trkpt lat="52.07599380" lon="-1.02049300"></trkpt>
    <trkpt lat="52.07596320" lon="-1.02055010"></trkpt>
    <trkpt lat="52.07593580" lon="-1.02061380"></trkpt>
    <trkpt lat="52.07591350" lon="-1.02068090"></trkpt>
    <trkpt lat="52.07589650" lon="-1.02075230"></trkpt>
    <trkpt lat="52.07588530" lon="-1.02082580"></trkpt>
    <trkpt lat="52.07587990" lon="-1.02090280"></trkpt>
    <trkpt lat="52.07588040" lon="-1.02098080"></trkpt>
    <trkpt lat="52.07588700" lon="-1.02105980"></trkpt>
    <trkpt lat="52.07589930" lon="-1.02113820"></trkpt>
    <trkpt lat="52.07591700" lon="-1.02121510"></trkpt>
    <trkpt lat="52.07594020" lon="-1.02128960"></trkpt>
    <trkpt lat="52.07596770" lon="-1.02135860"></trkpt>
    <trkpt lat="52.07600050" lon="-1.02142310"></trkpt>
    <trkpt lat="52.07603700" lon="-1.02147880"></trkpt>
    <trkpt lat="52.07607840" lon="-1.02152850"></trkpt>
    <trkpt lat="52.07612190" lon="-1.02156940"></trkpt>
    <trkpt lat="52.07616930" lon="-1.02160260"></trkpt>
    <trkpt lat="52.07621820" lon="-1.02162570"></trkpt>
    <trkpt lat="52.07626970" lon="-1.02163960"></trkpt>
    <trkpt lat="52.07632300" lon="-1.02164230"></trkpt>
    <trkpt lat="52.07637890" lon="-1.02163580"></trkpt>
    <trkpt lat="52.07652370" lon="-1.02158970"></trkpt>
    <trkpt lat="52.07673770" lon="-1.02146200"></trkpt>
    <trkpt lat="52.07716900" lon="-1.02110820"></trkpt>
    <trkpt lat="52.07741320" lon="-1.02087970"></trkpt>
    <trkpt lat="52.07761860" lon="-1.02065100"></trkpt>
    <trkpt lat="52.07781770" lon="-1.02038420"></trkpt>
    <trkpt lat="52.07800310" lon="-1.02008130"></trkpt>
    <trkpt lat="52.07817190" lon="-1.01974460"></trkpt>
    <trkpt lat="52.07832540" lon="-1.01937720"></trkpt>
    <trkpt lat="52.07843310" lon="-1.01906540"></trkpt>
    <trkpt lat="52.07852350" lon="-1.01873940"></trkpt>
    <trkpt lat="52.07861140" lon="-1.01831180"></trkpt>
    <trkpt lat="52.07868920" lon="-1.01777280"></trkpt>
    <trkpt lat="52.07875560" lon="-1.01710800"></trkpt>
    <trkpt lat="52.07881240" lon="-1.01619840"></trkpt>
    <trkpt lat="52.07885090" lon="-1.01545650"></trkpt>
    <trkpt lat="52.07886250" lon="-1.01523480"></trkpt>
  </trkseg></trk>
</gpx>
