<?xml version='1.0' encoding='utf-8'?>
<gpx version="1.1" creator="Australian Track GeoJSON to GPX converter" xmlns="http://www.topografix.com/GPX/1/1" xmlns:xsi="http://www.w3.org/2001/XMLSchema-instance" xsi:schemaLocation="http://www.topografix.com/GPX/1/1 http://www.topografix.com/GPX/1/1/gpx.xsd"><metadata><name>Sydney Motorsport Park - GP</name><desc>Race circuit layout centreline; no geofence data.</desc><link href="https://docs.emtronaustralia.com.au/tracks/AUS/Sydney%20Motorsport%20Park%20-%20GP.geojson" /></metadata><trk><name>Sydney Motorsport Park - GP segment 1</name><trkseg><trkpt lat="-33.80363412" lon="150.87097247"><ele>55.517</ele></trkpt><trkpt lat="-33.80385707" lon="150.87091478"><ele>55.332</ele></trkpt></trkseg></trk><trk><name>Sydney Motorsport Park - GP segment 2</name><trkseg><trkpt lat="-33.80363619" lon="150.87097132"><ele>55.516</ele></trkpt><trkpt lat="-33.80385772" lon="150.87091390"><ele>55.336</ele></trkpt></trkseg></trk><trk><name>Sydney Motorsport Park - GP segment 3</name><trkseg><trkpt lat="-33.80546106" lon="150.86823387"><ele>60.587</ele></trkpt><trkpt lat="-33.80582119" lon="150.86820831"><ele>60.496</ele></trkpt></trkseg></trk><trk><name>Sydney Motorsport Park - GP segment 4</name><trkseg><trkpt lat="-33.80490321" lon="150.87203274"><ele>57.614</ele></trkpt><trkpt lat="-33.80518609" lon="150.87204758"><ele>57.704</ele></trkpt></trkseg></trk><trk><name>Sydney Motorsport Park - GP segment 5</name><trkseg><trkpt lat="-33.80489159" lon="150.87666578"><ele>71.123</ele></trkpt><trkpt lat="-33.80461441" lon="150.87674441"><ele>71.686</ele></trkpt></trkseg></trk><trk><name>Sydney Motorsport Park - GP segment 6</name><trkseg><trkpt lat="-33.80316815" lon="150.86844126"><ele>53.040</ele></trkpt><trkpt lat="-33.80342905" lon="150.86838483"><ele>53.246</ele></trkpt></trkseg></trk><trk><name>Sydney Motorsport Park - GP segment 7</name><trkseg><trkpt lat="-33.80459124" lon="150.86570530"><ele>51.760</ele></trkpt><trkpt lat="-33.80469625" lon="150.86606085"><ele>52.003</ele></trkpt></trkseg></trk><trk><name>Sydney Motorsport Park - GP segment 8</name><trkseg><trkpt lat="-33.80698043" lon="150.86536537"><ele>54.628</ele></trkpt><trkpt lat="-33.80688183" lon="150.86497740"><ele>54.430</ele></trkpt></trkseg></trk><trk><name>Sydney Motorsport Park - GP segment 9</name><trkseg><trkpt lat="-33.80699510" lon="150.86588812"><ele>58.863</ele></trkpt><trkpt lat="-33.80695053" lon="150.86623443"><ele>59.313</ele></trkpt></trkseg></trk><trk><name>Sydney Motorsport Park - GP segment 10</name><trkseg><trkpt lat="-33.80541758" lon="150.86714101"><ele>58.948</ele></trkpt><trkpt lat="-33.80575110" lon="150.86713188"><ele>58.993</ele></trkpt></trkseg></trk><trk><name>Sydney Motorsport Park - GP segment 11</name><trkseg><trkpt lat="-33.80555093" lon="150.86950865"><ele>55.092</ele></trkpt><trkpt lat="-33.80584708" lon="150.86946775"><ele>54.959</ele></trkpt></trkseg></trk><trk><name>Sydney Motorsport Park - GP segment 12</name><trkseg><trkpt lat="-33.80659399" lon="150.87043289"><ele>58.793</ele></trkpt><trkpt lat="-33.80655268" lon="150.87004639"><ele>58.194</ele></trkpt></trkseg></trk><trk><name>Sydney Motorsport Park - GP segment 13</name><trkseg><trkpt lat="-33.80763405" lon="150.87005220"><ele>58.172</ele></trkpt><trkpt lat="-33.80754592" lon="150.86968875"><ele>58.748</ele></trkpt></trkseg></trk><trk><name>Sydney Motorsport Park - GP segment 14</name><trkseg><trkpt lat="-33.80834453" lon="150.87028378"><ele>62.686</ele></trkpt><trkpt lat="-33.80803544" lon="150.87038053"><ele>62.127</ele></trkpt></trkseg></trk><trk><name>Sydney Motorsport Park - GP segment 15</name><trkseg><trkpt lat="-33.80865570" lon="150.87335260"><ele>70.723</ele></trkpt><trkpt lat="-33.80897986" lon="150.87327241"><ele>70.793</ele></trkpt></trkseg></trk><trk><name>Sydney Motorsport Park - GP segment 16</name><trkseg><trkpt lat="-33.80864205" lon="150.87340783"><ele>71.163</ele></trkpt><trkpt lat="-33.80883046" lon="150.87377329"><ele>71.543</ele></trkpt></trkseg></trk><trk><name>Sydney Motorsport Park - GP segment 17</name><trkseg><trkpt lat="-33.80684230" lon="150.87399946"><ele>74.652</ele></trkpt><trkpt lat="-33.80681043" lon="150.87365190"><ele>74.338</ele></trkpt></trkseg></trk><trk><name>Sydney Motorsport Park - GP segment 18</name><trkseg><trkpt lat="-33.80565502" lon="150.87294867"><ele>67.869</ele></trkpt><trkpt lat="-33.80605070" lon="150.87288299"><ele>67.879</ele></trkpt></trkseg></trk><trk><name>Sydney Motorsport Park - GP segment 19</name><trkseg><trkpt lat="-33.80585042" lon="150.87140773"><ele>61.837</ele></trkpt><trkpt lat="-33.80548933" lon="150.87145373"><ele>61.500</ele></trkpt></trkseg></trk><trk><name>Sydney Motorsport Park - GP segment 20</name><trkseg><trkpt lat="-33.80522390" lon="150.87147200"><ele>57.606</ele></trkpt><trkpt lat="-33.80490352" lon="150.87145437"><ele>57.954</ele></trkpt></trkseg></trk><trk><name>Sydney Motorsport Park - GP segment 21</name><trkseg><trkpt lat="-33.80484899" lon="150.87469214"><ele>62.441</ele></trkpt><trkpt lat="-33.80517316" lon="150.87466891"><ele>62.070</ele></trkpt></trkseg></trk><trk><name>Sydney Motorsport Park - GP segment 22</name><trkseg><trkpt lat="-33.80566571" lon="150.87561191"><ele>66.385</ele></trkpt><trkpt lat="-33.80545583" lon="150.87597058"><ele>66.367</ele></trkpt></trkseg></trk><trk><name>Sydney Motorsport Park - GP segment 23</name><trkseg><trkpt lat="-33.80559828" lon="150.87697649"><ele>69.732</ele></trkpt><trkpt lat="-33.80587801" lon="150.87711980"><ele>70.373</ele></trkpt></trkseg></trk><trk><name>Sydney Motorsport Park - GP segment 24</name><trkseg><trkpt lat="-33.80369508" lon="150.87095634"><ele>55.512</ele></trkpt><trkpt lat="-33.80349830" lon="150.86980292"><ele>54.164</ele></trkpt><trkpt lat="-33.80327616" lon="150.86849866"><ele>53.076</ele></trkpt><trkpt lat="-33.80326514" lon="150.86842190"><ele>52.996</ele></trkpt><trkpt lat="-33.80326112" lon="150.86839231"><ele>52.969</ele></trkpt><trkpt lat="-33.80325686" lon="150.86835336"><ele>52.840</ele></trkpt><trkpt lat="-33.80325306" lon="150.86829819"><ele>52.836</ele></trkpt><trkpt lat="-33.80325123" lon="150.86826067"><ele>52.840</ele></trkpt><trkpt lat="-33.80325010" lon="150.86819500"><ele>52.824</ele></trkpt><trkpt lat="-33.80324869" lon="150.86814674"><ele>52.783</ele></trkpt><trkpt lat="-33.80324779" lon="150.86810283"><ele>52.787</ele></trkpt><trkpt lat="-33.80324869" lon="150.86806287"><ele>52.783</ele></trkpt><trkpt lat="-33.80324974" lon="150.86802514"><ele>52.793</ele></trkpt><trkpt lat="-33.80325137" lon="150.86797253"><ele>52.688</ele></trkpt><trkpt lat="-33.80325237" lon="150.86793391"><ele>52.612</ele></trkpt><trkpt lat="-33.80325496" lon="150.86788948"><ele>52.510</ele></trkpt><trkpt lat="-33.80325821" lon="150.86785907"><ele>52.302</ele></trkpt><trkpt lat="-33.80326046" lon="150.86782947"><ele>52.267</ele></trkpt><trkpt lat="-33.80326493" lon="150.86780247"><ele>52.232</ele></trkpt><trkpt lat="-33.80326412" lon="150.86780325"><ele>52.179</ele></trkpt><trkpt lat="-33.80328045" lon="150.86767276"><ele>51.946</ele></trkpt><trkpt lat="-33.80329526" lon="150.86757880"><ele>51.854</ele></trkpt><trkpt lat="-33.80331013" lon="150.86749659"><ele>51.874</ele></trkpt><trkpt lat="-33.80333345" lon="150.86738777"><ele>51.878</ele></trkpt><trkpt lat="-33.80334230" lon="150.86734665"><ele>51.802</ele></trkpt><trkpt lat="-33.80335346" lon="150.86730094"><ele>51.709</ele></trkpt><trkpt lat="-33.80338138" lon="150.86721130"><ele>51.461</ele></trkpt><trkpt lat="-33.80341772" lon="150.86711864"><ele>51.356</ele></trkpt><trkpt lat="-33.80344693" lon="150.86705048"><ele>51.315</ele></trkpt><trkpt lat="-33.80353205" lon="150.86687420"><ele>51.279</ele></trkpt><trkpt lat="-33.80362904" lon="150.86670257"><ele>51.074</ele></trkpt><trkpt lat="-33.80368653" lon="150.86661670"><ele>51.225</ele></trkpt><trkpt lat="-33.80373831" lon="150.86654814"><ele>50.975</ele></trkpt><trkpt lat="-33.80378808" lon="150.86648453"><ele>50.868</ele></trkpt><trkpt lat="-33.80385725" lon="150.86639827"><ele>50.810</ele></trkpt><trkpt lat="-33.80390993" lon="150.86634392"><ele>50.785</ele></trkpt><trkpt lat="-33.80397427" lon="150.86626745"><ele>50.765</ele></trkpt><trkpt lat="-33.80404680" lon="150.86621638"><ele>50.765</ele></trkpt><trkpt lat="-33.80410336" lon="150.86617673"><ele>50.765</ele></trkpt><trkpt lat="-33.80415470" lon="150.86613933"><ele>50.727</ele></trkpt><trkpt lat="-33.80422409" lon="150.86608988"><ele>50.927</ele></trkpt><trkpt lat="-33.80429592" lon="150.86604832"><ele>51.111</ele></trkpt><trkpt lat="-33.80435421" lon="150.86601544"><ele>51.216</ele></trkpt><trkpt lat="-33.80442731" lon="150.86597743"><ele>51.314</ele></trkpt><trkpt lat="-33.80451221" lon="150.86593699"><ele>51.727</ele></trkpt><trkpt lat="-33.80458582" lon="150.86591001"><ele>51.701</ele></trkpt><trkpt lat="-33.80466433" lon="150.86588260"><ele>51.786</ele></trkpt><trkpt lat="-33.80473311" lon="150.86586198"><ele>51.658</ele></trkpt><trkpt lat="-33.80477801" lon="150.86584748"><ele>51.749</ele></trkpt><trkpt lat="-33.80486070" lon="150.86582068"><ele>52.026</ele></trkpt><trkpt lat="-33.80493725" lon="150.86579351"><ele>52.320</ele></trkpt><trkpt lat="-33.80500437" lon="150.86577153"><ele>52.474</ele></trkpt><trkpt lat="-33.80506391" lon="150.86574916"><ele>52.749</ele></trkpt><trkpt lat="-33.80599460" lon="150.86542436"><ele>52.970</ele></trkpt><trkpt lat="-33.80692449" lon="150.86510486"><ele>54.475</ele></trkpt><trkpt lat="-33.80697217" lon="150.86509078"><ele>54.575</ele></trkpt><trkpt lat="-33.80703717" lon="150.86508823"><ele>54.739</ele></trkpt><trkpt lat="-33.80709380" lon="150.86509993"><ele>54.966</ele></trkpt><trkpt lat="-33.80714483" lon="150.86511857"><ele>55.047</ele></trkpt><trkpt lat="-33.80719812" lon="150.86515244"><ele>55.111</ele></trkpt><trkpt lat="-33.80723136" lon="150.86518233"><ele>55.149</ele></trkpt><trkpt lat="-33.80725975" lon="150.86521357"><ele>55.205</ele></trkpt><trkpt lat="-33.80728909" lon="150.86525185"><ele>55.360</ele></trkpt><trkpt lat="-33.80732698" lon="150.86530883"><ele>55.763</ele></trkpt><trkpt lat="-33.80735379" lon="150.86535689"><ele>56.089</ele></trkpt><trkpt lat="-33.80737628" lon="150.86540384"><ele>56.248</ele></trkpt><trkpt lat="-33.80738964" lon="150.86543953"><ele>56.322</ele></trkpt><trkpt lat="-33.80740407" lon="150.86548110"><ele>56.625</ele></trkpt><trkpt lat="-33.80741538" lon="150.86552163"><ele>56.883</ele></trkpt><trkpt lat="-33.80742362" lon="150.86556704"><ele>57.087</ele></trkpt><trkpt lat="-33.80742411" lon="150.86561792"><ele>57.181</ele></trkpt><trkpt lat="-33.80742200" lon="150.86567060"><ele>57.458</ele></trkpt><trkpt lat="-33.80741431" lon="150.86572010"><ele>57.696</ele></trkpt><trkpt lat="-33.80740549" lon="150.86576404"><ele>57.901</ele></trkpt><trkpt lat="-33.80739671" lon="150.86580535"><ele>58.125</ele></trkpt><trkpt lat="-33.80738103" lon="150.86585182"><ele>58.277</ele></trkpt><trkpt lat="-33.80735929" lon="150.86589318"><ele>58.390</ele></trkpt><trkpt lat="-33.80733846" lon="150.86593329"><ele>58.400</ele></trkpt><trkpt lat="-33.80730499" lon="150.86597383"><ele>58.489</ele></trkpt><trkpt lat="-33.80727186" lon="150.86601131"><ele>58.623</ele></trkpt><trkpt lat="-33.80723049" lon="150.86604531"><ele>58.756</ele></trkpt><trkpt lat="-33.80719416" lon="150.86607040"><ele>58.884</ele></trkpt><trkpt lat="-33.80715345" lon="150.86609443"><ele>59.019</ele></trkpt><trkpt lat="-33.80710734" lon="150.86611096"><ele>59.227</ele></trkpt><trkpt lat="-33.80706008" lon="150.86612041"><ele>59.350</ele></trkpt><trkpt lat="-33.80701269" lon="150.86612453"><ele>59.366</ele></trkpt><trkpt lat="-33.80695768" lon="150.86611924"><ele>59.292</ele></trkpt><trkpt lat="-33.80689758" lon="150.86610817"><ele>59.209</ele></trkpt><trkpt lat="-33.80663508" lon="150.86604907"><ele>58.601</ele></trkpt><trkpt lat="-33.80656317" lon="150.86603564"><ele>58.459</ele></trkpt><trkpt lat="-33.80651360" lon="150.86603195"><ele>58.465</ele></trkpt><trkpt lat="-33.80647413" lon="150.86603123"><ele>58.346</ele></trkpt><trkpt lat="-33.80643323" lon="150.86603301"><ele>58.474</ele></trkpt><trkpt lat="-33.80638961" lon="150.86603871"><ele>58.405</ele></trkpt><trkpt lat="-33.80634052" lon="150.86604609"><ele>58.298</ele></trkpt><trkpt lat="-33.80630037" lon="150.86605368"><ele>58.182</ele></trkpt><trkpt lat="-33.80625918" lon="150.86606589"><ele>58.024</ele></trkpt><trkpt lat="-33.80620976" lon="150.86608274"><ele>57.789</ele></trkpt><trkpt lat="-33.80617221" lon="150.86610093"><ele>57.659</ele></trkpt><trkpt lat="-33.80613627" lon="150.86611713"><ele>57.571</ele></trkpt><trkpt lat="-33.80609561" lon="150.86614036"><ele>57.510</ele></trkpt><trkpt lat="-33.80606106" lon="150.86616355"><ele>57.429</ele></trkpt><trkpt lat="-33.80601376" lon="150.86619915"><ele>57.392</ele></trkpt><trkpt lat="-33.80597163" lon="150.86623315"><ele>57.255</ele></trkpt><trkpt lat="-33.80593283" lon="150.86627114"><ele>57.370</ele></trkpt><trkpt lat="-33.80590359" lon="150.86629963"><ele>57.509</ele></trkpt><trkpt lat="-33.80588076" lon="150.86632841"><ele>57.502</ele></trkpt><trkpt lat="-33.80585380" lon="150.86636107"><ele>57.564</ele></trkpt><trkpt lat="-33.80582612" lon="150.86639967"><ele>57.564</ele></trkpt><trkpt lat="-33.80579575" lon="150.86644382"><ele>57.591</ele></trkpt><trkpt lat="-33.80577182" lon="150.86648672"><ele>57.687</ele></trkpt><trkpt lat="-33.80574554" lon="150.86653033"><ele>57.617</ele></trkpt><trkpt lat="-33.80572403" lon="150.86658189"><ele>57.714</ele></trkpt><trkpt lat="-33.80570376" lon="150.86663173"><ele>57.806</ele></trkpt><trkpt lat="-33.80568482" lon="150.86668339"><ele>57.893</ele></trkpt><trkpt lat="-33.80566924" lon="150.86673790"><ele>57.997</ele></trkpt><trkpt lat="-33.80565680" lon="150.86680361"><ele>58.232</ele></trkpt><trkpt lat="-33.80564647" lon="150.86684996"><ele>58.368</ele></trkpt><trkpt lat="-33.80563906" lon="150.86690491"><ele>58.466</ele></trkpt><trkpt lat="-33.80563277" lon="150.86696987"><ele>58.518</ele></trkpt><trkpt lat="-33.80566543" lon="150.86785169"><ele>60.635</ele></trkpt><trkpt lat="-33.80568037" lon="150.86822801"><ele>60.469</ele></trkpt><trkpt lat="-33.80569348" lon="150.86852726"><ele>59.481</ele></trkpt><trkpt lat="-33.80570034" lon="150.86867878"><ele>58.555</ele></trkpt><trkpt lat="-33.80572318" lon="150.86917750"><ele>56.114</ele></trkpt><trkpt lat="-33.80572972" lon="150.86934309"><ele>55.232</ele></trkpt><trkpt lat="-33.80574123" lon="150.86951240"><ele>54.943</ele></trkpt><trkpt lat="-33.80575982" lon="150.86961827"><ele>55.011</ele></trkpt><trkpt lat="-33.80579414" lon="150.86972791"><ele>55.092</ele></trkpt><trkpt lat="-33.80582698" lon="150.86979851"><ele>55.398</ele></trkpt><trkpt lat="-33.80587148" lon="150.86987852"><ele>55.596</ele></trkpt><trkpt lat="-33.80591781" lon="150.86994831"><ele>55.680</ele></trkpt><trkpt lat="-33.80596942" lon="150.87000620"><ele>55.862</ele></trkpt><trkpt lat="-33.80600799" lon="150.87004254"><ele>56.111</ele></trkpt><trkpt lat="-33.80606718" lon="150.87008600"><ele>56.607</ele></trkpt><trkpt lat="-33.80613195" lon="150.87012768"><ele>56.830</ele></trkpt><trkpt lat="-33.80623869" lon="150.87017868"><ele>57.433</ele></trkpt><trkpt lat="-33.80631829" lon="150.87019629"><ele>57.676</ele></trkpt><trkpt lat="-33.80641137" lon="150.87020266"><ele>57.975</ele></trkpt><trkpt lat="-33.80650188" lon="150.87019589"><ele>58.291</ele></trkpt><trkpt lat="-33.80657073" lon="150.87017874"><ele>58.201</ele></trkpt><trkpt lat="-33.80663676" lon="150.87015504"><ele>58.342</ele></trkpt><trkpt lat="-33.80748414" lon="150.86981191"><ele>58.376</ele></trkpt><trkpt lat="-33.80754921" lon="150.86978836"><ele>58.616</ele></trkpt><trkpt lat="-33.80760357" lon="150.86977571"><ele>58.924</ele></trkpt><trkpt lat="-33.80765623" lon="150.86976640"><ele>59.221</ele></trkpt><trkpt lat="-33.80770828" lon="150.86976460"><ele>59.442</ele></trkpt><trkpt lat="-33.80777145" lon="150.86977193"><ele>59.523</ele></trkpt><trkpt lat="-33.80783883" lon="150.86978712"><ele>59.533</ele></trkpt><trkpt lat="-33.80792996" lon="150.86983066"><ele>60.127</ele></trkpt><trkpt lat="-33.80799282" lon="150.86986841"><ele>60.449</ele></trkpt><trkpt lat="-33.80806123" lon="150.86992766"><ele>60.706</ele></trkpt><trkpt lat="-33.80810401" lon="150.86997293"><ele>61.031</ele></trkpt><trkpt lat="-33.80814963" lon="150.87003422"><ele>61.514</ele></trkpt><trkpt lat="-33.80818247" lon="150.87009557"><ele>61.592</ele></trkpt><trkpt lat="-33.80820724" lon="150.87014556"><ele>61.771</ele></trkpt><trkpt lat="-33.80823185" lon="150.87020044"><ele>61.864</ele></trkpt><trkpt lat="-33.80824590" lon="150.87025256"><ele>62.161</ele></trkpt><trkpt lat="-33.80825703" lon="150.87029919"><ele>62.591</ele></trkpt><trkpt lat="-33.80836542" lon="150.87084707"><ele>65.615</ele></trkpt><trkpt lat="-33.80844607" lon="150.87123449"><ele>67.866</ele></trkpt><trkpt lat="-33.80853599" lon="150.87166545"><ele>69.642</ele></trkpt><trkpt lat="-33.80859731" lon="150.87195145"><ele>70.300</ele></trkpt><trkpt lat="-33.80875022" lon="150.87268507"><ele>70.542</ele></trkpt><trkpt lat="-33.80886453" lon="150.87323731"><ele>70.700</ele></trkpt><trkpt lat="-33.80887523" lon="150.87329768"><ele>70.781</ele></trkpt><trkpt lat="-33.80888317" lon="150.87334030"><ele>70.958</ele></trkpt><trkpt lat="-33.80888426" lon="150.87338168"><ele>71.111</ele></trkpt><trkpt lat="-33.80888356" lon="150.87342026"><ele>71.247</ele></trkpt><trkpt lat="-33.80887092" lon="150.87346839"><ele>71.352</ele></trkpt><trkpt lat="-33.80885576" lon="150.87350122"><ele>71.368</ele></trkpt><trkpt lat="-33.80883107" lon="150.87354126"><ele>71.428</ele></trkpt><trkpt lat="-33.80879839" lon="150.87358057"><ele>71.473</ele></trkpt><trkpt lat="-33.80876838" lon="150.87360824"><ele>71.523</ele></trkpt><trkpt lat="-33.80871797" lon="150.87364237"><ele>71.574</ele></trkpt><trkpt lat="-33.80868132" lon="150.87366573"><ele>71.618</ele></trkpt><trkpt lat="-33.80862942" lon="150.87369617"><ele>71.767</ele></trkpt><trkpt lat="-33.80857297" lon="150.87372265"><ele>71.837</ele></trkpt><trkpt lat="-33.80851804" lon="150.87374245"><ele>71.892</ele></trkpt><trkpt lat="-33.80847272" lon="150.87375894"><ele>71.951</ele></trkpt><trkpt lat="-33.80842572" lon="150.87377147"><ele>71.911</ele></trkpt><trkpt lat="-33.80837691" lon="150.87378042"><ele>71.885</ele></trkpt><trkpt lat="-33.80827029" lon="150.87379079"><ele>71.741</ele></trkpt><trkpt lat="-33.80819361" lon="150.87379374"><ele>71.658</ele></trkpt><trkpt lat="-33.80804080" lon="150.87379377"><ele>72.024</ele></trkpt><trkpt lat="-33.80794192" lon="150.87379319"><ele>72.307</ele></trkpt><trkpt lat="-33.80780119" lon="150.87379297"><ele>72.675</ele></trkpt><trkpt lat="-33.80768503" lon="150.87379661"><ele>73.143</ele></trkpt><trkpt lat="-33.80759361" lon="150.87380083"><ele>73.648</ele></trkpt><trkpt lat="-33.80749333" lon="150.87380445"><ele>74.438</ele></trkpt><trkpt lat="-33.80739218" lon="150.87380791"><ele>74.768</ele></trkpt><trkpt lat="-33.80731070" lon="150.87381349"><ele>75.234</ele></trkpt><trkpt lat="-33.80724853" lon="150.87382024"><ele>75.759</ele></trkpt><trkpt lat="-33.80720262" lon="150.87382896"><ele>76.148</ele></trkpt><trkpt lat="-33.80714281" lon="150.87383931"><ele>76.116</ele></trkpt><trkpt lat="-33.80702285" lon="150.87385468"><ele>75.167</ele></trkpt><trkpt lat="-33.80678706" lon="150.87388921"><ele>74.666</ele></trkpt><trkpt lat="-33.80673690" lon="150.87389503"><ele>74.467</ele></trkpt><trkpt lat="-33.80668880" lon="150.87389473"><ele>74.311</ele></trkpt><trkpt lat="-33.80663971" lon="150.87389166"><ele>74.393</ele></trkpt><trkpt lat="-33.80658347" lon="150.87388231"><ele>74.313</ele></trkpt><trkpt lat="-33.80653829" lon="150.87387457"><ele>74.230</ele></trkpt><trkpt lat="-33.80647930" lon="150.87385979"><ele>73.955</ele></trkpt><trkpt lat="-33.80641746" lon="150.87383647"><ele>73.640</ele></trkpt><trkpt lat="-33.80634491" lon="150.87380115"><ele>73.309</ele></trkpt><trkpt lat="-33.80628499" lon="150.87376485"><ele>72.760</ele></trkpt><trkpt lat="-33.80621846" lon="150.87372332"><ele>72.367</ele></trkpt><trkpt lat="-33.80616755" lon="150.87368426"><ele>72.155</ele></trkpt><trkpt lat="-33.80611743" lon="150.87363549"><ele>71.705</ele></trkpt><trkpt lat="-33.80604370" lon="150.87355033"><ele>70.909</ele></trkpt><trkpt lat="-33.80600322" lon="150.87349805"><ele>70.587</ele></trkpt><trkpt lat="-33.80596921" lon="150.87344992"><ele>70.365</ele></trkpt><trkpt lat="-33.80593265" lon="150.87339217"><ele>70.124</ele></trkpt><trkpt lat="-33.80590237" lon="150.87333758"><ele>69.782</ele></trkpt><trkpt lat="-33.80587339" lon="150.87327187"><ele>69.467</ele></trkpt><trkpt lat="-33.80585156" lon="150.87321835"><ele>69.361</ele></trkpt><trkpt lat="-33.80583465" lon="150.87316915"><ele>69.222</ele></trkpt><trkpt lat="-33.80581748" lon="150.87311893"><ele>68.912</ele></trkpt><trkpt lat="-33.80580490" lon="150.87307071"><ele>68.679</ele></trkpt><trkpt lat="-33.80579323" lon="150.87302631"><ele>68.451</ele></trkpt><trkpt lat="-33.80578320" lon="150.87296825"><ele>68.110</ele></trkpt><trkpt lat="-33.80577534" lon="150.87291194"><ele>67.786</ele></trkpt><trkpt lat="-33.80576765" lon="150.87283254"><ele>67.480</ele></trkpt><trkpt lat="-33.80575669" lon="150.87270576"><ele>66.995</ele></trkpt><trkpt lat="-33.80573912" lon="150.87251782"><ele>66.194</ele></trkpt><trkpt lat="-33.80569124" lon="150.87200156"><ele>63.837</ele></trkpt><trkpt lat="-33.80563967" lon="150.87146997"><ele>61.668</ele></trkpt><trkpt lat="-33.80562945" lon="150.87139859"><ele>61.352</ele></trkpt><trkpt lat="-33.80561501" lon="150.87133432"><ele>61.219</ele></trkpt><trkpt lat="-33.80560202" lon="150.87129885"><ele>61.079</ele></trkpt><trkpt lat="-33.80558493" lon="150.87126190"><ele>60.915</ele></trkpt><trkpt lat="-33.80556584" lon="150.87123362"><ele>60.850</ele></trkpt><trkpt lat="-33.80553447" lon="150.87120145"><ele>60.593</ele></trkpt><trkpt lat="-33.80550332" lon="150.87117706"><ele>60.368</ele></trkpt><trkpt lat="-33.80546621" lon="150.87115499"><ele>60.172</ele></trkpt><trkpt lat="-33.80543052" lon="150.87114191"><ele>60.042</ele></trkpt><trkpt lat="-33.80539378" lon="150.87113615"><ele>59.940</ele></trkpt><trkpt lat="-33.80535142" lon="150.87113410"><ele>59.750</ele></trkpt><trkpt lat="-33.80531759" lon="150.87113949"><ele>59.592</ele></trkpt><trkpt lat="-33.80528757" lon="150.87115052"><ele>59.355</ele></trkpt><trkpt lat="-33.80525114" lon="150.87117263"><ele>58.889</ele></trkpt><trkpt lat="-33.80521267" lon="150.87119456"><ele>58.469</ele></trkpt><trkpt lat="-33.80518426" lon="150.87122571"><ele>58.204</ele></trkpt><trkpt lat="-33.80516339" lon="150.87125399"><ele>58.049</ele></trkpt><trkpt lat="-33.80514569" lon="150.87128969"><ele>57.940</ele></trkpt><trkpt lat="-33.80512760" lon="150.87133592"><ele>57.828</ele></trkpt><trkpt lat="-33.80511478" lon="150.87137630"><ele>57.737</ele></trkpt><trkpt lat="-33.80511081" lon="150.87141291"><ele>57.677</ele></trkpt><trkpt lat="-33.80510289" lon="150.87167577"><ele>57.563</ele></trkpt><trkpt lat="-33.80508697" lon="150.87235546"><ele>58.617</ele></trkpt><trkpt lat="-33.80507104" lon="150.87309943"><ele>59.097</ele></trkpt><trkpt lat="-33.80505731" lon="150.87383329"><ele>60.095</ele></trkpt><trkpt lat="-33.80504718" lon="150.87437028"><ele>61.112</ele></trkpt><trkpt lat="-33.80505155" lon="150.87454766"><ele>61.754</ele></trkpt><trkpt lat="-33.80505952" lon="150.87468218"><ele>62.086</ele></trkpt><trkpt lat="-33.80506862" lon="150.87475592"><ele>62.296</ele></trkpt><trkpt lat="-33.80508415" lon="150.87484134"><ele>62.621</ele></trkpt><trkpt lat="-33.80509937" lon="150.87490036"><ele>62.842</ele></trkpt><trkpt lat="-33.80511322" lon="150.87496013"><ele>63.066</ele></trkpt><trkpt lat="-33.80513869" lon="150.87504444"><ele>63.284</ele></trkpt><trkpt lat="-33.80516183" lon="150.87511102"><ele>63.360</ele></trkpt><trkpt lat="-33.80519251" lon="150.87519118"><ele>63.547</ele></trkpt><trkpt lat="-33.80522461" lon="150.87525946"><ele>63.747</ele></trkpt><trkpt lat="-33.80525146" lon="150.87531223"><ele>63.853</ele></trkpt><trkpt lat="-33.80527926" lon="150.87536235"><ele>64.294</ele></trkpt><trkpt lat="-33.80531771" lon="150.87542496"><ele>64.877</ele></trkpt><trkpt lat="-33.80535091" lon="150.87547362"><ele>65.099</ele></trkpt><trkpt lat="-33.80539444" lon="150.87553181"><ele>65.385</ele></trkpt><trkpt lat="-33.80542802" lon="150.87557495"><ele>65.566</ele></trkpt><trkpt lat="-33.80547399" lon="150.87562721"><ele>65.795</ele></trkpt><trkpt lat="-33.80551674" lon="150.87567057"><ele>66.021</ele></trkpt><trkpt lat="-33.80555025" lon="150.87570367"><ele>66.199</ele></trkpt><trkpt lat="-33.80558676" lon="150.87573298"><ele>66.390</ele></trkpt><trkpt lat="-33.80566723" lon="150.87579086"><ele>66.607</ele></trkpt><trkpt lat="-33.80575523" lon="150.87585608"><ele>66.836</ele></trkpt><trkpt lat="-33.80581376" lon="150.87590219"><ele>67.064</ele></trkpt><trkpt lat="-33.80586426" lon="150.87595539"><ele>67.292</ele></trkpt><trkpt lat="-33.80588865" lon="150.87599307"><ele>67.393</ele></trkpt><trkpt lat="-33.80589753" lon="150.87601286"><ele>67.458</ele></trkpt><trkpt lat="-33.80591091" lon="150.87604091"><ele>67.555</ele></trkpt><trkpt lat="-33.80591942" lon="150.87606655"><ele>67.607</ele></trkpt><trkpt lat="-33.80592910" lon="150.87610148"><ele>67.609</ele></trkpt><trkpt lat="-33.80593811" lon="150.87614219"><ele>67.783</ele></trkpt><trkpt lat="-33.80594120" lon="150.87617799"><ele>67.861</ele></trkpt><trkpt lat="-33.80594206" lon="150.87622790"><ele>67.918</ele></trkpt><trkpt lat="-33.80593766" lon="150.87626989"><ele>67.970</ele></trkpt><trkpt lat="-33.80593162" lon="150.87631182"><ele>68.107</ele></trkpt><trkpt lat="-33.80591495" lon="150.87640118"><ele>68.227</ele></trkpt><trkpt lat="-33.80589911" lon="150.87647277"><ele>68.286</ele></trkpt><trkpt lat="-33.80588433" lon="150.87654763"><ele>68.518</ele></trkpt><trkpt lat="-33.80583431" lon="150.87679360"><ele>69.325</ele></trkpt><trkpt lat="-33.80578162" lon="150.87701955"><ele>70.177</ele></trkpt><trkpt lat="-33.80575641" lon="150.87709937"><ele>70.544</ele></trkpt><trkpt lat="-33.80573443" lon="150.87714316"><ele>70.603</ele></trkpt><trkpt lat="-33.80570426" lon="150.87718893"><ele>70.823</ele></trkpt><trkpt lat="-33.80567015" lon="150.87723217"><ele>71.012</ele></trkpt><trkpt lat="-33.80562379" lon="150.87727627"><ele>71.164</ele></trkpt><trkpt lat="-33.80558782" lon="150.87730623"><ele>71.254</ele></trkpt><trkpt lat="-33.80553419" lon="150.87734120"><ele>71.294</ele></trkpt><trkpt lat="-33.80550154" lon="150.87735582"><ele>71.426</ele></trkpt><trkpt lat="-33.80546686" lon="150.87736889"><ele>71.475</ele></trkpt><trkpt lat="-33.80542799" lon="150.87738215"><ele>71.778</ele></trkpt><trkpt lat="-33.80537490" lon="150.87739389"><ele>71.980</ele></trkpt><trkpt lat="-33.80533427" lon="150.87739927"><ele>72.048</ele></trkpt><trkpt lat="-33.80529846" lon="150.87740146"><ele>72.093</ele></trkpt><trkpt lat="-33.80525611" lon="150.87739881"><ele>72.150</ele></trkpt><trkpt lat="-33.80521770" lon="150.87739396"><ele>72.171</ele></trkpt><trkpt lat="-33.80518034" lon="150.87738713"><ele>72.253</ele></trkpt><trkpt lat="-33.80514636" lon="150.87737737"><ele>72.322</ele></trkpt><trkpt lat="-33.80510747" lon="150.87736296"><ele>72.635</ele></trkpt><trkpt lat="-33.80506653" lon="150.87734268"><ele>72.668</ele></trkpt><trkpt lat="-33.80503133" lon="150.87732132"><ele>72.614</ele></trkpt><trkpt lat="-33.80498969" lon="150.87728798"><ele>72.444</ele></trkpt><trkpt lat="-33.80494777" lon="150.87725841"><ele>72.313</ele></trkpt><trkpt lat="-33.80491792" lon="150.87722935"><ele>72.166</ele></trkpt><trkpt lat="-33.80489228" lon="150.87719838"><ele>72.125</ele></trkpt><trkpt lat="-33.80486979" lon="150.87717248"><ele>72.159</ele></trkpt><trkpt lat="-33.80484786" lon="150.87714121"><ele>72.191</ele></trkpt><trkpt lat="-33.80482473" lon="150.87710727"><ele>72.120</ele></trkpt><trkpt lat="-33.80480818" lon="150.87707800"><ele>72.102</ele></trkpt><trkpt lat="-33.80479002" lon="150.87704008"><ele>72.179</ele></trkpt><trkpt lat="-33.80477022" lon="150.87699818"><ele>72.033</ele></trkpt><trkpt lat="-33.80475072" lon="150.87695097"><ele>71.957</ele></trkpt><trkpt lat="-33.80473206" lon="150.87689957"><ele>71.923</ele></trkpt><trkpt lat="-33.80470431" lon="150.87680849"><ele>71.794</ele></trkpt><trkpt lat="-33.80469426" lon="150.87676519"><ele>71.696</ele></trkpt><trkpt lat="-33.80468285" lon="150.87670223"><ele>71.668</ele></trkpt><trkpt lat="-33.80467198" lon="150.87665043"><ele>71.652</ele></trkpt><trkpt lat="-33.80466283" lon="150.87659789"><ele>71.761</ele></trkpt><trkpt lat="-33.80464901" lon="150.87652719"><ele>71.686</ele></trkpt><trkpt lat="-33.80444211" lon="150.87536267"><ele>68.526</ele></trkpt><trkpt lat="-33.80425969" lon="150.87429235"><ele>63.395</ele></trkpt><trkpt lat="-33.80407786" lon="150.87322274"><ele>59.947</ele></trkpt><trkpt lat="-33.80387393" lon="150.87202435"><ele>57.256</ele></trkpt><trkpt lat="-33.80369523" lon="150.87095654"><ele>55.401</ele></trkpt></trkseg></trk><trk><name>Sydney Motorsport Park - GP segment 25</name><trkseg><trkpt lat="-33.80382333" lon="150.87092344"><ele>55.342</ele></trkpt><trkpt lat="-33.80373715" lon="150.87040768"><ele>54.695</ele></trkpt><trkpt lat="-33.80369780" lon="150.87018438"><ele>54.468</ele></trkpt><trkpt lat="-33.80365730" lon="150.86994329"><ele>54.030</ele></trkpt><trkpt lat="-33.80344693" lon="150.86870994"><ele>53.298</ele></trkpt><trkpt lat="-33.80341310" lon="150.86849957"><ele>53.210</ele></trkpt><trkpt lat="-33.80339726" lon="150.86840337"><ele>53.080</ele></trkpt><trkpt lat="-33.80338539" lon="150.86828693"><ele>52.919</ele></trkpt><trkpt lat="-33.80337620" lon="150.86817457"><ele>52.736</ele></trkpt><trkpt lat="-33.80337003" lon="150.86808860"><ele>52.562</ele></trkpt><trkpt lat="-33.80336745" lon="150.86798556"><ele>52.298</ele></trkpt><trkpt lat="-33.80337294" lon="150.86789994"><ele>52.249</ele></trkpt><trkpt lat="-33.80337949" lon="150.86782992"><ele>52.222</ele></trkpt><trkpt lat="-33.80339034" lon="150.86775321"><ele>52.165</ele></trkpt><trkpt lat="-33.80340219" lon="150.86765903"><ele>51.977</ele></trkpt><trkpt lat="-33.80341412" lon="150.86757752"><ele>51.899</ele></trkpt><trkpt lat="-33.80342459" lon="150.86752266"><ele>51.849</ele></trkpt><trkpt lat="-33.80343989" lon="150.86743321"><ele>51.758</ele></trkpt><trkpt lat="-33.80346564" lon="150.86733370"><ele>51.537</ele></trkpt><trkpt lat="-33.80349438" lon="150.86723522"><ele>51.429</ele></trkpt><trkpt lat="-33.80352485" lon="150.86715263"><ele>51.322</ele></trkpt><trkpt lat="-33.80354604" lon="150.86710360"><ele>51.360</ele></trkpt><trkpt lat="-33.80357128" lon="150.86704577"><ele>51.351</ele></trkpt><trkpt lat="-33.80361705" lon="150.86694722"><ele>51.273</ele></trkpt><trkpt lat="-33.80365783" lon="150.86686993"><ele>51.224</ele></trkpt><trkpt lat="-33.80369549" lon="150.86680500"><ele>51.123</ele></trkpt><trkpt lat="-33.80372988" lon="150.86675032"><ele>51.074</ele></trkpt><trkpt lat="-33.80376215" lon="150.86670158"><ele>51.116</ele></trkpt><trkpt lat="-33.80380289" lon="150.86664281"><ele>51.202</ele></trkpt><trkpt lat="-33.80385746" lon="150.86657438"><ele>51.087</ele></trkpt><trkpt lat="-33.80393961" lon="150.86647793"><ele>50.781</ele></trkpt><trkpt lat="-33.80401018" lon="150.86640306"><ele>50.986</ele></trkpt><trkpt lat="-33.80406637" lon="150.86634936"><ele>51.057</ele></trkpt><trkpt lat="-33.80412163" lon="150.86630403"><ele>51.074</ele></trkpt><trkpt lat="-33.80419337" lon="150.86624846"><ele>51.074</ele></trkpt><trkpt lat="-33.80426256" lon="150.86620170"><ele>51.236</ele></trkpt><trkpt lat="-33.80430701" lon="150.86617247"><ele>51.514</ele></trkpt><trkpt lat="-33.80436019" lon="150.86614103"><ele>51.522</ele></trkpt><trkpt lat="-33.80449062" lon="150.86607410"><ele>51.641</ele></trkpt><trkpt lat="-33.80454246" lon="150.86605376"><ele>51.692</ele></trkpt><trkpt lat="-33.80460569" lon="150.86603170"><ele>51.755</ele></trkpt><trkpt lat="-33.80467214" lon="150.86600856"><ele>51.753</ele></trkpt><trkpt lat="-33.80490389" lon="150.86595360"><ele>52.568</ele></trkpt><trkpt lat="-33.80503090" lon="150.86589454"><ele>52.670</ele></trkpt><trkpt lat="-33.80517812" lon="150.86583341"><ele>53.083</ele></trkpt><trkpt lat="-33.80529425" lon="150.86579337"><ele>52.751</ele></trkpt><trkpt lat="-33.80541478" lon="150.86575515"><ele>52.652</ele></trkpt><trkpt lat="-33.80624834" lon="150.86546757"><ele>53.482</ele></trkpt><trkpt lat="-33.80679558" lon="150.86527564"><ele>54.319</ele></trkpt><trkpt lat="-33.80694530" lon="150.86522428"><ele>54.628</ele></trkpt><trkpt lat="-33.80698670" lon="150.86521471"><ele>54.628</ele></trkpt><trkpt lat="-33.80702444" lon="150.86521423"><ele>54.722</ele></trkpt><trkpt lat="-33.80705702" lon="150.86521934"><ele>54.803</ele></trkpt><trkpt lat="-33.80708676" lon="150.86522748"><ele>54.877</ele></trkpt><trkpt lat="-33.80711915" lon="150.86524275"><ele>54.927</ele></trkpt><trkpt lat="-33.80714383" lon="150.86526074"><ele>54.889</ele></trkpt><trkpt lat="-33.80716248" lon="150.86528106"><ele>54.935</ele></trkpt><trkpt lat="-33.80718789" lon="150.86530776"><ele>55.030</ele></trkpt><trkpt lat="-33.80720909" lon="150.86533595"><ele>55.206</ele></trkpt><trkpt lat="-33.80723539" lon="150.86537468"><ele>55.493</ele></trkpt><trkpt lat="-33.80725762" lon="150.86541047"><ele>55.741</ele></trkpt><trkpt lat="-33.80727268" lon="150.86543468"><ele>55.906</ele></trkpt><trkpt lat="-33.80729384" lon="150.86548159"><ele>56.134</ele></trkpt><trkpt lat="-33.80730470" lon="150.86550917"><ele>56.318</ele></trkpt><trkpt lat="-33.80730876" lon="150.86553258"><ele>56.466</ele></trkpt><trkpt lat="-33.80731358" lon="150.86555939"><ele>56.662</ele></trkpt><trkpt lat="-33.80731696" lon="150.86559595"><ele>56.757</ele></trkpt><trkpt lat="-33.80731691" lon="150.86563070"><ele>56.879</ele></trkpt><trkpt lat="-33.80731517" lon="150.86566958"><ele>57.150</ele></trkpt><trkpt lat="-33.80731116" lon="150.86571135"><ele>57.470</ele></trkpt><trkpt lat="-33.80730289" lon="150.86574852"><ele>57.661</ele></trkpt><trkpt lat="-33.80729061" lon="150.86578732"><ele>57.855</ele></trkpt><trkpt lat="-33.80727619" lon="150.86582053"><ele>57.970</ele></trkpt><trkpt lat="-33.80724909" lon="150.86586597"><ele>58.103</ele></trkpt><trkpt lat="-33.80722368" lon="150.86589936"><ele>58.222</ele></trkpt><trkpt lat="-33.80719550" lon="150.86592484"><ele>58.320</ele></trkpt><trkpt lat="-33.80717253" lon="150.86594363"><ele>58.394</ele></trkpt><trkpt lat="-33.80715070" lon="150.86595854"><ele>58.522</ele></trkpt><trkpt lat="-33.80712481" lon="150.86597285"><ele>58.587</ele></trkpt><trkpt lat="-33.80710095" lon="150.86598253"><ele>58.701</ele></trkpt><trkpt lat="-33.80706608" lon="150.86599243"><ele>58.786</ele></trkpt><trkpt lat="-33.80703589" lon="150.86599849"><ele>58.849</ele></trkpt><trkpt lat="-33.80700655" lon="150.86599840"><ele>58.885</ele></trkpt><trkpt lat="-33.80696627" lon="150.86599473"><ele>58.880</ele></trkpt><trkpt lat="-33.80677000" lon="150.86595918"><ele>58.437</ele></trkpt><trkpt lat="-33.80650956" lon="150.86590331"><ele>58.455</ele></trkpt><trkpt lat="-33.80645491" lon="150.86590341"><ele>58.259</ele></trkpt><trkpt lat="-33.80640782" lon="150.86590907"><ele>58.201</ele></trkpt><trkpt lat="-33.80637151" lon="150.86591359"><ele>58.182</ele></trkpt><trkpt lat="-33.80629582" lon="150.86592917"><ele>58.092</ele></trkpt><trkpt lat="-33.80623916" lon="150.86594389"><ele>58.028</ele></trkpt><trkpt lat="-33.80617910" lon="150.86596620"><ele>57.846</ele></trkpt><trkpt lat="-33.80612270" lon="150.86599048"><ele>57.719</ele></trkpt><trkpt lat="-33.80605623" lon="150.86602666"><ele>57.498</ele></trkpt><trkpt lat="-33.80600915" lon="150.86605594"><ele>57.371</ele></trkpt><trkpt lat="-33.80596665" lon="150.86608620"><ele>57.268</ele></trkpt><trkpt lat="-33.80593459" lon="150.86611399"><ele>57.246</ele></trkpt><trkpt lat="-33.80589513" lon="150.86614621"><ele>57.255</ele></trkpt><trkpt lat="-33.80587084" lon="150.86617035"><ele>57.255</ele></trkpt><trkpt lat="-33.80584230" lon="150.86619802"><ele>57.286</ele></trkpt><trkpt lat="-33.80580913" lon="150.86623650"><ele>57.425</ele></trkpt><trkpt lat="-33.80578215" lon="150.86627328"><ele>57.583</ele></trkpt><trkpt lat="-33.80575170" lon="150.86631192"><ele>57.564</ele></trkpt><trkpt lat="-33.80573343" lon="150.86633820"><ele>57.641</ele></trkpt><trkpt lat="-33.80569977" lon="150.86639009"><ele>57.670</ele></trkpt><trkpt lat="-33.80567323" lon="150.86643577"><ele>57.706</ele></trkpt><trkpt lat="-33.80564616" lon="150.86649029"><ele>57.716</ele></trkpt><trkpt lat="-33.80562116" lon="150.86654723"><ele>57.797</ele></trkpt><trkpt lat="-33.80560242" lon="150.86659860"><ele>57.876</ele></trkpt><trkpt lat="-33.80558480" lon="150.86665960"><ele>58.024</ele></trkpt><trkpt lat="-33.80556925" lon="150.86671098"><ele>58.099</ele></trkpt><trkpt lat="-33.80554894" lon="150.86679782"><ele>58.156</ele></trkpt><trkpt lat="-33.80554084" lon="150.86684976"><ele>58.194</ele></trkpt><trkpt lat="-33.80553234" lon="150.86692709"><ele>58.426</ele></trkpt><trkpt lat="-33.80552769" lon="150.86699111"><ele>58.548</ele></trkpt><trkpt lat="-33.80552762" lon="150.86706072"><ele>58.689</ele></trkpt><trkpt lat="-33.80553594" lon="150.86729820"><ele>59.533</ele></trkpt><trkpt lat="-33.80555654" lon="150.86776839"><ele>60.261</ele></trkpt><trkpt lat="-33.80557378" lon="150.86816276"><ele>60.735</ele></trkpt><trkpt lat="-33.80558610" lon="150.86845405"><ele>59.809</ele></trkpt><trkpt lat="-33.80560801" lon="150.86893263"><ele>57.219</ele></trkpt><trkpt lat="-33.80563084" lon="150.86943956"><ele>55.092</ele></trkpt><trkpt lat="-33.80564327" lon="150.86957485"><ele>55.051</ele></trkpt><trkpt lat="-33.80565474" lon="150.86963527"><ele>55.082</ele></trkpt><trkpt lat="-33.80566428" lon="150.86967565"><ele>55.084</ele></trkpt><trkpt lat="-33.80567688" lon="150.86972137"><ele>55.192</ele></trkpt><trkpt lat="-33.80569017" lon="150.86976214"><ele>55.246</ele></trkpt><trkpt lat="-33.80572169" lon="150.86984024"><ele>55.380</ele></trkpt><trkpt lat="-33.80575025" lon="150.86989734"><ele>55.401</ele></trkpt><trkpt lat="-33.80577383" lon="150.86994025"><ele>55.407</ele></trkpt><trkpt lat="-33.80582440" lon="150.87001543"><ele>55.831</ele></trkpt><trkpt lat="-33.80586949" lon="150.87007170"><ele>55.978</ele></trkpt><trkpt lat="-33.80590907" lon="150.87011146"><ele>56.307</ele></trkpt><trkpt lat="-33.80595160" lon="150.87014952"><ele>56.551</ele></trkpt><trkpt lat="-33.80600017" lon="150.87018576"><ele>56.710</ele></trkpt><trkpt lat="-33.80607053" lon="150.87023209"><ele>57.078</ele></trkpt><trkpt lat="-33.80612425" lon="150.87025957"><ele>57.358</ele></trkpt><trkpt lat="-33.80619080" lon="150.87028927"><ele>57.712</ele></trkpt><trkpt lat="-33.80623853" lon="150.87030457"><ele>57.972</ele></trkpt><trkpt lat="-33.80629767" lon="150.87031815"><ele>58.377</ele></trkpt><trkpt lat="-33.80634977" lon="150.87032428"><ele>58.475</ele></trkpt><trkpt lat="-33.80638897" lon="150.87032757"><ele>58.571</ele></trkpt><trkpt lat="-33.80644217" lon="150.87032624"><ele>58.695</ele></trkpt><trkpt lat="-33.80649821" lon="150.87032217"><ele>58.773</ele></trkpt><trkpt lat="-33.80654765" lon="150.87031416"><ele>58.780</ele></trkpt><trkpt lat="-33.80665840" lon="150.87028207"><ele>58.756</ele></trkpt><trkpt lat="-33.80672490" lon="150.87025213"><ele>58.698</ele></trkpt><trkpt lat="-33.80678453" lon="150.87022833"><ele>58.632</ele></trkpt><trkpt lat="-33.80733708" lon="150.86999702"><ele>58.028</ele></trkpt><trkpt lat="-33.80757932" lon="150.86990799"><ele>58.095</ele></trkpt><trkpt lat="-33.80763642" lon="150.86989150"><ele>58.361</ele></trkpt><trkpt lat="-33.80767413" lon="150.86988694"><ele>58.693</ele></trkpt><trkpt lat="-33.80770899" lon="150.86988737"><ele>59.138</ele></trkpt><trkpt lat="-33.80774471" lon="150.86989025"><ele>59.215</ele></trkpt><trkpt lat="-33.80778127" lon="150.86990084"><ele>59.396</ele></trkpt><trkpt lat="-33.80781701" lon="150.86991333"><ele>59.551</ele></trkpt><trkpt lat="-33.80785709" lon="150.86992899"><ele>59.573</ele></trkpt><trkpt lat="-33.80789356" lon="150.86994876"><ele>59.573</ele></trkpt><trkpt lat="-33.80791705" lon="150.86996774"><ele>59.573</ele></trkpt><trkpt lat="-33.80795391" lon="150.86998963"><ele>59.704</ele></trkpt><trkpt lat="-33.80797584" lon="150.87000831"><ele>59.862</ele></trkpt><trkpt lat="-33.80800206" lon="150.87003277"><ele>60.091</ele></trkpt><trkpt lat="-33.80802971" lon="150.87006516"><ele>60.295</ele></trkpt><trkpt lat="-33.80805208" lon="150.87009459"><ele>60.570</ele></trkpt><trkpt lat="-33.80806861" lon="150.87011577"><ele>60.764</ele></trkpt><trkpt lat="-33.80809080" lon="150.87015016"><ele>61.007</ele></trkpt><trkpt lat="-33.80810858" lon="150.87018528"><ele>61.127</ele></trkpt><trkpt lat="-33.80812063" lon="150.87021301"><ele>61.214</ele></trkpt><trkpt lat="-33.80813379" lon="150.87024913"><ele>61.521</ele></trkpt><trkpt lat="-33.80814821" lon="150.87029755"><ele>61.873</ele></trkpt><trkpt lat="-33.80815740" lon="150.87033959"><ele>62.122</ele></trkpt><trkpt lat="-33.80821587" lon="150.87061665"><ele>63.893</ele></trkpt><trkpt lat="-33.80836328" lon="150.87135802"><ele>68.136</ele></trkpt><trkpt lat="-33.80850729" lon="150.87203814"><ele>70.178</ele></trkpt><trkpt lat="-33.80870037" lon="150.87299192"><ele>70.517</ele></trkpt><trkpt lat="-33.80875057" lon="150.87323221"><ele>70.632</ele></trkpt><trkpt lat="-33.80877280" lon="150.87334094"><ele>70.764</ele></trkpt><trkpt lat="-33.80877435" lon="150.87336465"><ele>70.854</ele></trkpt><trkpt lat="-33.80877310" lon="150.87339109"><ele>70.875</ele></trkpt><trkpt lat="-33.80876929" lon="150.87341640"><ele>70.932</ele></trkpt><trkpt lat="-33.80876347" lon="150.87343664"><ele>70.975</ele></trkpt><trkpt lat="-33.80875175" lon="150.87345678"><ele>71.007</ele></trkpt><trkpt lat="-33.80873628" lon="150.87347731"><ele>71.033</ele></trkpt><trkpt lat="-33.80871939" lon="150.87349477"><ele>71.064</ele></trkpt><trkpt lat="-33.80869991" lon="150.87351154"><ele>71.163</ele></trkpt><trkpt lat="-33.80867622" lon="150.87352713"><ele>71.163</ele></trkpt><trkpt lat="-33.80864840" lon="150.87354274"><ele>71.263</ele></trkpt><trkpt lat="-33.80859841" lon="150.87357118"><ele>71.223</ele></trkpt><trkpt lat="-33.80855835" lon="150.87359060"><ele>71.259</ele></trkpt><trkpt lat="-33.80851372" lon="150.87360932"><ele>71.373</ele></trkpt><trkpt lat="-33.80846686" lon="150.87362756"><ele>71.432</ele></trkpt><trkpt lat="-33.80841942" lon="150.87364331"><ele>71.316</ele></trkpt><trkpt lat="-33.80839045" lon="150.87365176"><ele>71.302</ele></trkpt><trkpt lat="-33.80835977" lon="150.87365816"><ele>71.314</ele></trkpt><trkpt lat="-33.80832112" lon="150.87366160"><ele>71.257</ele></trkpt><trkpt lat="-33.80827552" lon="150.87366604"><ele>71.258</ele></trkpt><trkpt lat="-33.80819665" lon="150.87366589"><ele>71.318</ele></trkpt><trkpt lat="-33.80811444" lon="150.87366910"><ele>71.507</ele></trkpt><trkpt lat="-33.80787759" lon="150.87366741"><ele>72.396</ele></trkpt><trkpt lat="-33.80761888" lon="150.87366838"><ele>73.108</ele></trkpt><trkpt lat="-33.80742144" lon="150.87367587"><ele>73.854</ele></trkpt><trkpt lat="-33.80732216" lon="150.87368239"><ele>74.459</ele></trkpt><trkpt lat="-33.80724242" lon="150.87369302"><ele>75.160</ele></trkpt><trkpt lat="-33.80718712" lon="150.87370453"><ele>75.973</ele></trkpt><trkpt lat="-33.80711865" lon="150.87371318"><ele>75.817</ele></trkpt><trkpt lat="-33.80704220" lon="150.87372041"><ele>75.047</ele></trkpt><trkpt lat="-33.80699165" lon="150.87372868"><ele>74.604</ele></trkpt><trkpt lat="-33.80683008" lon="150.87375617"><ele>74.146</ele></trkpt><trkpt lat="-33.80675851" lon="150.87376668"><ele>74.271</ele></trkpt><trkpt lat="-33.80666627" lon="150.87376916"><ele>74.362</ele></trkpt><trkpt lat="-33.80657860" lon="150.87375677"><ele>74.497</ele></trkpt><trkpt lat="-33.80648544" lon="150.87373197"><ele>74.361</ele></trkpt><trkpt lat="-33.80643574" lon="150.87371187"><ele>74.194</ele></trkpt><trkpt lat="-33.80638833" lon="150.87368645"><ele>73.791</ele></trkpt><trkpt lat="-33.80633948" lon="150.87366123"><ele>73.107</ele></trkpt><trkpt lat="-33.80627233" lon="150.87361634"><ele>72.398</ele></trkpt><trkpt lat="-33.80622681" lon="150.87357801"><ele>71.930</ele></trkpt><trkpt lat="-33.80618337" lon="150.87353643"><ele>71.456</ele></trkpt><trkpt lat="-33.80613700" lon="150.87348524"><ele>71.099</ele></trkpt><trkpt lat="-33.80610635" lon="150.87344704"><ele>70.756</ele></trkpt><trkpt lat="-33.80607265" lon="150.87340358"><ele>70.487</ele></trkpt><trkpt lat="-33.80604050" lon="150.87335400"><ele>70.223</ele></trkpt><trkpt lat="-33.80601236" lon="150.87330765"><ele>69.901</ele></trkpt><trkpt lat="-33.80598499" lon="150.87325442"><ele>69.544</ele></trkpt><trkpt lat="-33.80596271" lon="150.87320168"><ele>68.979</ele></trkpt><trkpt lat="-33.80594459" lon="150.87315393"><ele>68.968</ele></trkpt><trkpt lat="-33.80590857" lon="150.87304081"><ele>68.594</ele></trkpt><trkpt lat="-33.80590057" lon="150.87301675"><ele>68.536</ele></trkpt><trkpt lat="-33.80588829" lon="150.87295158"><ele>67.983</ele></trkpt><trkpt lat="-33.80586168" lon="150.87269013"><ele>66.892</ele></trkpt><trkpt lat="-33.80578185" lon="150.87184789"><ele>63.554</ele></trkpt><trkpt lat="-33.80574629" lon="150.87148614"><ele>62.110</ele></trkpt><trkpt lat="-33.80573328" lon="150.87136376"><ele>61.565</ele></trkpt><trkpt lat="-33.80572446" lon="150.87131620"><ele>61.479</ele></trkpt><trkpt lat="-33.80571298" lon="150.87127557"><ele>61.334</ele></trkpt><trkpt lat="-33.80569187" lon="150.87122528"><ele>61.166</ele></trkpt><trkpt lat="-33.80566493" lon="150.87117679"><ele>60.988</ele></trkpt><trkpt lat="-33.80564056" lon="150.87114735"><ele>60.809</ele></trkpt><trkpt lat="-33.80561630" lon="150.87111746"><ele>60.802</ele></trkpt><trkpt lat="-33.80558466" lon="150.87108942"><ele>60.688</ele></trkpt><trkpt lat="-33.80554345" lon="150.87105835"><ele>60.540</ele></trkpt><trkpt lat="-33.80550656" lon="150.87103723"><ele>60.407</ele></trkpt><trkpt lat="-33.80547871" lon="150.87102593"><ele>60.277</ele></trkpt><trkpt lat="-33.80543341" lon="150.87101161"><ele>60.153</ele></trkpt><trkpt lat="-33.80539865" lon="150.87100358"><ele>60.089</ele></trkpt><trkpt lat="-33.80536750" lon="150.87100255"><ele>60.037</ele></trkpt><trkpt lat="-33.80533086" lon="150.87100526"><ele>59.907</ele></trkpt><trkpt lat="-33.80528955" lon="150.87101652"><ele>59.690</ele></trkpt><trkpt lat="-33.80524554" lon="150.87103605"><ele>59.332</ele></trkpt><trkpt lat="-33.80519494" lon="150.87106950"><ele>58.938</ele></trkpt><trkpt lat="-33.80515976" lon="150.87109558"><ele>58.761</ele></trkpt><trkpt lat="-33.80513046" lon="150.87112185"><ele>58.757</ele></trkpt><trkpt lat="-33.80510528" lon="150.87115499"><ele>58.740</ele></trkpt><trkpt lat="-33.80507679" lon="150.87119802"><ele>58.625</ele></trkpt><trkpt lat="-33.80505681" lon="150.87124031"><ele>58.530</ele></trkpt><trkpt lat="-33.80503506" lon="150.87128839"><ele>58.218</ele></trkpt><trkpt lat="-33.80502018" lon="150.87133354"><ele>58.073</ele></trkpt><trkpt lat="-33.80501215" lon="150.87138454"><ele>58.047</ele></trkpt><trkpt lat="-33.80500514" lon="150.87143465"><ele>58.004</ele></trkpt><trkpt lat="-33.80500050" lon="150.87155407"><ele>57.649</ele></trkpt><trkpt lat="-33.80497937" lon="150.87245093"><ele>58.578</ele></trkpt><trkpt lat="-33.80495535" lon="150.87361547"><ele>59.814</ele></trkpt><trkpt lat="-33.80494282" lon="150.87445417"><ele>61.917</ele></trkpt><trkpt lat="-33.80494856" lon="150.87457791"><ele>62.387</ele></trkpt><trkpt lat="-33.80496289" lon="150.87476468"><ele>62.688</ele></trkpt><trkpt lat="-33.80498046" lon="150.87487095"><ele>63.389</ele></trkpt><trkpt lat="-33.80499414" lon="150.87493105"><ele>63.558</ele></trkpt><trkpt lat="-33.80501864" lon="150.87502177"><ele>63.662</ele></trkpt><trkpt lat="-33.80504087" lon="150.87508813"><ele>63.821</ele></trkpt><trkpt lat="-33.80505763" lon="150.87514067"><ele>63.846</ele></trkpt><trkpt lat="-33.80509630" lon="150.87524330"><ele>64.101</ele></trkpt><trkpt lat="-33.80512598" lon="150.87530710"><ele>64.439</ele></trkpt><trkpt lat="-33.80515665" lon="150.87536679"><ele>64.741</ele></trkpt><trkpt lat="-33.80518728" lon="150.87542059"><ele>65.094</ele></trkpt><trkpt lat="-33.80521182" lon="150.87546089"><ele>65.276</ele></trkpt><trkpt lat="-33.80523737" lon="150.87550219"><ele>65.423</ele></trkpt><trkpt lat="-33.80529765" lon="150.87559103"><ele>65.716</ele></trkpt><trkpt lat="-33.80534953" lon="150.87565983"><ele>65.743</ele></trkpt><trkpt lat="-33.80539735" lon="150.87571596"><ele>66.074</ele></trkpt><trkpt lat="-33.80545194" lon="150.87577079"><ele>66.218</ele></trkpt><trkpt lat="-33.80550550" lon="150.87581931"><ele>66.229</ele></trkpt><trkpt lat="-33.80555426" lon="150.87585669"><ele>66.492</ele></trkpt><trkpt lat="-33.80561323" lon="150.87590126"><ele>66.818</ele></trkpt><trkpt lat="-33.80566577" lon="150.87593681"><ele>66.836</ele></trkpt><trkpt lat="-33.80571465" lon="150.87597333"><ele>66.991</ele></trkpt><trkpt lat="-33.80575051" lon="150.87599762"><ele>66.991</ele></trkpt><trkpt lat="-33.80576947" lon="150.87601772"><ele>66.991</ele></trkpt><trkpt lat="-33.80578220" lon="150.87603291"><ele>66.991</ele></trkpt><trkpt lat="-33.80579757" lon="150.87605459"><ele>67.018</ele></trkpt><trkpt lat="-33.80581458" lon="150.87608582"><ele>67.090</ele></trkpt><trkpt lat="-33.80582249" lon="150.87610826"><ele>67.159</ele></trkpt><trkpt lat="-33.80582955" lon="150.87613034"><ele>67.246</ele></trkpt><trkpt lat="-33.80583396" lon="150.87615811"><ele>67.326</ele></trkpt><trkpt lat="-33.80583658" lon="150.87618698"><ele>67.396</ele></trkpt><trkpt lat="-33.80583617" lon="150.87623183"><ele>67.506</ele></trkpt><trkpt lat="-33.80582905" lon="150.87629227"><ele>67.727</ele></trkpt><trkpt lat="-33.80580646" lon="150.87641193"><ele>67.937</ele></trkpt><trkpt lat="-33.80573696" lon="150.87674280"><ele>68.984</ele></trkpt><trkpt lat="-33.80569081" lon="150.87696356"><ele>69.625</ele></trkpt><trkpt lat="-33.80567216" lon="150.87702266"><ele>69.794</ele></trkpt><trkpt lat="-33.80565303" lon="150.87706463"><ele>69.998</ele></trkpt><trkpt lat="-33.80562975" lon="150.87710170"><ele>70.217</ele></trkpt><trkpt lat="-33.80559931" lon="150.87714100"><ele>70.421</ele></trkpt><trkpt lat="-33.80557257" lon="150.87716627"><ele>70.509</ele></trkpt><trkpt lat="-33.80554227" lon="150.87719273"><ele>70.564</ele></trkpt><trkpt lat="-33.80550879" lon="150.87721401"><ele>70.605</ele></trkpt><trkpt lat="-33.80547495" lon="150.87723050"><ele>70.635</ele></trkpt><trkpt lat="-33.80543511" lon="150.87724810"><ele>70.711</ele></trkpt><trkpt lat="-33.80539961" lon="150.87725824"><ele>70.697</ele></trkpt><trkpt lat="-33.80535964" lon="150.87726700"><ele>70.871</ele></trkpt><trkpt lat="-33.80532190" lon="150.87727132"><ele>71.008</ele></trkpt><trkpt lat="-33.80528890" lon="150.87727242"><ele>71.092</ele></trkpt><trkpt lat="-33.80525367" lon="150.87726846"><ele>71.108</ele></trkpt><trkpt lat="-33.80521217" lon="150.87726011"><ele>71.209</ele></trkpt><trkpt lat="-33.80517388" lon="150.87725057"><ele>71.331</ele></trkpt><trkpt lat="-33.80514218" lon="150.87723799"><ele>71.497</ele></trkpt><trkpt lat="-33.80509004" lon="150.87721191"><ele>71.789</ele></trkpt><trkpt lat="-33.80505575" lon="150.87718839"><ele>71.774</ele></trkpt><trkpt lat="-33.80502416" lon="150.87716299"><ele>71.800</ele></trkpt><trkpt lat="-33.80498720" lon="150.87712773"><ele>71.819</ele></trkpt><trkpt lat="-33.80494925" lon="150.87708555"><ele>71.734</ele></trkpt><trkpt lat="-33.80491743" lon="150.87704089"><ele>71.600</ele></trkpt><trkpt lat="-33.80489316" lon="150.87699968"><ele>71.519</ele></trkpt><trkpt lat="-33.80487492" lon="150.87696472"><ele>71.462</ele></trkpt><trkpt lat="-33.80484815" lon="150.87690356"><ele>71.473</ele></trkpt><trkpt lat="-33.80482923" lon="150.87685108"><ele>71.343</ele></trkpt><trkpt lat="-33.80481229" lon="150.87679631"><ele>71.184</ele></trkpt><trkpt lat="-33.80480333" lon="150.87676601"><ele>71.227</ele></trkpt><trkpt lat="-33.80479493" lon="150.87672637"><ele>71.161</ele></trkpt><trkpt lat="-33.80478671" lon="150.87668498"><ele>71.136</ele></trkpt><trkpt lat="-33.80478085" lon="150.87664680"><ele>71.118</ele></trkpt><trkpt lat="-33.80477458" lon="150.87660791"><ele>71.058</ele></trkpt><trkpt lat="-33.80475665" lon="150.87650470"><ele>71.109</ele></trkpt><trkpt lat="-33.80473649" lon="150.87633756"><ele>70.700</ele></trkpt><trkpt lat="-33.80472106" lon="150.87622504"><ele>70.770</ele></trkpt><trkpt lat="-33.80464704" lon="150.87576840"><ele>69.949</ele></trkpt><trkpt lat="-33.80454298" lon="150.87516261"><ele>66.866</ele></trkpt><trkpt lat="-33.80442494" lon="150.87446262"><ele>63.857</ele></trkpt><trkpt lat="-33.80439028" lon="150.87424563"><ele>62.942</ele></trkpt><trkpt lat="-33.80429838" lon="150.87372813"><ele>61.482</ele></trkpt><trkpt lat="-33.80426073" lon="150.87350630"><ele>60.897</ele></trkpt><trkpt lat="-33.80414291" lon="150.87279806"><ele>58.890</ele></trkpt><trkpt lat="-33.80399108" lon="150.87190498"><ele>56.946</ele></trkpt><trkpt lat="-33.80382333" lon="150.87092344"><ele>55.342</ele></trkpt></trkseg></trk></gpx>