<?xml version="1.0" encoding="UTF-8"?>
<gpx version="1.1" creator="tkk2gpx (.ztracks converter)"
     xmlns="http://www.topografix.com/GPX/1/1"
     xmlns:xsi="http://www.w3.org/2001/XMLSchema-instance"
     xsi:schemaLocation="http://www.topografix.com/GPX/1/1 http://www.topografix.com/GPX/1/1/gpx.xsd">
  <metadata>
    <name>Sydney Motorsport Park (Druitt Circuit)</name>
    <desc>NSW AU. One lap from druittsmp.ztracks, declared 2797 m. The source Start/Finish mark sat inside a corner; this waypoint is the nearest centreline point to the official Emtron start tick on the pit straight.</desc>
  </metadata>
  <wpt lat="-33.8037897" lon="150.8709126">
    <name>Start/Finish</name>
    <desc>Official start tick projected onto this centreline</desc>
    <sym>Flag, Checkered</sym>
  </wpt>
  <trk>
    <name>SMP Druitt - 1 lap</name>
    <trkseg>
      <trkpt lat="-33.8050763" lon="150.8712086"></trkpt>
      <trkpt lat="-33.8050570" lon="150.8715444"></trkpt>
      <trkpt lat="-33.8050049" lon="150.8740950"></trkpt>
      <trkpt lat="-33.8050150" lon="150.8743685"></trkpt>
      <trkpt lat="-33.8050276" lon="150.8745046"></trkpt>
      <trkpt lat="-33.8050459" lon="150.8746403"></trkpt>
      <trkpt lat="-33.8050703" lon="150.8747745"></trkpt>
      <trkpt lat="-33.8051020" lon="150.8749065"></trkpt>
      <trkpt lat="-33.8051418" lon="150.8750349"></trkpt>
      <trkpt lat="-33.8051899" lon="150.8751589"></trkpt>
      <trkpt lat="-33.8052464" lon="150.8752765"></trkpt>
      <trkpt lat="-33.8053121" lon="150.8753864"></trkpt>
      <trkpt lat="-33.8053834" lon="150.8754887"></trkpt>
      <trkpt lat="-33.8054575" lon="150.8755817"></trkpt>
      <trkpt lat="-33.8056734" lon="150.8758198"></trkpt>
      <trkpt lat="-33.8057908" lon="150.8759745"></trkpt>
      <trkpt lat="-33.8058355" lon="150.8760592"></trkpt>
      <trkpt lat="-33.8058718" lon="150.8761506"></trkpt>
      <trkpt lat="-33.8058990" lon="150.8762460"></trkpt>
      <trkpt lat="-33.8059146" lon="150.8763449"></trkpt>
      <trkpt lat="-33.8059190" lon="150.8764451"></trkpt>
      <trkpt lat="-33.8059120" lon="150.8765445"></trkpt>
      <trkpt lat="-33.8058722" lon="150.8767403"></trkpt>
      <trkpt lat="-33.8058431" lon="150.8768368"></trkpt>
      <trkpt lat="-33.8058055" lon="150.8769285"></trkpt>
      <trkpt lat="-33.8057583" lon="150.8770128"></trkpt>
      <trkpt lat="-33.8057061" lon="150.8770899"></trkpt>
      <trkpt lat="-33.8056476" lon="150.8771549"></trkpt>
      <trkpt lat="-33.8055834" lon="150.8772061"></trkpt>
      <trkpt lat="-33.8055138" lon="150.8772440"></trkpt>
      <trkpt lat="-33.8054408" lon="150.8772685"></trkpt>
      <trkpt lat="-33.8053652" lon="150.8772799"></trkpt>
      <trkpt lat="-33.8052890" lon="150.8772776"></trkpt>
      <trkpt lat="-33.8052142" lon="150.8772631"></trkpt>
      <trkpt lat="-33.8051420" lon="150.8772352"></trkpt>
      <trkpt lat="-33.8050742" lon="150.8771948"></trkpt>
      <trkpt lat="-33.8050107" lon="150.8771440"></trkpt>
      <trkpt lat="-33.8049521" lon="150.8770845"></trkpt>
      <trkpt lat="-33.8048983" lon="150.8770174"></trkpt>
      <trkpt lat="-33.8048086" lon="150.8768617"></trkpt>
      <trkpt lat="-33.8047720" lon="150.8767760"></trkpt>
      <trkpt lat="-33.8046985" lon="150.8764939"></trkpt>
      <trkpt lat="-33.8044361" lon="150.8749461"></trkpt>
      <trkpt lat="-33.8041221" lon="150.8728863"></trkpt>
      <trkpt lat="-33.8038026" lon="150.8709916"></trkpt>
      <trkpt lat="-33.8037897" lon="150.8709126"></trkpt>
      <trkpt lat="-33.8034159" lon="150.8686306"></trkpt>
      <trkpt lat="-33.8033832" lon="150.8680612"></trkpt>
      <trkpt lat="-33.8033870" lon="150.8679194"></trkpt>
      <trkpt lat="-33.8034165" lon="150.8676394"></trkpt>
      <trkpt lat="-33.8034418" lon="150.8675010"></trkpt>
      <trkpt lat="-33.8035138" lon="150.8672330"></trkpt>
      <trkpt lat="-33.8035606" lon="150.8671044"></trkpt>
      <trkpt lat="-33.8036745" lon="150.8668595"></trkpt>
      <trkpt lat="-33.8038101" lon="150.8666296"></trkpt>
      <trkpt lat="-33.8038874" lon="150.8665248"></trkpt>
      <trkpt lat="-33.8040578" lon="150.8663347"></trkpt>
      <trkpt lat="-33.8041492" lon="150.8662495"></trkpt>
      <trkpt lat="-33.8044438" lon="150.8660371"></trkpt>
      <trkpt lat="-33.8047598" lon="150.8658799"></trkpt>
      <trkpt lat="-33.8053083" lon="150.8656826"></trkpt>
      <trkpt lat="-33.8066979" lon="150.8652023"></trkpt>
      <trkpt lat="-33.8068272" lon="150.8651882"></trkpt>
      <trkpt lat="-33.8069563" lon="150.8651694"></trkpt>
      <trkpt lat="-33.8070180" lon="150.8651713"></trkpt>
      <trkpt lat="-33.8070772" lon="150.8651817"></trkpt>
      <trkpt lat="-33.8071207" lon="150.8651981"></trkpt>
      <trkpt lat="-33.8071594" lon="150.8652168"></trkpt>
      <trkpt lat="-33.8071843" lon="150.8652342"></trkpt>
      <trkpt lat="-33.8072300" lon="150.8652758"></trkpt>
      <trkpt lat="-33.8072703" lon="150.8653257"></trkpt>
      <trkpt lat="-33.8073064" lon="150.8653819"></trkpt>
      <trkpt lat="-33.8073360" lon="150.8654437"></trkpt>
      <trkpt lat="-33.8073522" lon="150.8654918"></trkpt>
      <trkpt lat="-33.8073641" lon="150.8655439"></trkpt>
      <trkpt lat="-33.8073683" lon="150.8655975"></trkpt>
      <trkpt lat="-33.8073671" lon="150.8656490"></trkpt>
      <trkpt lat="-33.8073630" lon="150.8656848"></trkpt>
      <trkpt lat="-33.8073562" lon="150.8657183"></trkpt>
      <trkpt lat="-33.8073351" lon="150.8657846"></trkpt>
      <trkpt lat="-33.8073055" lon="150.8658468"></trkpt>
      <trkpt lat="-33.8072688" lon="150.8659024"></trkpt>
      <trkpt lat="-33.8072250" lon="150.8659501"></trkpt>
      <trkpt lat="-33.8071753" lon="150.8659885"></trkpt>
      <trkpt lat="-33.8071203" lon="150.8660180"></trkpt>
      <trkpt lat="-33.8070616" lon="150.8660375"></trkpt>
      <trkpt lat="-33.8070000" lon="150.8660467"></trkpt>
      <trkpt lat="-33.8069361" lon="150.8660457"></trkpt>
      <trkpt lat="-33.8065874" lon="150.8660084"></trkpt>
      <trkpt lat="-33.8065141" lon="150.8660096"></trkpt>
      <trkpt lat="-33.8064401" lon="150.8660159"></trkpt>
      <trkpt lat="-33.8063654" lon="150.8660286"></trkpt>
      <trkpt lat="-33.8062907" lon="150.8660484"></trkpt>
      <trkpt lat="-33.8062167" lon="150.8660759"></trkpt>
      <trkpt lat="-33.8061445" lon="150.8661112"></trkpt>
      <trkpt lat="-33.8060745" lon="150.8661546"></trkpt>
      <trkpt lat="-33.8060073" lon="150.8662055"></trkpt>
      <trkpt lat="-33.8059433" lon="150.8662639"></trkpt>
      <trkpt lat="-33.8058836" lon="150.8663301"></trkpt>
      <trkpt lat="-33.8058293" lon="150.8664029"></trkpt>
      <trkpt lat="-33.8057810" lon="150.8664826"></trkpt>
      <trkpt lat="-33.8057386" lon="150.8665684"></trkpt>
      <trkpt lat="-33.8057032" lon="150.8666592"></trkpt>
      <trkpt lat="-33.8056745" lon="150.8667539"></trkpt>
      <trkpt lat="-33.8056520" lon="150.8668522"></trkpt>
      <trkpt lat="-33.8056359" lon="150.8669535"></trkpt>
      <trkpt lat="-33.8056264" lon="150.8670564"></trkpt>
      <trkpt lat="-33.8056212" lon="150.8671607"></trkpt>
      <trkpt lat="-33.8056250" lon="150.8675865"></trkpt>
      <trkpt lat="-33.8056554" lon="150.8681214"></trkpt>
      <trkpt lat="-33.8057470" lon="150.8694610"></trkpt>
      <trkpt lat="-33.8057351" lon="150.8696751"></trkpt>
      <trkpt lat="-33.8057188" lon="150.8697742"></trkpt>
      <trkpt lat="-33.8056939" lon="150.8698651"></trkpt>
      <trkpt lat="-33.8056598" lon="150.8699495"></trkpt>
      <trkpt lat="-33.8056168" lon="150.8700273"></trkpt>
      <trkpt lat="-33.8055664" lon="150.8700984"></trkpt>
      <trkpt lat="-33.8053888" lon="150.8702859"></trkpt>
      <trkpt lat="-33.8053339" lon="150.8703572"></trkpt>
      <trkpt lat="-33.8052845" lon="150.8704343"></trkpt>
      <trkpt lat="-33.8052405" lon="150.8705166"></trkpt>
      <trkpt lat="-33.8052020" lon="150.8706047"></trkpt>
      <trkpt lat="-33.8051700" lon="150.8706969"></trkpt>
      <trkpt lat="-33.8051436" lon="150.8707934"></trkpt>
      <trkpt lat="-33.8051220" lon="150.8708932"></trkpt>
      <trkpt lat="-33.8051035" lon="150.8709959"></trkpt>
      <trkpt lat="-33.8050763" lon="150.8712086"></trkpt>
    </trkseg>
  </trk>
</gpx>
