<?xml version="1.0" encoding="UTF-8"?>
<gpx version="1.1" creator="Send-It tkk-to-gpx (Harry's LapTimer .tkk)">
  <trk><name>snetterton</name><trkseg>
    <trkpt lat="52.46343130" lon="0.94496670"></trkpt>
    <trkpt lat="52.46338260" lon="0.94380150"></trkpt>
    <trkpt lat="52.46329020" lon="0.94193090"></trkpt>
    <trkpt lat="52.46320050" lon="0.94046780"></trkpt>
    <trkpt lat="52.46319230" lon="0.93999800"></trkpt>
    <trkpt lat="52.46320890" lon="0.93969100"></trkpt>
    <trkpt lat="52.46325110" lon="0.93940650"></trkpt>
    <trkpt lat="52.46330440" lon="0.93919050"></trkpt>
    <trkpt lat="52.46337560" lon="0.93898690"></trkpt>
    <trkpt lat="52.46348700" lon="0.93875550"></trkpt>
    <trkpt lat="52.46362180" lon="0.93855360"></trkpt>
    <trkpt lat="52.46377880" lon="0.93837910"></trkpt>
    <trkpt lat="52.46391940" lon="0.93826340"></trkpt>
    <trkpt lat="52.46411360" lon="0.93815250"></trkpt>
    <trkpt lat="52.46432880" lon="0.93807350"></trkpt>
    <trkpt lat="52.46461630" lon="0.93801170"></trkpt>
    <trkpt lat="52.46514650" lon="0.93796000"></trkpt>
    <trkpt lat="52.46644970" lon="0.93787250"></trkpt>
    <trkpt lat="52.46652790" lon="0.93787400"></trkpt>
    <trkpt lat="52.46658370" lon="0.93788350"></trkpt>
    <trkpt lat="52.46662580" lon="0.93790060"></trkpt>
    <trkpt lat="52.46666230" lon="0.93792510"></trkpt>
    <trkpt lat="52.46669670" lon="0.93796020"></trkpt>
    <trkpt lat="52.46672580" lon="0.93800220"></trkpt>
    <trkpt lat="52.46675030" lon="0.93805330"></trkpt>
    <trkpt lat="52.46676830" lon="0.93810730"></trkpt>
    <trkpt lat="52.46677880" lon="0.93815620"></trkpt>
    <trkpt lat="52.46678400" lon="0.93820530"></trkpt>
    <trkpt lat="52.46678450" lon="0.93825610"></trkpt>
    <trkpt lat="52.46677990" lon="0.93830680"></trkpt>
    <trkpt lat="52.46677000" lon="0.93835660"></trkpt>
    <trkpt lat="52.46675470" lon="0.93840450"></trkpt>
    <trkpt lat="52.46673510" lon="0.93844770"></trkpt>
    <trkpt lat="52.46670950" lon="0.93848840"></trkpt>
    <trkpt lat="52.46667230" lon="0.93853130"></trkpt>
    <trkpt lat="52.46662780" lon="0.93856930"></trkpt>
    <trkpt lat="52.46657780" lon="0.93859930"></trkpt>
    <trkpt lat="52.46651870" lon="0.93862320"></trkpt>
    <trkpt lat="52.46629030" lon="0.93866720"></trkpt>
    <trkpt lat="52.46499200" lon="0.93884550"></trkpt>
    <trkpt lat="52.46448490" lon="0.93892390"></trkpt>
    <trkpt lat="52.46437150" lon="0.93896900"></trkpt>
    <trkpt lat="52.46427770" lon="0.93902540"></trkpt>
    <trkpt lat="52.46419780" lon="0.93909170"></trkpt>
    <trkpt lat="52.46412750" lon="0.93916890"></trkpt>
    <trkpt lat="52.46406000" lon="0.93926390"></trkpt>
    <trkpt lat="52.46400220" lon="0.93936630"></trkpt>
    <trkpt lat="52.46395800" lon="0.93946510"></trkpt>
    <trkpt lat="52.46392250" lon="0.93956770"></trkpt>
    <trkpt lat="52.46389280" lon="0.93967960"></trkpt>
    <trkpt lat="52.46387090" lon="0.93979830"></trkpt>
    <trkpt lat="52.46385490" lon="0.93994380"></trkpt>
    <trkpt lat="52.46384890" lon="0.94009860"></trkpt>
    <trkpt lat="52.46385410" lon="0.94027710"></trkpt>
    <trkpt lat="52.46387290" lon="0.94046810"></trkpt>
    <trkpt lat="52.46397840" lon="0.94099710"></trkpt>
    <trkpt lat="52.46433330" lon="0.94230820"></trkpt>
    <trkpt lat="52.46454470" lon="0.94311110"></trkpt>
    <trkpt lat="52.46473740" lon="0.94394920"></trkpt>
    <trkpt lat="52.46491970" lon="0.94489320"></trkpt>
    <trkpt lat="52.46517260" lon="0.94634530"></trkpt>
    <trkpt lat="52.46520210" lon="0.94645290"></trkpt>
    <trkpt lat="52.46523260" lon="0.94653100"></trkpt>
    <trkpt lat="52.46526410" lon="0.94659250"></trkpt>
    <trkpt lat="52.46530080" lon="0.94664450"></trkpt>
    <trkpt lat="52.46533960" lon="0.94668310"></trkpt>
    <trkpt lat="52.46538280" lon="0.94671110"></trkpt>
    <trkpt lat="52.46542740" lon="0.94672490"></trkpt>
    <trkpt lat="52.46547370" lon="0.94672680"></trkpt>
    <trkpt lat="52.46552220" lon="0.94671420"></trkpt>
    <trkpt lat="52.46556880" lon="0.94668940"></trkpt>
    <trkpt lat="52.46561590" lon="0.94664930"></trkpt>
    <trkpt lat="52.46565800" lon="0.94659860"></trkpt>
    <trkpt lat="52.46569760" lon="0.94653420"></trkpt>
    <trkpt lat="52.46573140" lon="0.94645970"></trkpt>
    <trkpt lat="52.46576610" lon="0.94635760"></trkpt>
    <trkpt lat="52.46579470" lon="0.94623540"></trkpt>
    <trkpt lat="52.46585110" lon="0.94570900"></trkpt>
    <trkpt lat="52.46599770" lon="0.94319110"></trkpt>
    <trkpt lat="52.46599280" lon="0.94298550"></trkpt>
    <trkpt lat="52.46597600" lon="0.94282360"></trkpt>
    <trkpt lat="52.46594710" lon="0.94265220"></trkpt>
    <trkpt lat="52.46590650" lon="0.94248960"></trkpt>
    <trkpt lat="52.46586220" lon="0.94235960"></trkpt>
    <trkpt lat="52.46580520" lon="0.94223280"></trkpt>
    <trkpt lat="52.46571670" lon="0.94207600"></trkpt>
    <trkpt lat="52.46560370" lon="0.94191170"></trkpt>
    <trkpt lat="52.46518570" lon="0.94144050"></trkpt>
    <trkpt lat="52.46464430" lon="0.94091530"></trkpt>
    <trkpt lat="52.46448950" lon="0.94073200"></trkpt>
    <trkpt lat="52.46444360" lon="0.94066170"></trkpt>
    <trkpt lat="52.46440690" lon="0.94059320"></trkpt>
    <trkpt lat="52.46438150" lon="0.94053340"></trkpt>
    <trkpt lat="52.46436220" lon="0.94047330"></trkpt>
    <trkpt lat="52.46434780" lon="0.94041120"></trkpt>
    <trkpt lat="52.46433900" lon="0.94034810"></trkpt>
    <trkpt lat="52.46433640" lon="0.94028440"></trkpt>
    <trkpt lat="52.46433920" lon="0.94022010"></trkpt>
    <trkpt lat="52.46434690" lon="0.94015380"></trkpt>
    <trkpt lat="52.46436050" lon="0.94008560"></trkpt>
    <trkpt lat="52.46438500" lon="0.93999970"></trkpt>
    <trkpt lat="52.46441630" lon="0.93991530"></trkpt>
    <trkpt lat="52.46444730" lon="0.93984920"></trkpt>
    <trkpt lat="52.46448430" lon="0.93978620"></trkpt>
    <trkpt lat="52.46453720" lon="0.93971290"></trkpt>
    <trkpt lat="52.46459840" lon="0.93964290"></trkpt>
    <trkpt lat="52.46474060" lon="0.93952400"></trkpt>
    <trkpt lat="52.46490820" lon="0.93943350"></trkpt>
    <trkpt lat="52.46524610" lon="0.93931310"></trkpt>
    <trkpt lat="52.46555270" lon="0.93923720"></trkpt>
    <trkpt lat="52.46570580" lon="0.93922660"></trkpt>
    <trkpt lat="52.46577910" lon="0.93923650"></trkpt>
    <trkpt lat="52.46584990" lon="0.93925680"></trkpt>
    <trkpt lat="52.46591820" lon="0.93928900"></trkpt>
    <trkpt lat="52.46598260" lon="0.93933120"></trkpt>
    <trkpt lat="52.46604660" lon="0.93938630"></trkpt>
    <trkpt lat="52.46610450" lon="0.93944770"></trkpt>
    <trkpt lat="52.46615010" lon="0.93950560"></trkpt>
    <trkpt lat="52.46619040" lon="0.93956730"></trkpt>
    <trkpt lat="52.46622950" lon="0.93963880"></trkpt>
    <trkpt lat="52.46626410" lon="0.93971520"></trkpt>
    <trkpt lat="52.46632280" lon="0.93988940"></trkpt>
    <trkpt lat="52.46636460" lon="0.94008290"></trkpt>
    <trkpt lat="52.46639440" lon="0.94035470"></trkpt>
    <trkpt lat="52.46640370" lon="0.94072780"></trkpt>
    <trkpt lat="52.46635910" lon="0.94375860"></trkpt>
    <trkpt lat="52.46629740" lon="0.94594210"></trkpt>
    <trkpt lat="52.46616960" lon="0.94960730"></trkpt>
    <trkpt lat="52.46613360" lon="0.95143730"></trkpt>
    <trkpt lat="52.46616610" lon="0.95194930"></trkpt>
    <trkpt lat="52.46619420" lon="0.95214800"></trkpt>
    <trkpt lat="52.46623230" lon="0.95233450"></trkpt>
    <trkpt lat="52.46627760" lon="0.95250140"></trkpt>
    <trkpt lat="52.46633340" lon="0.95265720"></trkpt>
    <trkpt lat="52.46639510" lon="0.95278400"></trkpt>
    <trkpt lat="52.46646460" lon="0.95290220"></trkpt>
    <trkpt lat="52.46661570" lon="0.95311720"></trkpt>
    <trkpt lat="52.46664710" lon="0.95317570"></trkpt>
    <trkpt lat="52.46667080" lon="0.95323180"></trkpt>
    <trkpt lat="52.46669080" lon="0.95329310"></trkpt>
    <trkpt lat="52.46670570" lon="0.95335650"></trkpt>
    <trkpt lat="52.46671610" lon="0.95342270"></trkpt>
    <trkpt lat="52.46672140" lon="0.95349290"></trkpt>
    <trkpt lat="52.46672090" lon="0.95358600"></trkpt>
    <trkpt lat="52.46671380" lon="0.95368470"></trkpt>
    <trkpt lat="52.46667750" lon="0.95390430"></trkpt>
    <trkpt lat="52.46659760" lon="0.95420650"></trkpt>
    <trkpt lat="52.46617660" lon="0.95554440"></trkpt>
    <trkpt lat="52.46607020" lon="0.95580290"></trkpt>
    <trkpt lat="52.46597210" lon="0.95597730"></trkpt>
    <trkpt lat="52.46586110" lon="0.95612360"></trkpt>
    <trkpt lat="52.46573630" lon="0.95623830"></trkpt>
    <trkpt lat="52.46559920" lon="0.95631580"></trkpt>
    <trkpt lat="52.46541440" lon="0.95636840"></trkpt>
    <trkpt lat="52.46521260" lon="0.95638120"></trkpt>
    <trkpt lat="52.46494520" lon="0.95634900"></trkpt>
    <trkpt lat="52.46455080" lon="0.95625330"></trkpt>
    <trkpt lat="52.46420310" lon="0.95613490"></trkpt>
    <trkpt lat="52.46397850" lon="0.95602200"></trkpt>
    <trkpt lat="52.46381340" lon="0.95590500"></trkpt>
    <trkpt lat="52.46366040" lon="0.95576140"></trkpt>
    <trkpt lat="52.46352140" lon="0.95559240"></trkpt>
    <trkpt lat="52.46339710" lon="0.95539970"></trkpt>
    <trkpt lat="52.46328830" lon="0.95518430"></trkpt>
    <trkpt lat="52.46319600" lon="0.95494860"></trkpt>
    <trkpt lat="52.46312190" lon="0.95469760"></trkpt>
    <trkpt lat="52.46306730" lon="0.95443510"></trkpt>
    <trkpt lat="52.46303290" lon="0.95416680"></trkpt>
    <trkpt lat="52.46301930" lon="0.95389770"></trkpt>
    <trkpt lat="52.46302610" lon="0.95363090"></trkpt>
    <trkpt lat="52.46305320" lon="0.95337290"></trkpt>
    <trkpt lat="52.46310060" lon="0.95312650"></trkpt>
    <trkpt lat="52.46316730" lon="0.95289280"></trkpt>
    <trkpt lat="52.46325270" lon="0.95267390"></trkpt>
    <trkpt lat="52.46335300" lon="0.95247770"></trkpt>
    <trkpt lat="52.46348880" lon="0.95227820"></trkpt>
    <trkpt lat="52.46362450" lon="0.95213180"></trkpt>
    <trkpt lat="52.46386860" lon="0.95191620"></trkpt>
    <trkpt lat="52.46391760" lon="0.95185280"></trkpt>
    <trkpt lat="52.46395510" lon="0.95178940"></trkpt>
    <trkpt lat="52.46398940" lon="0.95171850"></trkpt>
    <trkpt lat="52.46401650" lon="0.95164380"></trkpt>
    <trkpt lat="52.46403560" lon="0.95156570"></trkpt>
    <trkpt lat="52.46404730" lon="0.95148020"></trkpt>
    <trkpt lat="52.46405350" lon="0.95135790"></trkpt>
    <trkpt lat="52.46404720" lon="0.95120440"></trkpt>
    <trkpt lat="52.46388650" lon="0.95014970"></trkpt>
    <trkpt lat="52.46373730" lon="0.94916150"></trkpt>
    <trkpt lat="52.46363220" lon="0.94829260"></trkpt>
    <trkpt lat="52.46354660" lon="0.94734090"></trkpt>
    <trkpt lat="52.46347390" lon="0.94583030"></trkpt>
    <trkpt lat="52.46343270" lon="0.94499940"></trkpt>
    <trkpt lat="52.46343130" lon="0.94496670"></trkpt>
  </trkseg></trk>
</gpx>
