<?xml version="1.0" encoding="UTF-8"?>
<gpx version="1.1" creator="Send-It DEM enrich">
  <trk><name>the_bend_international</name><trkseg>
    <trkpt lat="-35.30832630" lon="139.51136435"><ele>14.000</ele></trkpt>
    <trkpt lat="-35.30829937" lon="139.51084085"><ele>15.000</ele></trkpt>
    <trkpt lat="-35.30831179" lon="139.51106520"><ele>15.000</ele></trkpt>
    <trkpt lat="-35.30713445" lon="139.51116667"><ele>14.000</ele></trkpt>
    <trkpt lat="-35.30643969" lon="139.51122214"><ele>13.000</ele></trkpt>
    <trkpt lat="-35.30569339" lon="139.51129198"><ele>17.000</ele></trkpt>
    <trkpt lat="-35.30488306" lon="139.51135501"><ele>16.000</ele></trkpt>
    <trkpt lat="-35.30444422" lon="139.51139512"><ele>16.000</ele></trkpt>
    <trkpt lat="-35.30411130" lon="139.51141927"><ele>17.000</ele></trkpt>
    <trkpt lat="-35.30348869" lon="139.51147038"><ele>17.000</ele></trkpt>
    <trkpt lat="-35.30283971" lon="139.51152504"><ele>18.000</ele></trkpt>
    <trkpt lat="-35.30259451" lon="139.51154756"><ele>17.000</ele></trkpt>
    <trkpt lat="-35.30250279" lon="139.51155959"><ele>17.000</ele></trkpt>
    <trkpt lat="-35.30243941" lon="139.51157312"><ele>17.000</ele></trkpt>
    <trkpt lat="-35.30242005" lon="139.51158292"><ele>17.000</ele></trkpt>
    <trkpt lat="-35.30238764" lon="139.51160252"><ele>17.000</ele></trkpt>
    <trkpt lat="-35.30236039" lon="139.51162219"><ele>16.000</ele></trkpt>
    <trkpt lat="-35.30233678" lon="139.51164696"><ele>16.000</ele></trkpt>
    <trkpt lat="-35.30231401" lon="139.51167859"><ele>16.000</ele></trkpt>
    <trkpt lat="-35.30229462" lon="139.51170291"><ele>16.000</ele></trkpt>
    <trkpt lat="-35.30227548" lon="139.51173528"><ele>16.000</ele></trkpt>
    <trkpt lat="-35.30225958" lon="139.51177141"><ele>16.000</ele></trkpt>
    <trkpt lat="-35.30225005" lon="139.51182882"><ele>17.000</ele></trkpt>
    <trkpt lat="-35.30223859" lon="139.51189950"><ele>17.000</ele></trkpt>
    <trkpt lat="-35.30223555" lon="139.51207900"><ele>17.000</ele></trkpt>
    <trkpt lat="-35.30223077" lon="139.51248957"><ele>17.000</ele></trkpt>
    <trkpt lat="-35.30222890" lon="139.51266099"><ele>17.000</ele></trkpt>
    <trkpt lat="-35.30222253" lon="139.51273197"><ele>17.000</ele></trkpt>
    <trkpt lat="-35.30221285" lon="139.51278891"><ele>17.000</ele></trkpt>
    <trkpt lat="-35.30219312" lon="139.51286779"><ele>17.000</ele></trkpt>
    <trkpt lat="-35.30217642" lon="139.51290755"><ele>17.000</ele></trkpt>
    <trkpt lat="-35.30216021" lon="139.51294673"><ele>17.000</ele></trkpt>
    <trkpt lat="-35.30213904" lon="139.51299069"><ele>17.000</ele></trkpt>
    <trkpt lat="-35.30211306" lon="139.51303077"><ele>18.000</ele></trkpt>
    <trkpt lat="-35.30207020" lon="139.51308699"><ele>18.000</ele></trkpt>
    <trkpt lat="-35.30203413" lon="139.51313132"><ele>18.000</ele></trkpt>
    <trkpt lat="-35.30200077" lon="139.51316583"><ele>18.000</ele></trkpt>
    <trkpt lat="-35.30194973" lon="139.51320132"><ele>18.000</ele></trkpt>
    <trkpt lat="-35.30187873" lon="139.51324536"><ele>18.000</ele></trkpt>
    <trkpt lat="-35.30178551" lon="139.51330174"><ele>18.000</ele></trkpt>
    <trkpt lat="-35.30173489" lon="139.51333485"><ele>18.000</ele></trkpt>
    <trkpt lat="-35.30168903" lon="139.51336439"><ele>18.000</ele></trkpt>
    <trkpt lat="-35.30164463" lon="139.51340126"><ele>18.000</ele></trkpt>
    <trkpt lat="-35.30159420" lon="139.51344676"><ele>18.000</ele></trkpt>
    <trkpt lat="-35.30151052" lon="139.51353028"><ele>18.000</ele></trkpt>
    <trkpt lat="-35.30145830" lon="139.51358863"><ele>18.000</ele></trkpt>
    <trkpt lat="-35.30142032" lon="139.51363496"><ele>18.000</ele></trkpt>
    <trkpt lat="-35.30139133" lon="139.51367926"><ele>18.000</ele></trkpt>
    <trkpt lat="-35.30137286" lon="139.51370744"><ele>18.000</ele></trkpt>
    <trkpt lat="-35.30135669" lon="139.51374447"><ele>18.000</ele></trkpt>
    <trkpt lat="-35.30134131" lon="139.51378307"><ele>18.000</ele></trkpt>
    <trkpt lat="-35.30132680" lon="139.51383582"><ele>18.000</ele></trkpt>
    <trkpt lat="-35.30132046" lon="139.51386643"><ele>18.000</ele></trkpt>
    <trkpt lat="-35.30131650" lon="139.51390656"><ele>18.000</ele></trkpt>
    <trkpt lat="-35.30131465" lon="139.51393686"><ele>18.000</ele></trkpt>
    <trkpt lat="-35.30131519" lon="139.51397732"><ele>18.000</ele></trkpt>
    <trkpt lat="-35.30131861" lon="139.51399862"><ele>18.000</ele></trkpt>
    <trkpt lat="-35.30132223" lon="139.51402168"><ele>18.000</ele></trkpt>
    <trkpt lat="-35.30132969" lon="139.51405300"><ele>18.000</ele></trkpt>
    <trkpt lat="-35.30134141" lon="139.51409027"><ele>18.000</ele></trkpt>
    <trkpt lat="-35.30135212" lon="139.51412557"><ele>18.000</ele></trkpt>
    <trkpt lat="-35.30136358" lon="139.51415341"><ele>18.000</ele></trkpt>
    <trkpt lat="-35.30137395" lon="139.51417847"><ele>18.000</ele></trkpt>
    <trkpt lat="-35.30139201" lon="139.51421014"><ele>18.000</ele></trkpt>
    <trkpt lat="-35.30141012" lon="139.51424563"><ele>18.000</ele></trkpt>
    <trkpt lat="-35.30144640" lon="139.51429717"><ele>18.000</ele></trkpt>
    <trkpt lat="-35.30148511" lon="139.51434711"><ele>19.000</ele></trkpt>
    <trkpt lat="-35.30153717" lon="139.51439941"><ele>19.000</ele></trkpt>
    <trkpt lat="-35.30156921" lon="139.51442892"><ele>19.000</ele></trkpt>
    <trkpt lat="-35.30160975" lon="139.51445765"><ele>19.000</ele></trkpt>
    <trkpt lat="-35.30166314" lon="139.51448832"><ele>19.000</ele></trkpt>
    <trkpt lat="-35.30171509" lon="139.51451109"><ele>19.000</ele></trkpt>
    <trkpt lat="-35.30175604" lon="139.51452422"><ele>19.000</ele></trkpt>
    <trkpt lat="-35.30179165" lon="139.51453321"><ele>19.000</ele></trkpt>
    <trkpt lat="-35.30182535" lon="139.51454355"><ele>20.000</ele></trkpt>
    <trkpt lat="-35.30187151" lon="139.51454809"><ele>20.000</ele></trkpt>
    <trkpt lat="-35.30212296" lon="139.51457092"><ele>20.000</ele></trkpt>
    <trkpt lat="-35.30249232" lon="139.51459889"><ele>20.000</ele></trkpt>
    <trkpt lat="-35.30272063" lon="139.51461202"><ele>21.000</ele></trkpt>
    <trkpt lat="-35.30282299" lon="139.51460626"><ele>21.000</ele></trkpt>
    <trkpt lat="-35.30291482" lon="139.51459690"><ele>21.000</ele></trkpt>
    <trkpt lat="-35.30298845" lon="139.51458426"><ele>21.000</ele></trkpt>
    <trkpt lat="-35.30310160" lon="139.51455661"><ele>21.000</ele></trkpt>
    <trkpt lat="-35.30323843" lon="139.51451387"><ele>21.000</ele></trkpt>
    <trkpt lat="-35.30350882" lon="139.51440328"><ele>20.000</ele></trkpt>
    <trkpt lat="-35.30413691" lon="139.51410747"><ele>19.000</ele></trkpt>
    <trkpt lat="-35.30443441" lon="139.51394445"><ele>19.000</ele></trkpt>
    <trkpt lat="-35.30454476" lon="139.51388603"><ele>18.000</ele></trkpt>
    <trkpt lat="-35.30461179" lon="139.51385838"><ele>18.000</ele></trkpt>
    <trkpt lat="-35.30468191" lon="139.51383607"><ele>17.000</ele></trkpt>
    <trkpt lat="-35.30475892" lon="139.51381878"><ele>17.000</ele></trkpt>
    <trkpt lat="-35.30483983" lon="139.51380415"><ele>17.000</ele></trkpt>
    <trkpt lat="-35.30491083" lon="139.51379681"><ele>17.000</ele></trkpt>
    <trkpt lat="-35.30501136" lon="139.51380025"><ele>17.000</ele></trkpt>
    <trkpt lat="-35.30511025" lon="139.51381004"><ele>17.000</ele></trkpt>
    <trkpt lat="-35.30520562" lon="139.51382710"><ele>18.000</ele></trkpt>
    <trkpt lat="-35.30530434" lon="139.51385967"><ele>18.000</ele></trkpt>
    <trkpt lat="-35.30540696" lon="139.51390305"><ele>18.000</ele></trkpt>
    <trkpt lat="-35.30548151" lon="139.51394454"><ele>18.000</ele></trkpt>
    <trkpt lat="-35.30557483" lon="139.51400618"><ele>18.000</ele></trkpt>
    <trkpt lat="-35.30571446" lon="139.51410806"><ele>17.000</ele></trkpt>
    <trkpt lat="-35.30625084" lon="139.51449767"><ele>15.000</ele></trkpt>
    <trkpt lat="-35.30693070" lon="139.51498771"><ele>16.000</ele></trkpt>
    <trkpt lat="-35.30744340" lon="139.51535994"><ele>15.000</ele></trkpt>
    <trkpt lat="-35.30750485" lon="139.51540214"><ele>15.000</ele></trkpt>
    <trkpt lat="-35.30755000" lon="139.51544704"><ele>14.000</ele></trkpt>
    <trkpt lat="-35.30759157" lon="139.51550023"><ele>14.000</ele></trkpt>
    <trkpt lat="-35.30762361" lon="139.51555575"><ele>14.000</ele></trkpt>
    <trkpt lat="-35.30764830" lon="139.51561273"><ele>14.000</ele></trkpt>
    <trkpt lat="-35.30766225" lon="139.51565269"><ele>14.000</ele></trkpt>
    <trkpt lat="-35.30767267" lon="139.51570589"><ele>13.000</ele></trkpt>
    <trkpt lat="-35.30768212" lon="139.51575411"><ele>13.000</ele></trkpt>
    <trkpt lat="-35.30768655" lon="139.51580028"><ele>13.000</ele></trkpt>
    <trkpt lat="-35.30768485" lon="139.51583930"><ele>13.000</ele></trkpt>
    <trkpt lat="-35.30768134" lon="139.51586950"><ele>13.000</ele></trkpt>
    <trkpt lat="-35.30767744" lon="139.51589063"><ele>13.000</ele></trkpt>
    <trkpt lat="-35.30766601" lon="139.51593165"><ele>13.000</ele></trkpt>
    <trkpt lat="-35.30764898" lon="139.51596838"><ele>13.000</ele></trkpt>
    <trkpt lat="-35.30762538" lon="139.51600392"><ele>13.000</ele></trkpt>
    <trkpt lat="-35.30760590" lon="139.51602308"><ele>13.000</ele></trkpt>
    <trkpt lat="-35.30758795" lon="139.51603982"><ele>14.000</ele></trkpt>
    <trkpt lat="-35.30756510" lon="139.51605844"><ele>14.000</ele></trkpt>
    <trkpt lat="-35.30754012" lon="139.51607286"><ele>14.000</ele></trkpt>
    <trkpt lat="-35.30750531" lon="139.51608418"><ele>14.000</ele></trkpt>
    <trkpt lat="-35.30747014" lon="139.51609051"><ele>14.000</ele></trkpt>
    <trkpt lat="-35.30744196" lon="139.51609414"><ele>14.000</ele></trkpt>
    <trkpt lat="-35.30740218" lon="139.51609444"><ele>14.000</ele></trkpt>
    <trkpt lat="-35.30735162" lon="139.51609257"><ele>14.000</ele></trkpt>
    <trkpt lat="-35.30726364" lon="139.51608093"><ele>14.000</ele></trkpt>
    <trkpt lat="-35.30719273" lon="139.51606696"><ele>14.000</ele></trkpt>
    <trkpt lat="-35.30700101" lon="139.51601698"><ele>14.000</ele></trkpt>
    <trkpt lat="-35.30671499" lon="139.51593415"><ele>14.000</ele></trkpt>
    <trkpt lat="-35.30657054" lon="139.51589975"><ele>14.000</ele></trkpt>
    <trkpt lat="-35.30651270" lon="139.51588792"><ele>14.000</ele></trkpt>
    <trkpt lat="-35.30644965" lon="139.51587682"><ele>14.000</ele></trkpt>
    <trkpt lat="-35.30639088" lon="139.51587337"><ele>14.000</ele></trkpt>
    <trkpt lat="-35.30630680" lon="139.51586816"><ele>14.000</ele></trkpt>
    <trkpt lat="-35.30627143" lon="139.51586735"><ele>14.000</ele></trkpt>
    <trkpt lat="-35.30622030" lon="139.51587070"><ele>14.000</ele></trkpt>
    <trkpt lat="-35.30614693" lon="139.51587551"><ele>15.000</ele></trkpt>
    <trkpt lat="-35.30603806" lon="139.51588406"><ele>15.000</ele></trkpt>
    <trkpt lat="-35.30590873" lon="139.51590568"><ele>15.000</ele></trkpt>
    <trkpt lat="-35.30579327" lon="139.51593895"><ele>15.000</ele></trkpt>
    <trkpt lat="-35.30569863" lon="139.51596940"><ele>15.000</ele></trkpt>
    <trkpt lat="-35.30512381" lon="139.51623106"><ele>14.000</ele></trkpt>
    <trkpt lat="-35.30501360" lon="139.51629040"><ele>14.000</ele></trkpt>
    <trkpt lat="-35.30491585" lon="139.51634740"><ele>14.000</ele></trkpt>
    <trkpt lat="-35.30485795" lon="139.51639402"><ele>15.000</ele></trkpt>
    <trkpt lat="-35.30481684" lon="139.51642630"><ele>15.000</ele></trkpt>
    <trkpt lat="-35.30475341" lon="139.51648858"><ele>16.000</ele></trkpt>
    <trkpt lat="-35.30469308" lon="139.51655326"><ele>17.000</ele></trkpt>
    <trkpt lat="-35.30464338" lon="139.51661213"><ele>17.000</ele></trkpt>
    <trkpt lat="-35.30459421" lon="139.51668053"><ele>18.000</ele></trkpt>
    <trkpt lat="-35.30454196" lon="139.51675895"><ele>18.000</ele></trkpt>
    <trkpt lat="-35.30449591" lon="139.51684209"><ele>19.000</ele></trkpt>
    <trkpt lat="-35.30444366" lon="139.51694174"><ele>19.000</ele></trkpt>
    <trkpt lat="-35.30439963" lon="139.51703919"><ele>18.000</ele></trkpt>
    <trkpt lat="-35.30435934" lon="139.51713688"><ele>17.000</ele></trkpt>
    <trkpt lat="-35.30433812" lon="139.51720631"><ele>16.000</ele></trkpt>
    <trkpt lat="-35.30428280" lon="139.51740149"><ele>14.000</ele></trkpt>
    <trkpt lat="-35.30426938" lon="139.51747830"><ele>13.000</ele></trkpt>
    <trkpt lat="-35.30425705" lon="139.51754486"><ele>12.000</ele></trkpt>
    <trkpt lat="-35.30424895" lon="139.51762942"><ele>12.000</ele></trkpt>
    <trkpt lat="-35.30422577" lon="139.51801751"><ele>10.000</ele></trkpt>
    <trkpt lat="-35.30419554" lon="139.51847554"><ele>10.000</ele></trkpt>
    <trkpt lat="-35.30419777" lon="139.51852917"><ele>10.000</ele></trkpt>
    <trkpt lat="-35.30420414" lon="139.51860442"><ele>10.000</ele></trkpt>
    <trkpt lat="-35.30421981" lon="139.51867979"><ele>11.000</ele></trkpt>
    <trkpt lat="-35.30424740" lon="139.51877220"><ele>11.000</ele></trkpt>
    <trkpt lat="-35.30427432" lon="139.51883479"><ele>11.000</ele></trkpt>
    <trkpt lat="-35.30431654" lon="139.51891139"><ele>11.000</ele></trkpt>
    <trkpt lat="-35.30436162" lon="139.51897941"><ele>11.000</ele></trkpt>
    <trkpt lat="-35.30450420" lon="139.51915455"><ele>12.000</ele></trkpt>
    <trkpt lat="-35.30469880" lon="139.51939610"><ele>12.000</ele></trkpt>
    <trkpt lat="-35.30483523" lon="139.51957077"><ele>12.000</ele></trkpt>
    <trkpt lat="-35.30490542" lon="139.51966486"><ele>11.000</ele></trkpt>
    <trkpt lat="-35.30497299" lon="139.51974242"><ele>11.000</ele></trkpt>
    <trkpt lat="-35.30503384" lon="139.51978674"><ele>11.000</ele></trkpt>
    <trkpt lat="-35.30510552" lon="139.51981428"><ele>12.000</ele></trkpt>
    <trkpt lat="-35.30518934" lon="139.51983796"><ele>12.000</ele></trkpt>
    <trkpt lat="-35.30532156" lon="139.51982710"><ele>13.000</ele></trkpt>
    <trkpt lat="-35.30561117" lon="139.51980983"><ele>14.000</ele></trkpt>
    <trkpt lat="-35.30636524" lon="139.51975702"><ele>13.000</ele></trkpt>
    <trkpt lat="-35.30662907" lon="139.51973603"><ele>12.000</ele></trkpt>
    <trkpt lat="-35.30669068" lon="139.51973734"><ele>12.000</ele></trkpt>
    <trkpt lat="-35.30674743" lon="139.51974015"><ele>12.000</ele></trkpt>
    <trkpt lat="-35.30679718" lon="139.51975323"><ele>12.000</ele></trkpt>
    <trkpt lat="-35.30686667" lon="139.51977902"><ele>12.000</ele></trkpt>
    <trkpt lat="-35.30694563" lon="139.51981421"><ele>12.000</ele></trkpt>
    <trkpt lat="-35.30700407" lon="139.51984965"><ele>11.000</ele></trkpt>
    <trkpt lat="-35.30708072" lon="139.51991299"><ele>11.000</ele></trkpt>
    <trkpt lat="-35.30714761" lon="139.51998207"><ele>11.000</ele></trkpt>
    <trkpt lat="-35.30719056" lon="139.52003438"><ele>11.000</ele></trkpt>
    <trkpt lat="-35.30722163" lon="139.52008373"><ele>11.000</ele></trkpt>
    <trkpt lat="-35.30725371" lon="139.52013888"><ele>11.000</ele></trkpt>
    <trkpt lat="-35.30728016" lon="139.52018830"><ele>11.000</ele></trkpt>
    <trkpt lat="-35.30731321" lon="139.52024802"><ele>11.000</ele></trkpt>
    <trkpt lat="-35.30733997" lon="139.52028339"><ele>11.000</ele></trkpt>
    <trkpt lat="-35.30736736" lon="139.52031594"><ele>10.000</ele></trkpt>
    <trkpt lat="-35.30739763" lon="139.52034711"><ele>10.000</ele></trkpt>
    <trkpt lat="-35.30742176" lon="139.52037056"><ele>10.000</ele></trkpt>
    <trkpt lat="-35.30746556" lon="139.52040648"><ele>10.000</ele></trkpt>
    <trkpt lat="-35.30752251" lon="139.52044186"><ele>9.000</ele></trkpt>
    <trkpt lat="-35.30758907" lon="139.52047479"><ele>9.000</ele></trkpt>
    <trkpt lat="-35.30765101" lon="139.52049682"><ele>9.000</ele></trkpt>
    <trkpt lat="-35.30771007" lon="139.52051052"><ele>9.000</ele></trkpt>
    <trkpt lat="-35.30776034" lon="139.52051554"><ele>9.000</ele></trkpt>
    <trkpt lat="-35.30780803" lon="139.52051661"><ele>9.000</ele></trkpt>
    <trkpt lat="-35.30785037" lon="139.52051321"><ele>9.000</ele></trkpt>
    <trkpt lat="-35.30792983" lon="139.52049719"><ele>9.000</ele></trkpt>
    <trkpt lat="-35.30802039" lon="139.52046734"><ele>9.000</ele></trkpt>
    <trkpt lat="-35.30809258" lon="139.52042148"><ele>8.000</ele></trkpt>
    <trkpt lat="-35.30816098" lon="139.52037090"><ele>8.000</ele></trkpt>
    <trkpt lat="-35.30821814" lon="139.52031331"><ele>8.000</ele></trkpt>
    <trkpt lat="-35.30827424" lon="139.52023912"><ele>7.000</ele></trkpt>
    <trkpt lat="-35.30831236" lon="139.52017274"><ele>7.000</ele></trkpt>
    <trkpt lat="-35.30837191" lon="139.52004317"><ele>7.000</ele></trkpt>
    <trkpt lat="-35.30844098" lon="139.51990112"><ele>7.000</ele></trkpt>
    <trkpt lat="-35.30851185" lon="139.51972401"><ele>8.000</ele></trkpt>
    <trkpt lat="-35.30863552" lon="139.51935888"><ele>8.000</ele></trkpt>
    <trkpt lat="-35.30887921" lon="139.51860778"><ele>10.000</ele></trkpt>
    <trkpt lat="-35.30931567" lon="139.51726930"><ele>9.000</ele></trkpt>
    <trkpt lat="-35.30970628" lon="139.51607490"><ele>11.000</ele></trkpt>
    <trkpt lat="-35.30977590" lon="139.51587727"><ele>12.000</ele></trkpt>
    <trkpt lat="-35.30979940" lon="139.51579999"><ele>12.000</ele></trkpt>
    <trkpt lat="-35.30981015" lon="139.51574073"><ele>12.000</ele></trkpt>
    <trkpt lat="-35.30981729" lon="139.51566970"><ele>12.000</ele></trkpt>
    <trkpt lat="-35.30981657" lon="139.51558556"><ele>12.000</ele></trkpt>
    <trkpt lat="-35.30980916" lon="139.51551376"><ele>12.000</ele></trkpt>
    <trkpt lat="-35.30979943" lon="139.51544419"><ele>12.000</ele></trkpt>
    <trkpt lat="-35.30978450" lon="139.51537819"><ele>12.000</ele></trkpt>
    <trkpt lat="-35.30976144" lon="139.51531393"><ele>13.000</ele></trkpt>
    <trkpt lat="-35.30973799" lon="139.51525296"><ele>13.000</ele></trkpt>
    <trkpt lat="-35.30970852" lon="139.51519847"><ele>13.000</ele></trkpt>
    <trkpt lat="-35.30967331" lon="139.51514099"><ele>13.000</ele></trkpt>
    <trkpt lat="-35.30963743" lon="139.51510002"><ele>13.000</ele></trkpt>
    <trkpt lat="-35.30960029" lon="139.51505449"><ele>13.000</ele></trkpt>
    <trkpt lat="-35.30954317" lon="139.51500182"><ele>13.000</ele></trkpt>
    <trkpt lat="-35.30949673" lon="139.51497087"><ele>13.000</ele></trkpt>
    <trkpt lat="-35.30895080" lon="139.51463449"><ele>13.000</ele></trkpt>
    <trkpt lat="-35.30810264" lon="139.51410299"><ele>17.000</ele></trkpt>
    <trkpt lat="-35.30761666" lon="139.51380286"><ele>18.000</ele></trkpt>
    <trkpt lat="-35.30755362" lon="139.51375911"><ele>18.000</ele></trkpt>
    <trkpt lat="-35.30753086" lon="139.51373548"><ele>17.000</ele></trkpt>
    <trkpt lat="-35.30750822" lon="139.51370267"><ele>17.000</ele></trkpt>
    <trkpt lat="-35.30748169" lon="139.51365667"><ele>17.000</ele></trkpt>
    <trkpt lat="-35.30746418" lon="139.51361762"><ele>17.000</ele></trkpt>
    <trkpt lat="-35.30745397" lon="139.51358272"><ele>17.000</ele></trkpt>
    <trkpt lat="-35.30744311" lon="139.51354499"><ele>17.000</ele></trkpt>
    <trkpt lat="-35.30744053" lon="139.51350576"><ele>17.000</ele></trkpt>
    <trkpt lat="-35.30743838" lon="139.51345937"><ele>17.000</ele></trkpt>
    <trkpt lat="-35.30744050" lon="139.51341617"><ele>17.000</ele></trkpt>
    <trkpt lat="-35.30744456" lon="139.51337771"><ele>17.000</ele></trkpt>
    <trkpt lat="-35.30745352" lon="139.51333645"><ele>17.000</ele></trkpt>
    <trkpt lat="-35.30746433" lon="139.51329473"><ele>17.000</ele></trkpt>
    <trkpt lat="-35.30747792" lon="139.51326295"><ele>17.000</ele></trkpt>
    <trkpt lat="-35.30751104" lon="139.51321311"><ele>17.000</ele></trkpt>
    <trkpt lat="-35.30781688" lon="139.51271282"><ele>14.000</ele></trkpt>
    <trkpt lat="-35.30785326" lon="139.51266272"><ele>14.000</ele></trkpt>
    <trkpt lat="-35.30790649" lon="139.51260866"><ele>15.000</ele></trkpt>
    <trkpt lat="-35.30796271" lon="139.51256322"><ele>15.000</ele></trkpt>
    <trkpt lat="-35.30801826" lon="139.51253301"><ele>15.000</ele></trkpt>
    <trkpt lat="-35.30807447" lon="139.51251107"><ele>15.000</ele></trkpt>
    <trkpt lat="-35.30812720" lon="139.51249530"><ele>15.000</ele></trkpt>
    <trkpt lat="-35.30820078" lon="139.51248851"><ele>15.000</ele></trkpt>
    <trkpt lat="-35.30828225" lon="139.51249502"><ele>15.000</ele></trkpt>
    <trkpt lat="-35.30832692" lon="139.51250447"><ele>15.000</ele></trkpt>
    <trkpt lat="-35.30836031" lon="139.51252191"><ele>15.000</ele></trkpt>
    <trkpt lat="-35.30839980" lon="139.51254029"><ele>15.000</ele></trkpt>
    <trkpt lat="-35.30844100" lon="139.51256302"><ele>15.000</ele></trkpt>
    <trkpt lat="-35.30847780" lon="139.51259482"><ele>15.000</ele></trkpt>
    <trkpt lat="-35.30851511" lon="139.51262542"><ele>15.000</ele></trkpt>
    <trkpt lat="-35.30855335" lon="139.51266541"><ele>16.000</ele></trkpt>
    <trkpt lat="-35.30858379" lon="139.51270126"><ele>16.000</ele></trkpt>
    <trkpt lat="-35.30862168" lon="139.51277509"><ele>16.000</ele></trkpt>
    <trkpt lat="-35.30868586" lon="139.51291298"><ele>17.000</ele></trkpt>
    <trkpt lat="-35.30873161" lon="139.51300071"><ele>17.000</ele></trkpt>
    <trkpt lat="-35.30880257" lon="139.51311030"><ele>17.000</ele></trkpt>
    <trkpt lat="-35.30887955" lon="139.51321755"><ele>18.000</ele></trkpt>
    <trkpt lat="-35.30896032" lon="139.51331325"><ele>18.000</ele></trkpt>
    <trkpt lat="-35.30904645" lon="139.51340266"><ele>17.000</ele></trkpt>
    <trkpt lat="-35.30914660" lon="139.51348448"><ele>16.000</ele></trkpt>
    <trkpt lat="-35.30925339" lon="139.51355611"><ele>16.000</ele></trkpt>
    <trkpt lat="-35.30932481" lon="139.51359625"><ele>15.000</ele></trkpt>
    <trkpt lat="-35.30942041" lon="139.51364160"><ele>14.000</ele></trkpt>
    <trkpt lat="-35.30951097" lon="139.51367261"><ele>14.000</ele></trkpt>
    <trkpt lat="-35.30965266" lon="139.51370737"><ele>14.000</ele></trkpt>
    <trkpt lat="-35.30982298" lon="139.51373205"><ele>14.000</ele></trkpt>
    <trkpt lat="-35.31080105" lon="139.51384728"><ele>10.000</ele></trkpt>
    <trkpt lat="-35.31186639" lon="139.51397132"><ele>10.000</ele></trkpt>
    <trkpt lat="-35.31241572" lon="139.51403387"><ele>10.000</ele></trkpt>
    <trkpt lat="-35.31244515" lon="139.51403003"><ele>10.000</ele></trkpt>
    <trkpt lat="-35.31249451" lon="139.51401774"><ele>10.000</ele></trkpt>
    <trkpt lat="-35.31254142" lon="139.51398519"><ele>10.000</ele></trkpt>
    <trkpt lat="-35.31258659" lon="139.51393611"><ele>10.000</ele></trkpt>
    <trkpt lat="-35.31261410" lon="139.51388559"><ele>10.000</ele></trkpt>
    <trkpt lat="-35.31262677" lon="139.51384551"><ele>10.000</ele></trkpt>
    <trkpt lat="-35.31263574" lon="139.51381258"><ele>10.000</ele></trkpt>
    <trkpt lat="-35.31263939" lon="139.51376571"><ele>11.000</ele></trkpt>
    <trkpt lat="-35.31263858" lon="139.51371431"><ele>10.000</ele></trkpt>
    <trkpt lat="-35.31258490" lon="139.51347155"><ele>11.000</ele></trkpt>
    <trkpt lat="-35.31231811" lon="139.51238042"><ele>11.000</ele></trkpt>
    <trkpt lat="-35.31210833" lon="139.51158810"><ele>10.000</ele></trkpt>
    <trkpt lat="-35.31203502" lon="139.51128637"><ele>12.000</ele></trkpt>
    <trkpt lat="-35.31201128" lon="139.51119085"><ele>13.000</ele></trkpt>
    <trkpt lat="-35.31199487" lon="139.51114120"><ele>13.000</ele></trkpt>
    <trkpt lat="-35.31196895" lon="139.51107809"><ele>13.000</ele></trkpt>
    <trkpt lat="-35.31192929" lon="139.51101757"><ele>13.000</ele></trkpt>
    <trkpt lat="-35.31189125" lon="139.51097305"><ele>13.000</ele></trkpt>
    <trkpt lat="-35.31184594" lon="139.51092466"><ele>13.000</ele></trkpt>
    <trkpt lat="-35.31180383" lon="139.51089231"><ele>12.000</ele></trkpt>
    <trkpt lat="-35.31173493" lon="139.51085159"><ele>12.000</ele></trkpt>
    <trkpt lat="-35.31166826" lon="139.51082045"><ele>11.000</ele></trkpt>
    <trkpt lat="-35.31158752" lon="139.51080432"><ele>11.000</ele></trkpt>
    <trkpt lat="-35.31148331" lon="139.51080279"><ele>10.000</ele></trkpt>
    <trkpt lat="-35.31082253" lon="139.51086075"><ele>14.000</ele></trkpt>
    <trkpt lat="-35.30995974" lon="139.51093617"><ele>12.000</ele></trkpt>
    <trkpt lat="-35.30928106" lon="139.51098864"><ele>13.000</ele></trkpt>
    <trkpt lat="-35.30831179" lon="139.51106520"><ele>15.000</ele></trkpt>
    <trkpt lat="-35.30831811" lon="139.51122959"><ele>15.000</ele></trkpt>
    <trkpt lat="-35.30740612" lon="139.51130817"><ele>15.000</ele></trkpt>
    <trkpt lat="-35.30592393" lon="139.51143108"><ele>15.000</ele></trkpt>
    <trkpt lat="-35.30400503" lon="139.51159014"><ele>17.000</ele></trkpt>
    <trkpt lat="-35.30271840" lon="139.51169899"><ele>18.000</ele></trkpt>
    <trkpt lat="-35.30249232" lon="139.51171986"><ele>17.000</ele></trkpt>
    <trkpt lat="-35.30248343" lon="139.51172080"><ele>17.000</ele></trkpt>
    <trkpt lat="-35.30247326" lon="139.51172658"><ele>17.000</ele></trkpt>
    <trkpt lat="-35.30244723" lon="139.51174728"><ele>17.000</ele></trkpt>
    <trkpt lat="-35.30243465" lon="139.51175869"><ele>17.000</ele></trkpt>
    <trkpt lat="-35.30241695" lon="139.51177686"><ele>17.000</ele></trkpt>
    <trkpt lat="-35.30240577" lon="139.51179374"><ele>17.000</ele></trkpt>
    <trkpt lat="-35.30239282" lon="139.51181112"><ele>17.000</ele></trkpt>
    <trkpt lat="-35.30238807" lon="139.51182230"><ele>17.000</ele></trkpt>
    <trkpt lat="-35.30238415" lon="139.51183431"><ele>17.000</ele></trkpt>
    <trkpt lat="-35.30237940" lon="139.51184652"><ele>17.000</ele></trkpt>
    <trkpt lat="-35.30237571" lon="139.51186219"><ele>17.000</ele></trkpt>
    <trkpt lat="-35.30237227" lon="139.51188147"><ele>17.000</ele></trkpt>
    <trkpt lat="-35.30237117" lon="139.51190935"><ele>17.000</ele></trkpt>
    <trkpt lat="-35.30235941" lon="139.51266831"><ele>17.000</ele></trkpt>
    <trkpt lat="-35.30235832" lon="139.51269864"><ele>17.000</ele></trkpt>
    <trkpt lat="-35.30235502" lon="139.51273837"><ele>17.000</ele></trkpt>
    <trkpt lat="-35.30234969" lon="139.51277719"><ele>17.000</ele></trkpt>
    <trkpt lat="-35.30234171" lon="139.51282401"><ele>18.000</ele></trkpt>
    <trkpt lat="-35.30233120" lon="139.51287312"><ele>18.000</ele></trkpt>
    <trkpt lat="-35.30232297" lon="139.51290255"><ele>18.000</ele></trkpt>
    <trkpt lat="-35.30231416" lon="139.51292666"><ele>18.000</ele></trkpt>
    <trkpt lat="-35.30230238" lon="139.51295772"><ele>18.000</ele></trkpt>
    <trkpt lat="-35.30228629" lon="139.51299819"><ele>18.000</ele></trkpt>
    <trkpt lat="-35.30226452" lon="139.51304314"><ele>18.000</ele></trkpt>
    <trkpt lat="-35.30224444" lon="139.51308128"><ele>18.000</ele></trkpt>
    <trkpt lat="-35.30222252" lon="139.51311623"><ele>18.000</ele></trkpt>
    <trkpt lat="-35.30220179" lon="139.51314666"><ele>18.000</ele></trkpt>
    <trkpt lat="-35.30218204" lon="139.51317614"><ele>18.000</ele></trkpt>
    <trkpt lat="-35.30216473" lon="139.51319930"><ele>18.000</ele></trkpt>
    <trkpt lat="-35.30214474" lon="139.51322304"><ele>18.000</ele></trkpt>
    <trkpt lat="-35.30212782" lon="139.51324312"><ele>18.000</ele></trkpt>
    <trkpt lat="-35.30210675" lon="139.51326350"><ele>18.000</ele></trkpt>
    <trkpt lat="-35.30208031" lon="139.51329106"><ele>18.000</ele></trkpt>
    <trkpt lat="-35.30205677" lon="139.51331248"><ele>18.000</ele></trkpt>
    <trkpt lat="-35.30202447" lon="139.51333706"><ele>18.000</ele></trkpt>
    <trkpt lat="-35.30197859" lon="139.51336699"><ele>18.000</ele></trkpt>
    <trkpt lat="-35.30194997" lon="139.51338433"><ele>18.000</ele></trkpt>
    <trkpt lat="-35.30192617" lon="139.51339796"><ele>18.000</ele></trkpt>
    <trkpt lat="-35.30188466" lon="139.51342001"><ele>18.000</ele></trkpt>
    <trkpt lat="-35.30184311" lon="139.51344644"><ele>18.000</ele></trkpt>
    <trkpt lat="-35.30181411" lon="139.51346393"><ele>18.000</ele></trkpt>
    <trkpt lat="-35.30175257" lon="139.51350599"><ele>18.000</ele></trkpt>
    <trkpt lat="-35.30166278" lon="139.51358041"><ele>18.000</ele></trkpt>
    <trkpt lat="-35.30155831" lon="139.51368686"><ele>18.000</ele></trkpt>
    <trkpt lat="-35.30152525" lon="139.51372974"><ele>18.000</ele></trkpt>
    <trkpt lat="-35.30150717" lon="139.51375775"><ele>18.000</ele></trkpt>
    <trkpt lat="-35.30148833" lon="139.51378360"><ele>18.000</ele></trkpt>
    <trkpt lat="-35.30147557" lon="139.51380899"><ele>18.000</ele></trkpt>
    <trkpt lat="-35.30146431" lon="139.51383532"><ele>18.000</ele></trkpt>
    <trkpt lat="-35.30145695" lon="139.51386382"><ele>18.000</ele></trkpt>
    <trkpt lat="-35.30145077" lon="139.51389425"><ele>18.000</ele></trkpt>
    <trkpt lat="-35.30144924" lon="139.51391336"><ele>18.000</ele></trkpt>
    <trkpt lat="-35.30144859" lon="139.51393529"><ele>18.000</ele></trkpt>
    <trkpt lat="-35.30145057" lon="139.51395246"><ele>18.000</ele></trkpt>
    <trkpt lat="-35.30145237" lon="139.51397159"><ele>18.000</ele></trkpt>
    <trkpt lat="-35.30145774" lon="139.51400378"><ele>18.000</ele></trkpt>
    <trkpt lat="-35.30146194" lon="139.51402240"><ele>18.000</ele></trkpt>
    <trkpt lat="-35.30146685" lon="139.51404221"><ele>18.000</ele></trkpt>
    <trkpt lat="-35.30147067" lon="139.51405538"><ele>18.000</ele></trkpt>
    <trkpt lat="-35.30147400" lon="139.51406958"><ele>18.000</ele></trkpt>
    <trkpt lat="-35.30148226" lon="139.51409093"><ele>18.000</ele></trkpt>
    <trkpt lat="-35.30149306" lon="139.51411444"><ele>18.000</ele></trkpt>
    <trkpt lat="-35.30150203" lon="139.51413389"><ele>18.000</ele></trkpt>
    <trkpt lat="-35.30151344" lon="139.51415782"><ele>18.000</ele></trkpt>
    <trkpt lat="-35.30153010" lon="139.51418318"><ele>18.000</ele></trkpt>
    <trkpt lat="-35.30155153" lon="139.51421438"><ele>18.000</ele></trkpt>
    <trkpt lat="-35.30157870" lon="139.51425184"><ele>18.000</ele></trkpt>
    <trkpt lat="-35.30159248" lon="139.51426971"><ele>18.000</ele></trkpt>
    <trkpt lat="-35.30162120" lon="139.51429591"><ele>18.000</ele></trkpt>
    <trkpt lat="-35.30165389" lon="139.51432065"><ele>19.000</ele></trkpt>
    <trkpt lat="-35.30170094" lon="139.51435313"><ele>19.000</ele></trkpt>
    <trkpt lat="-35.30174145" lon="139.51437721"><ele>19.000</ele></trkpt>
    <trkpt lat="-35.30178244" lon="139.51439417"><ele>19.000</ele></trkpt>
    <trkpt lat="-35.30183602" lon="139.51441111"><ele>19.000</ele></trkpt>
    <trkpt lat="-35.30190524" lon="139.51442237"><ele>19.000</ele></trkpt>
    <trkpt lat="-35.30207355" lon="139.51443710"><ele>19.000</ele></trkpt>
    <trkpt lat="-35.30251908" lon="139.51447197"><ele>19.000</ele></trkpt>
    <trkpt lat="-35.30268172" lon="139.51448812"><ele>20.000</ele></trkpt>
    <trkpt lat="-35.30271831" lon="139.51448500"><ele>20.000</ele></trkpt>
    <trkpt lat="-35.30285448" lon="139.51447497"><ele>20.000</ele></trkpt>
    <trkpt lat="-35.30297851" lon="139.51445674"><ele>21.000</ele></trkpt>
    <trkpt lat="-35.30312179" lon="139.51442373"><ele>21.000</ele></trkpt>
    <trkpt lat="-35.30322448" lon="139.51438360"><ele>21.000</ele></trkpt>
    <trkpt lat="-35.30335244" lon="139.51433451"><ele>21.000</ele></trkpt>
    <trkpt lat="-35.30349943" lon="139.51427357"><ele>20.000</ele></trkpt>
    <trkpt lat="-35.30380195" lon="139.51413399"><ele>19.000</ele></trkpt>
    <trkpt lat="-35.30402176" lon="139.51402416"><ele>19.000</ele></trkpt>
    <trkpt lat="-35.30440078" lon="139.51382164"><ele>19.000</ele></trkpt>
    <trkpt lat="-35.30444189" lon="139.51380151"><ele>19.000</ele></trkpt>
    <trkpt lat="-35.30449271" lon="139.51377639"><ele>19.000</ele></trkpt>
    <trkpt lat="-35.30453698" lon="139.51375571"><ele>18.000</ele></trkpt>
    <trkpt lat="-35.30459619" lon="139.51373338"><ele>18.000</ele></trkpt>
    <trkpt lat="-35.30464486" lon="139.51371723"><ele>18.000</ele></trkpt>
    <trkpt lat="-35.30471367" lon="139.51370029"><ele>17.000</ele></trkpt>
    <trkpt lat="-35.30479065" lon="139.51368544"><ele>17.000</ele></trkpt>
    <trkpt lat="-35.30486901" lon="139.51367653"><ele>17.000</ele></trkpt>
    <trkpt lat="-35.30492777" lon="139.51367382"><ele>17.000</ele></trkpt>
    <trkpt lat="-35.30501036" lon="139.51367792"><ele>17.000</ele></trkpt>
    <trkpt lat="-35.30508974" lon="139.51368328"><ele>17.000</ele></trkpt>
    <trkpt lat="-35.30513623" lon="139.51368836"><ele>17.000</ele></trkpt>
    <trkpt lat="-35.30522583" lon="139.51370866"><ele>18.000</ele></trkpt>
    <trkpt lat="-35.30531561" lon="139.51373579"><ele>18.000</ele></trkpt>
    <trkpt lat="-35.30540144" lon="139.51376650"><ele>18.000</ele></trkpt>
    <trkpt lat="-35.30548023" lon="139.51380311"><ele>18.000</ele></trkpt>
    <trkpt lat="-35.30559711" lon="139.51387367"><ele>18.000</ele></trkpt>
    <trkpt lat="-35.30567917" lon="139.51393484"><ele>17.000</ele></trkpt>
    <trkpt lat="-35.30577972" lon="139.51400726"><ele>16.000</ele></trkpt>
    <trkpt lat="-35.30649320" lon="139.51450641"><ele>14.000</ele></trkpt>
    <trkpt lat="-35.30715026" lon="139.51495434"><ele>15.000</ele></trkpt>
    <trkpt lat="-35.30758133" lon="139.51525798"><ele>15.000</ele></trkpt>
    <trkpt lat="-35.30761801" lon="139.51530147"><ele>15.000</ele></trkpt>
    <trkpt lat="-35.30765340" lon="139.51534297"><ele>15.000</ele></trkpt>
    <trkpt lat="-35.30769055" lon="139.51539982"><ele>15.000</ele></trkpt>
    <trkpt lat="-35.30772016" lon="139.51545982"><ele>14.000</ele></trkpt>
    <trkpt lat="-35.30773919" lon="139.51550233"><ele>14.000</ele></trkpt>
    <trkpt lat="-35.30775921" lon="139.51556976"><ele>14.000</ele></trkpt>
    <trkpt lat="-35.30777663" lon="139.51564543"><ele>14.000</ele></trkpt>
    <trkpt lat="-35.30778634" lon="139.51572137"><ele>13.000</ele></trkpt>
    <trkpt lat="-35.30778975" lon="139.51580816"><ele>13.000</ele></trkpt>
    <trkpt lat="-35.30778771" lon="139.51586526"><ele>13.000</ele></trkpt>
    <trkpt lat="-35.30778009" lon="139.51590641"><ele>13.000</ele></trkpt>
    <trkpt lat="-35.30776644" lon="139.51595118"><ele>13.000</ele></trkpt>
    <trkpt lat="-35.30775147" lon="139.51599473"><ele>13.000</ele></trkpt>
    <trkpt lat="-35.30773442" lon="139.51603555"><ele>13.000</ele></trkpt>
    <trkpt lat="-35.30771255" lon="139.51606827"><ele>13.000</ele></trkpt>
    <trkpt lat="-35.30769197" lon="139.51609475"><ele>13.000</ele></trkpt>
    <trkpt lat="-35.30766415" lon="139.51612567"><ele>13.000</ele></trkpt>
    <trkpt lat="-35.30763960" lon="139.51614830"><ele>13.000</ele></trkpt>
    <trkpt lat="-35.30760814" lon="139.51617003"><ele>14.000</ele></trkpt>
    <trkpt lat="-35.30757316" lon="139.51618876"><ele>14.000</ele></trkpt>
    <trkpt lat="-35.30754277" lon="139.51620029"><ele>14.000</ele></trkpt>
    <trkpt lat="-35.30751158" lon="139.51620966"><ele>14.000</ele></trkpt>
    <trkpt lat="-35.30747786" lon="139.51621320"><ele>14.000</ele></trkpt>
    <trkpt lat="-35.30743688" lon="139.51621515"><ele>14.000</ele></trkpt>
    <trkpt lat="-35.30739901" lon="139.51621907"><ele>14.000</ele></trkpt>
    <trkpt lat="-35.30735512" lon="139.51621828"><ele>14.000</ele></trkpt>
    <trkpt lat="-35.30731878" lon="139.51621706"><ele>14.000</ele></trkpt>
    <trkpt lat="-35.30728715" lon="139.51621507"><ele>14.000</ele></trkpt>
    <trkpt lat="-35.30726326" lon="139.51621181"><ele>14.000</ele></trkpt>
    <trkpt lat="-35.30720972" lon="139.51620094"><ele>14.000</ele></trkpt>
    <trkpt lat="-35.30679052" lon="139.51608484"><ele>13.000</ele></trkpt>
    <trkpt lat="-35.30657372" lon="139.51602531"><ele>13.000</ele></trkpt>
    <trkpt lat="-35.30652215" lon="139.51601597"><ele>13.000</ele></trkpt>
    <trkpt lat="-35.30645400" lon="139.51600488"><ele>13.000</ele></trkpt>
    <trkpt lat="-35.30638533" lon="139.51599967"><ele>13.000</ele></trkpt>
    <trkpt lat="-35.30628500" lon="139.51599181"><ele>14.000</ele></trkpt>
    <trkpt lat="-35.30618900" lon="139.51599316"><ele>14.000</ele></trkpt>
    <trkpt lat="-35.30612573" lon="139.51599757"><ele>14.000</ele></trkpt>
    <trkpt lat="-35.30604613" lon="139.51600854"><ele>15.000</ele></trkpt>
    <trkpt lat="-35.30593124" lon="139.51603106"><ele>15.000</ele></trkpt>
    <trkpt lat="-35.30583970" lon="139.51605492"><ele>15.000</ele></trkpt>
    <trkpt lat="-35.30571370" lon="139.51609897"><ele>15.000</ele></trkpt>
    <trkpt lat="-35.30552768" lon="139.51618670"><ele>15.000</ele></trkpt>
    <trkpt lat="-35.30508810" lon="139.51639139"><ele>13.000</ele></trkpt>
    <trkpt lat="-35.30497436" lon="139.51645637"><ele>13.000</ele></trkpt>
    <trkpt lat="-35.30492677" lon="139.51648722"><ele>14.000</ele></trkpt>
    <trkpt lat="-35.30487119" lon="139.51653593"><ele>15.000</ele></trkpt>
    <trkpt lat="-35.30481669" lon="139.51658970"><ele>15.000</ele></trkpt>
    <trkpt lat="-35.30477366" lon="139.51663642"><ele>16.000</ele></trkpt>
    <trkpt lat="-35.30473117" lon="139.51668667"><ele>17.000</ele></trkpt>
    <trkpt lat="-35.30468116" lon="139.51675115"><ele>17.000</ele></trkpt>
    <trkpt lat="-35.30463898" lon="139.51681483"><ele>18.000</ele></trkpt>
    <trkpt lat="-35.30459507" lon="139.51688964"><ele>18.000</ele></trkpt>
    <trkpt lat="-35.30455107" lon="139.51696997"><ele>18.000</ele></trkpt>
    <trkpt lat="-35.30452979" lon="139.51701240"><ele>18.000</ele></trkpt>
    <trkpt lat="-35.30450529" lon="139.51706879"><ele>17.000</ele></trkpt>
    <trkpt lat="-35.30448040" lon="139.51712962"><ele>17.000</ele></trkpt>
    <trkpt lat="-35.30445268" lon="139.51720599"><ele>16.000</ele></trkpt>
    <trkpt lat="-35.30442775" lon="139.51727612"><ele>15.000</ele></trkpt>
    <trkpt lat="-35.30439466" lon="139.51739502"><ele>14.000</ele></trkpt>
    <trkpt lat="-35.30437420" lon="139.51748424"><ele>13.000</ele></trkpt>
    <trkpt lat="-35.30436648" lon="139.51755070"><ele>12.000</ele></trkpt>
    <trkpt lat="-35.30435837" lon="139.51765961"><ele>12.000</ele></trkpt>
    <trkpt lat="-35.30430433" lon="139.51848104"><ele>11.000</ele></trkpt>
    <trkpt lat="-35.30430771" lon="139.51853803"><ele>11.000</ele></trkpt>
    <trkpt lat="-35.30431327" lon="139.51858429"><ele>11.000</ele></trkpt>
    <trkpt lat="-35.30432824" lon="139.51865311"><ele>11.000</ele></trkpt>
    <trkpt lat="-35.30434996" lon="139.51871704"><ele>11.000</ele></trkpt>
    <trkpt lat="-35.30437370" lon="139.51877076"><ele>12.000</ele></trkpt>
    <trkpt lat="-35.30440250" lon="139.51882685"><ele>12.000</ele></trkpt>
    <trkpt lat="-35.30443446" lon="139.51887976"><ele>12.000</ele></trkpt>
    <trkpt lat="-35.30458476" lon="139.51906028"><ele>13.000</ele></trkpt>
    <trkpt lat="-35.30480916" lon="139.51934377"><ele>13.000</ele></trkpt>
    <trkpt lat="-35.30495317" lon="139.51953121"><ele>12.000</ele></trkpt>
    <trkpt lat="-35.30500741" lon="139.51960490"><ele>12.000</ele></trkpt>
    <trkpt lat="-35.30505208" lon="139.51964964"><ele>12.000</ele></trkpt>
    <trkpt lat="-35.30509652" lon="139.51967774"><ele>12.000</ele></trkpt>
    <trkpt lat="-35.30513230" lon="139.51969239"><ele>12.000</ele></trkpt>
    <trkpt lat="-35.30517516" lon="139.51970438"><ele>12.000</ele></trkpt>
    <trkpt lat="-35.30524101" lon="139.51971238"><ele>13.000</ele></trkpt>
    <trkpt lat="-35.30535088" lon="139.51970214"><ele>14.000</ele></trkpt>
    <trkpt lat="-35.30577251" lon="139.51966777"><ele>15.000</ele></trkpt>
    <trkpt lat="-35.30620200" lon="139.51964105"><ele>14.000</ele></trkpt>
    <trkpt lat="-35.30648499" lon="139.51962261"><ele>13.000</ele></trkpt>
    <trkpt lat="-35.30663364" lon="139.51960869"><ele>12.000</ele></trkpt>
    <trkpt lat="-35.30671492" lon="139.51961309"><ele>12.000</ele></trkpt>
    <trkpt lat="-35.30677163" lon="139.51962161"><ele>12.000</ele></trkpt>
    <trkpt lat="-35.30684001" lon="139.51963528"><ele>12.000</ele></trkpt>
    <trkpt lat="-35.30690346" lon="139.51965770"><ele>12.000</ele></trkpt>
    <trkpt lat="-35.30695778" lon="139.51968276"><ele>12.000</ele></trkpt>
    <trkpt lat="-35.30701250" lon="139.51971077"><ele>12.000</ele></trkpt>
    <trkpt lat="-35.30707060" lon="139.51974867"><ele>11.000</ele></trkpt>
    <trkpt lat="-35.30710725" lon="139.51977788"><ele>11.000</ele></trkpt>
    <trkpt lat="-35.30714887" lon="139.51981166"><ele>11.000</ele></trkpt>
    <trkpt lat="-35.30719376" lon="139.51985841"><ele>11.000</ele></trkpt>
    <trkpt lat="-35.30724116" lon="139.51991452"><ele>11.000</ele></trkpt>
    <trkpt lat="-35.30727908" lon="139.51996292"><ele>11.000</ele></trkpt>
    <trkpt lat="-35.30731420" lon="139.52001991"><ele>11.000</ele></trkpt>
    <trkpt lat="-35.30734484" lon="139.52008748"><ele>11.000</ele></trkpt>
    <trkpt lat="-35.30736246" lon="139.52011534"><ele>11.000</ele></trkpt>
    <trkpt lat="-35.30739465" lon="139.52016216"><ele>11.000</ele></trkpt>
    <trkpt lat="-35.30742371" lon="139.52020199"><ele>10.000</ele></trkpt>
    <trkpt lat="-35.30746157" lon="139.52024323"><ele>10.000</ele></trkpt>
    <trkpt lat="-35.30748838" lon="139.52026979"><ele>10.000</ele></trkpt>
    <trkpt lat="-35.30751866" lon="139.52029567"><ele>10.000</ele></trkpt>
    <trkpt lat="-35.30756727" lon="139.52032719"><ele>10.000</ele></trkpt>
    <trkpt lat="-35.30764311" lon="139.52036121"><ele>9.000</ele></trkpt>
    <trkpt lat="-35.30770691" lon="139.52038101"><ele>9.000</ele></trkpt>
    <trkpt lat="-35.30775107" lon="139.52038681"><ele>9.000</ele></trkpt>
    <trkpt lat="-35.30779998" lon="139.52038798"><ele>9.000</ele></trkpt>
    <trkpt lat="-35.30784146" lon="139.52038576"><ele>9.000</ele></trkpt>
    <trkpt lat="-35.30788240" lon="139.52037917"><ele>9.000</ele></trkpt>
    <trkpt lat="-35.30791329" lon="139.52037236"><ele>9.000</ele></trkpt>
    <trkpt lat="-35.30796441" lon="139.52035539"><ele>9.000</ele></trkpt>
    <trkpt lat="-35.30800820" lon="139.52033428"><ele>8.000</ele></trkpt>
    <trkpt lat="-35.30805705" lon="139.52030343"><ele>8.000</ele></trkpt>
    <trkpt lat="-35.30810543" lon="139.52026347"><ele>8.000</ele></trkpt>
    <trkpt lat="-35.30815119" lon="139.52021683"><ele>8.000</ele></trkpt>
    <trkpt lat="-35.30819293" lon="139.52016388"><ele>8.000</ele></trkpt>
    <trkpt lat="-35.30823716" lon="139.52009384"><ele>7.000</ele></trkpt>
    <trkpt lat="-35.30828709" lon="139.51998042"><ele>7.000</ele></trkpt>
    <trkpt lat="-35.30833914" lon="139.51986254"><ele>7.000</ele></trkpt>
    <trkpt lat="-35.30839500" lon="139.51972096"><ele>8.000</ele></trkpt>
    <trkpt lat="-35.30847871" lon="139.51948745"><ele>9.000</ele></trkpt>
    <trkpt lat="-35.30854021" lon="139.51930565"><ele>9.000</ele></trkpt>
    <trkpt lat="-35.30870000" lon="139.51881458"><ele>9.000</ele></trkpt>
    <trkpt lat="-35.30903561" lon="139.51777665"><ele>9.000</ele></trkpt>
    <trkpt lat="-35.30937622" lon="139.51671916"><ele>8.000</ele></trkpt>
    <trkpt lat="-35.30960500" lon="139.51605045"><ele>11.000</ele></trkpt>
    <trkpt lat="-35.30969789" lon="139.51577874"><ele>12.000</ele></trkpt>
    <trkpt lat="-35.30970703" lon="139.51573278"><ele>12.000</ele></trkpt>
    <trkpt lat="-35.30971372" lon="139.51565303"><ele>12.000</ele></trkpt>
    <trkpt lat="-35.30971295" lon="139.51556862"><ele>12.000</ele></trkpt>
    <trkpt lat="-35.30970098" lon="139.51548644"><ele>12.000</ele></trkpt>
    <trkpt lat="-35.30967767" lon="139.51539601"><ele>13.000</ele></trkpt>
    <trkpt lat="-35.30965595" lon="139.51533956"><ele>13.000</ele></trkpt>
    <trkpt lat="-35.30963557" lon="139.51528861"><ele>13.000</ele></trkpt>
    <trkpt lat="-35.30961057" lon="139.51524987"><ele>13.000</ele></trkpt>
    <trkpt lat="-35.30959091" lon="139.51521763"><ele>13.000</ele></trkpt>
    <trkpt lat="-35.30956696" lon="139.51518690"><ele>13.000</ele></trkpt>
    <trkpt lat="-35.30953032" lon="139.51514438"><ele>13.000</ele></trkpt>
    <trkpt lat="-35.30949115" lon="139.51511279"><ele>13.000</ele></trkpt>
    <trkpt lat="-35.30944847" lon="139.51507801"><ele>13.000</ele></trkpt>
    <trkpt lat="-35.30931593" lon="139.51499960"><ele>13.000</ele></trkpt>
    <trkpt lat="-35.30847736" lon="139.51448382"><ele>15.000</ele></trkpt>
    <trkpt lat="-35.30776541" lon="139.51403631"><ele>18.000</ele></trkpt>
    <trkpt lat="-35.30754241" lon="139.51389525"><ele>18.000</ele></trkpt>
    <trkpt lat="-35.30750129" lon="139.51386196"><ele>18.000</ele></trkpt>
    <trkpt lat="-35.30745889" lon="139.51381861"><ele>18.000</ele></trkpt>
    <trkpt lat="-35.30741486" lon="139.51376047"><ele>17.000</ele></trkpt>
    <trkpt lat="-35.30739258" lon="139.51371662"><ele>17.000</ele></trkpt>
    <trkpt lat="-35.30737236" lon="139.51367871"><ele>17.000</ele></trkpt>
    <trkpt lat="-35.30736142" lon="139.51364603"><ele>17.000</ele></trkpt>
    <trkpt lat="-35.30734760" lon="139.51359487"><ele>17.000</ele></trkpt>
    <trkpt lat="-35.30733533" lon="139.51353505"><ele>17.000</ele></trkpt>
    <trkpt lat="-35.30733315" lon="139.51346994"><ele>17.000</ele></trkpt>
    <trkpt lat="-35.30733492" lon="139.51342742"><ele>17.000</ele></trkpt>
    <trkpt lat="-35.30733732" lon="139.51340010"><ele>17.000</ele></trkpt>
    <trkpt lat="-35.30734095" lon="139.51335770"><ele>18.000</ele></trkpt>
    <trkpt lat="-35.30735160" lon="139.51331433"><ele>18.000</ele></trkpt>
    <trkpt lat="-35.30736777" lon="139.51327058"><ele>17.000</ele></trkpt>
    <trkpt lat="-35.30738127" lon="139.51324047"><ele>17.000</ele></trkpt>
    <trkpt lat="-35.30741036" lon="139.51317875"><ele>17.000</ele></trkpt>
    <trkpt lat="-35.30773232" lon="139.51263838"><ele>15.000</ele></trkpt>
    <trkpt lat="-35.30775806" lon="139.51260354"><ele>15.000</ele></trkpt>
    <trkpt lat="-35.30778916" lon="139.51256221"><ele>15.000</ele></trkpt>
    <trkpt lat="-35.30782883" lon="139.51252440"><ele>15.000</ele></trkpt>
    <trkpt lat="-35.30788951" lon="139.51246929"><ele>15.000</ele></trkpt>
    <trkpt lat="-35.30795338" lon="139.51242804"><ele>15.000</ele></trkpt>
    <trkpt lat="-35.30798149" lon="139.51241371"><ele>15.000</ele></trkpt>
    <trkpt lat="-35.30803876" lon="139.51238928"><ele>15.000</ele></trkpt>
    <trkpt lat="-35.30806878" lon="139.51237993"><ele>15.000</ele></trkpt>
    <trkpt lat="-35.30813040" lon="139.51236714"><ele>15.000</ele></trkpt>
    <trkpt lat="-35.30815793" lon="139.51236564"><ele>15.000</ele></trkpt>
    <trkpt lat="-35.30820847" lon="139.51236218"><ele>15.000</ele></trkpt>
    <trkpt lat="-35.30826125" lon="139.51236787"><ele>15.000</ele></trkpt>
    <trkpt lat="-35.30829963" lon="139.51237148"><ele>15.000</ele></trkpt>
    <trkpt lat="-35.30834608" lon="139.51238232"><ele>15.000</ele></trkpt>
    <trkpt lat="-35.30840535" lon="139.51240585"><ele>16.000</ele></trkpt>
    <trkpt lat="-35.30846643" lon="139.51243746"><ele>16.000</ele></trkpt>
    <trkpt lat="-35.30852034" lon="139.51247321"><ele>16.000</ele></trkpt>
    <trkpt lat="-35.30855792" lon="139.51250329"><ele>16.000</ele></trkpt>
    <trkpt lat="-35.30859304" lon="139.51253909"><ele>16.000</ele></trkpt>
    <trkpt lat="-35.30863294" lon="139.51258441"><ele>16.000</ele></trkpt>
    <trkpt lat="-35.30867473" lon="139.51264025"><ele>16.000</ele></trkpt>
    <trkpt lat="-35.30870190" lon="139.51268535"><ele>17.000</ele></trkpt>
    <trkpt lat="-35.30875624" lon="139.51279787"><ele>17.000</ele></trkpt>
    <trkpt lat="-35.30878871" lon="139.51287019"><ele>17.000</ele></trkpt>
    <trkpt lat="-35.30881492" lon="139.51292113"><ele>17.000</ele></trkpt>
    <trkpt lat="-35.30887622" lon="139.51301443"><ele>18.000</ele></trkpt>
    <trkpt lat="-35.30893061" lon="139.51309382"><ele>18.000</ele></trkpt>
    <trkpt lat="-35.30896859" lon="139.51314295"><ele>18.000</ele></trkpt>
    <trkpt lat="-35.30901804" lon="139.51320006"><ele>18.000</ele></trkpt>
    <trkpt lat="-35.30907297" lon="139.51326120"><ele>18.000</ele></trkpt>
    <trkpt lat="-35.30912028" lon="139.51330548"><ele>17.000</ele></trkpt>
    <trkpt lat="-35.30917327" lon="139.51335401"><ele>17.000</ele></trkpt>
    <trkpt lat="-35.30925874" lon="139.51341558"><ele>16.000</ele></trkpt>
    <trkpt lat="-35.30933004" lon="139.51345951"><ele>15.000</ele></trkpt>
    <trkpt lat="-35.30940738" lon="139.51350178"><ele>15.000</ele></trkpt>
    <trkpt lat="-35.30946002" lon="139.51352763"><ele>14.000</ele></trkpt>
    <trkpt lat="-35.30950773" lon="139.51354508"><ele>14.000</ele></trkpt>
    <trkpt lat="-35.30954607" lon="139.51356049"><ele>14.000</ele></trkpt>
    <trkpt lat="-35.30959040" lon="139.51357273"><ele>14.000</ele></trkpt>
    <trkpt lat="-35.30965214" lon="139.51358420"><ele>13.000</ele></trkpt>
    <trkpt lat="-35.30971863" lon="139.51359482"><ele>13.000</ele></trkpt>
    <trkpt lat="-35.30978739" lon="139.51360129"><ele>13.000</ele></trkpt>
    <trkpt lat="-35.31030247" lon="139.51366025"><ele>13.000</ele></trkpt>
    <trkpt lat="-35.31187313" lon="139.51384031"><ele>10.000</ele></trkpt>
    <trkpt lat="-35.31230849" lon="139.51387326"><ele>10.000</ele></trkpt>
    <trkpt lat="-35.31238174" lon="139.51388126"><ele>10.000</ele></trkpt>
    <trkpt lat="-35.31241748" lon="139.51388009"><ele>10.000</ele></trkpt>
    <trkpt lat="-35.31244316" lon="139.51387331"><ele>10.000</ele></trkpt>
    <trkpt lat="-35.31246031" lon="139.51386529"><ele>10.000</ele></trkpt>
    <trkpt lat="-35.31247364" lon="139.51385416"><ele>10.000</ele></trkpt>
    <trkpt lat="-35.31249411" lon="139.51383414"><ele>10.000</ele></trkpt>
    <trkpt lat="-35.31251005" lon="139.51380741"><ele>10.000</ele></trkpt>
    <trkpt lat="-35.31252251" lon="139.51378125"><ele>10.000</ele></trkpt>
    <trkpt lat="-35.31253334" lon="139.51374148"><ele>10.000</ele></trkpt>
    <trkpt lat="-35.31253393" lon="139.51372779"><ele>10.000</ele></trkpt>
    <trkpt lat="-35.31253121" lon="139.51370228"><ele>10.000</ele></trkpt>
    <trkpt lat="-35.31239295" lon="139.51312997"><ele>11.000</ele></trkpt>
    <trkpt lat="-35.31213977" lon="139.51213036"><ele>10.000</ele></trkpt>
    <trkpt lat="-35.31194606" lon="139.51135909"><ele>11.000</ele></trkpt>
    <trkpt lat="-35.31192495" lon="139.51127092"><ele>12.000</ele></trkpt>
    <trkpt lat="-35.31191009" lon="139.51122440"><ele>12.000</ele></trkpt>
    <trkpt lat="-35.31188951" lon="139.51118253"><ele>12.000</ele></trkpt>
    <trkpt lat="-35.31185606" lon="139.51113103"><ele>12.000</ele></trkpt>
    <trkpt lat="-35.31181148" lon="139.51107643"><ele>12.000</ele></trkpt>
    <trkpt lat="-35.31177299" lon="139.51103937"><ele>12.000</ele></trkpt>
    <trkpt lat="-35.31174344" lon="139.51101909"><ele>12.000</ele></trkpt>
    <trkpt lat="-35.31170357" lon="139.51099902"><ele>11.000</ele></trkpt>
    <trkpt lat="-35.31167324" lon="139.51098436"><ele>11.000</ele></trkpt>
    <trkpt lat="-35.31162809" lon="139.51096911"><ele>11.000</ele></trkpt>
    <trkpt lat="-35.31157331" lon="139.51095752"><ele>11.000</ele></trkpt>
    <trkpt lat="-35.31151039" lon="139.51095555"><ele>10.000</ele></trkpt>
    <trkpt lat="-35.31093134" lon="139.51101124"><ele>12.000</ele></trkpt>
    <trkpt lat="-35.31031066" lon="139.51106097"><ele>13.000</ele></trkpt>
    <trkpt lat="-35.30982070" lon="139.51110503"><ele>12.000</ele></trkpt>
    <trkpt lat="-35.30922085" lon="139.51115059"><ele>13.000</ele></trkpt>
    <trkpt lat="-35.30866734" lon="139.51119880"><ele>15.000</ele></trkpt>
    <trkpt lat="-35.30831811" lon="139.51122959"><ele>15.000</ele></trkpt>
  </trkseg></trk>
</gpx>
