<?xml version="1.0" encoding="UTF-8"?>
<gpx version="1.1" creator="Send-It tkk-to-gpx (Harry's LapTimer .tkk)">
  <trk><name>thruxton</name><trkseg>
    <trkpt lat="51.20766550" lon="-1.60899750"></trkpt>
    <trkpt lat="51.20787200" lon="-1.60914180"></trkpt>
    <trkpt lat="51.20824120" lon="-1.60935490"></trkpt>
    <trkpt lat="51.20842940" lon="-1.60944290"></trkpt>
    <trkpt lat="51.20858010" lon="-1.60949980"></trkpt>
    <trkpt lat="51.20875570" lon="-1.60954850"></trkpt>
    <trkpt lat="51.20889970" lon="-1.60957410"></trkpt>
    <trkpt lat="51.20901660" lon="-1.60956770"></trkpt>
    <trkpt lat="51.20917110" lon="-1.60952170"></trkpt>
    <trkpt lat="51.20931230" lon="-1.60944890"></trkpt>
    <trkpt lat="51.20943170" lon="-1.60934530"></trkpt>
    <trkpt lat="51.20954760" lon="-1.60922080"></trkpt>
    <trkpt lat="51.20965280" lon="-1.60908850"></trkpt>
    <trkpt lat="51.20976970" lon="-1.60891720"></trkpt>
    <trkpt lat="51.21000950" lon="-1.60850590"></trkpt>
    <trkpt lat="51.21009110" lon="-1.60831740"></trkpt>
    <trkpt lat="51.21016180" lon="-1.60813090"></trkpt>
    <trkpt lat="51.21027300" lon="-1.60787630"></trkpt>
    <trkpt lat="51.21046280" lon="-1.60750450"></trkpt>
    <trkpt lat="51.21059900" lon="-1.60725660"></trkpt>
    <trkpt lat="51.21075030" lon="-1.60701610"></trkpt>
    <trkpt lat="51.21090780" lon="-1.60682730"></trkpt>
    <trkpt lat="51.21107590" lon="-1.60664580"></trkpt>
    <trkpt lat="51.21140840" lon="-1.60635210"></trkpt>
    <trkpt lat="51.21158250" lon="-1.60622580"></trkpt>
    <trkpt lat="51.21173780" lon="-1.60613500"></trkpt>
    <trkpt lat="51.21188490" lon="-1.60607000"></trkpt>
    <trkpt lat="51.21206500" lon="-1.60600950"></trkpt>
    <trkpt lat="51.21250220" lon="-1.60593550"></trkpt>
    <trkpt lat="51.21269340" lon="-1.60588390"></trkpt>
    <trkpt lat="51.21287460" lon="-1.60581420"></trkpt>
    <trkpt lat="51.21299590" lon="-1.60575940"></trkpt>
    <trkpt lat="51.21304480" lon="-1.60572400"></trkpt>
    <trkpt lat="51.21308620" lon="-1.60568240"></trkpt>
    <trkpt lat="51.21311590" lon="-1.60563540"></trkpt>
    <trkpt lat="51.21313840" lon="-1.60558360"></trkpt>
    <trkpt lat="51.21315700" lon="-1.60552540"></trkpt>
    <trkpt lat="51.21316930" lon="-1.60546230"></trkpt>
    <trkpt lat="51.21317430" lon="-1.60538250"></trkpt>
    <trkpt lat="51.21317410" lon="-1.60529530"></trkpt>
    <trkpt lat="51.21316940" lon="-1.60505280"></trkpt>
    <trkpt lat="51.21315570" lon="-1.60456350"></trkpt>
    <trkpt lat="51.21315390" lon="-1.60435100"></trkpt>
    <trkpt lat="51.21316140" lon="-1.60417470"></trkpt>
    <trkpt lat="51.21316780" lon="-1.60413300"></trkpt>
    <trkpt lat="51.21317600" lon="-1.60409900"></trkpt>
    <trkpt lat="51.21318780" lon="-1.60406770"></trkpt>
    <trkpt lat="51.21321140" lon="-1.60402770"></trkpt>
    <trkpt lat="51.21324050" lon="-1.60399120"></trkpt>
    <trkpt lat="51.21331500" lon="-1.60391830"></trkpt>
    <trkpt lat="51.21364020" lon="-1.60359110"></trkpt>
    <trkpt lat="51.21406310" lon="-1.60318300"></trkpt>
    <trkpt lat="51.21410150" lon="-1.60313980"></trkpt>
    <trkpt lat="51.21412840" lon="-1.60309970"></trkpt>
    <trkpt lat="51.21415430" lon="-1.60303760"></trkpt>
    <trkpt lat="51.21417390" lon="-1.60296900"></trkpt>
    <trkpt lat="51.21420140" lon="-1.60281310"></trkpt>
    <trkpt lat="51.21423180" lon="-1.60258190"></trkpt>
    <trkpt lat="51.21426300" lon="-1.60225970"></trkpt>
    <trkpt lat="51.21427690" lon="-1.60194880"></trkpt>
    <trkpt lat="51.21427530" lon="-1.60160830"></trkpt>
    <trkpt lat="51.21425850" lon="-1.60129520"></trkpt>
    <trkpt lat="51.21422280" lon="-1.60093350"></trkpt>
    <trkpt lat="51.21413220" lon="-1.60029440"></trkpt>
    <trkpt lat="51.21406400" lon="-1.59995720"></trkpt>
    <trkpt lat="51.21399580" lon="-1.59965240"></trkpt>
    <trkpt lat="51.21390500" lon="-1.59933200"></trkpt>
    <trkpt lat="51.21366590" lon="-1.59857910"></trkpt>
    <trkpt lat="51.21358870" lon="-1.59835170"></trkpt>
    <trkpt lat="51.21351180" lon="-1.59816200"></trkpt>
    <trkpt lat="51.21343350" lon="-1.59799150"></trkpt>
    <trkpt lat="51.21333630" lon="-1.59780580"></trkpt>
    <trkpt lat="51.21326570" lon="-1.59765360"></trkpt>
    <trkpt lat="51.21320260" lon="-1.59748330"></trkpt>
    <trkpt lat="51.21315320" lon="-1.59731240"></trkpt>
    <trkpt lat="51.21311120" lon="-1.59712650"></trkpt>
    <trkpt lat="51.21308440" lon="-1.59692860"></trkpt>
    <trkpt lat="51.21304220" lon="-1.59632600"></trkpt>
    <trkpt lat="51.21304030" lon="-1.59612740"></trkpt>
    <trkpt lat="51.21304600" lon="-1.59596150"></trkpt>
    <trkpt lat="51.21306890" lon="-1.59580970"></trkpt>
    <trkpt lat="51.21310330" lon="-1.59563480"></trkpt>
    <trkpt lat="51.21316650" lon="-1.59536270"></trkpt>
    <trkpt lat="51.21335610" lon="-1.59479910"></trkpt>
    <trkpt lat="51.21344060" lon="-1.59449820"></trkpt>
    <trkpt lat="51.21351740" lon="-1.59419960"></trkpt>
    <trkpt lat="51.21358060" lon="-1.59390870"></trkpt>
    <trkpt lat="51.21362840" lon="-1.59364450"></trkpt>
    <trkpt lat="51.21366340" lon="-1.59330980"></trkpt>
    <trkpt lat="51.21367980" lon="-1.59304300"></trkpt>
    <trkpt lat="51.21367960" lon="-1.59276750"></trkpt>
    <trkpt lat="51.21365910" lon="-1.59251080"></trkpt>
    <trkpt lat="51.21363500" lon="-1.59230670"></trkpt>
    <trkpt lat="51.21360290" lon="-1.59210810"></trkpt>
    <trkpt lat="51.21354950" lon="-1.59188840"></trkpt>
    <trkpt lat="51.21347860" lon="-1.59163990"></trkpt>
    <trkpt lat="51.21339210" lon="-1.59139750"></trkpt>
    <trkpt lat="51.21329190" lon="-1.59119260"></trkpt>
    <trkpt lat="51.21318340" lon="-1.59102210"></trkpt>
    <trkpt lat="51.21308470" lon="-1.59090750"></trkpt>
    <trkpt lat="51.21299600" lon="-1.59081550"></trkpt>
    <trkpt lat="51.21287920" lon="-1.59071710"></trkpt>
    <trkpt lat="51.21275110" lon="-1.59062690"></trkpt>
    <trkpt lat="51.21262950" lon="-1.59055350"></trkpt>
    <trkpt lat="51.21236890" lon="-1.59043920"></trkpt>
    <trkpt lat="51.21213060" lon="-1.59035980"></trkpt>
    <trkpt lat="51.21194310" lon="-1.59031420"></trkpt>
    <trkpt lat="51.21177680" lon="-1.59028870"></trkpt>
    <trkpt lat="51.21164780" lon="-1.59028190"></trkpt>
    <trkpt lat="51.21143780" lon="-1.59028590"></trkpt>
    <trkpt lat="51.21101980" lon="-1.59032190"></trkpt>
    <trkpt lat="51.21064740" lon="-1.59042650"></trkpt>
    <trkpt lat="51.21045510" lon="-1.59049420"></trkpt>
    <trkpt lat="51.21028250" lon="-1.59058520"></trkpt>
    <trkpt lat="51.20978040" lon="-1.59095410"></trkpt>
    <trkpt lat="51.20930110" lon="-1.59133860"></trkpt>
    <trkpt lat="51.20860280" lon="-1.59201680"></trkpt>
    <trkpt lat="51.20840440" lon="-1.59223170"></trkpt>
    <trkpt lat="51.20812500" lon="-1.59262720"></trkpt>
    <trkpt lat="51.20798120" lon="-1.59287060"></trkpt>
    <trkpt lat="51.20790910" lon="-1.59307920"></trkpt>
    <trkpt lat="51.20784460" lon="-1.59330780"></trkpt>
    <trkpt lat="51.20777670" lon="-1.59359140"></trkpt>
    <trkpt lat="51.20772740" lon="-1.59385380"></trkpt>
    <trkpt lat="51.20769840" lon="-1.59409490"></trkpt>
    <trkpt lat="51.20767610" lon="-1.59436080"></trkpt>
    <trkpt lat="51.20767980" lon="-1.59463120"></trkpt>
    <trkpt lat="51.20771410" lon="-1.59519070"></trkpt>
    <trkpt lat="51.20773950" lon="-1.59605930"></trkpt>
    <trkpt lat="51.20769150" lon="-1.59750430"></trkpt>
    <trkpt lat="51.20768260" lon="-1.59773340"></trkpt>
    <trkpt lat="51.20762580" lon="-1.59847960"></trkpt>
    <trkpt lat="51.20758460" lon="-1.59886550"></trkpt>
    <trkpt lat="51.20744190" lon="-1.59977560"></trkpt>
    <trkpt lat="51.20732670" lon="-1.60041340"></trkpt>
    <trkpt lat="51.20712090" lon="-1.60133020"></trkpt>
    <trkpt lat="51.20687520" lon="-1.60227360"></trkpt>
    <trkpt lat="51.20675460" lon="-1.60264520"></trkpt>
    <trkpt lat="51.20661410" lon="-1.60301250"></trkpt>
    <trkpt lat="51.20619740" lon="-1.60400220"></trkpt>
    <trkpt lat="51.20609860" lon="-1.60431720"></trkpt>
    <trkpt lat="51.20600750" lon="-1.60463960"></trkpt>
    <trkpt lat="51.20595050" lon="-1.60492470"></trkpt>
    <trkpt lat="51.20592460" lon="-1.60523310"></trkpt>
    <trkpt lat="51.20591670" lon="-1.60555670"></trkpt>
    <trkpt lat="51.20593470" lon="-1.60582550"></trkpt>
    <trkpt lat="51.20594600" lon="-1.60591770"></trkpt>
    <trkpt lat="51.20596300" lon="-1.60599730"></trkpt>
    <trkpt lat="51.20597520" lon="-1.60603070"></trkpt>
    <trkpt lat="51.20598960" lon="-1.60606020"></trkpt>
    <trkpt lat="51.20600680" lon="-1.60608710"></trkpt>
    <trkpt lat="51.20603690" lon="-1.60611990"></trkpt>
    <trkpt lat="51.20607360" lon="-1.60615180"></trkpt>
    <trkpt lat="51.20621720" lon="-1.60626810"></trkpt>
    <trkpt lat="51.20624670" lon="-1.60630150"></trkpt>
    <trkpt lat="51.20626830" lon="-1.60633620"></trkpt>
    <trkpt lat="51.20628030" lon="-1.60636530"></trkpt>
    <trkpt lat="51.20628890" lon="-1.60639680"></trkpt>
    <trkpt lat="51.20629370" lon="-1.60642910"></trkpt>
    <trkpt lat="51.20629460" lon="-1.60646310"></trkpt>
    <trkpt lat="51.20629120" lon="-1.60649800"></trkpt>
    <trkpt lat="51.20628340" lon="-1.60653540"></trkpt>
    <trkpt lat="51.20624720" lon="-1.60662440"></trkpt>
    <trkpt lat="51.20620630" lon="-1.60671430"></trkpt>
    <trkpt lat="51.20618440" lon="-1.60677520"></trkpt>
    <trkpt lat="51.20617040" lon="-1.60683320"></trkpt>
    <trkpt lat="51.20616800" lon="-1.60686990"></trkpt>
    <trkpt lat="51.20616950" lon="-1.60690640"></trkpt>
    <trkpt lat="51.20617300" lon="-1.60694360"></trkpt>
    <trkpt lat="51.20618170" lon="-1.60700590"></trkpt>
    <trkpt lat="51.20619590" lon="-1.60706900"></trkpt>
    <trkpt lat="51.20624480" lon="-1.60720000"></trkpt>
    <trkpt lat="51.20632850" lon="-1.60738760"></trkpt>
    <trkpt lat="51.20643260" lon="-1.60759370"></trkpt>
    <trkpt lat="51.20653410" lon="-1.60776220"></trkpt>
    <trkpt lat="51.20663550" lon="-1.60790940"></trkpt>
    <trkpt lat="51.20677980" lon="-1.60810090"></trkpt>
    <trkpt lat="51.20690900" lon="-1.60826320"></trkpt>
    <trkpt lat="51.20704280" lon="-1.60840890"></trkpt>
    <trkpt lat="51.20716820" lon="-1.60853720"></trkpt>
    <trkpt lat="51.20752160" lon="-1.60887310"></trkpt>
    <trkpt lat="51.20766550" lon="-1.60899750"></trkpt>
  </trkseg></trk>
</gpx>
