<?xml version='1.0' encoding='utf-8'?>
<gpx version="1.1" creator="Australian Track GeoJSON to GPX converter" xmlns="http://www.topografix.com/GPX/1/1" xmlns:xsi="http://www.w3.org/2001/XMLSchema-instance" xsi:schemaLocation="http://www.topografix.com/GPX/1/1 http://www.topografix.com/GPX/1/1/gpx.xsd"><metadata><name>Wakefield Park Raceway</name><desc>Race circuit layout centreline; no geofence data.</desc><link href="https://docs.emtronaustralia.com.au/tracks/AUS/Wakefield%20Park%20Raceway.geojson" /></metadata><trk><name>Wakefield Park Raceway segment 1</name><trkseg><trkpt lat="-34.84020773" lon="149.68541597"><ele>649.862</ele></trkpt><trkpt lat="-34.84017329" lon="149.68530221"><ele>649.805</ele></trkpt></trkseg></trk><trk><name>Wakefield Park Raceway segment 2</name><trkseg><trkpt lat="-34.84020382" lon="149.68541416"><ele>649.852</ele></trkpt><trkpt lat="-34.83904294" lon="149.68585777"><ele>648.007</ele></trkpt><trkpt lat="-34.83901704" lon="149.68586886"><ele>647.969</ele></trkpt><trkpt lat="-34.83899252" lon="149.68588308"><ele>647.931</ele></trkpt><trkpt lat="-34.83895755" lon="149.68590868"><ele>647.896</ele></trkpt><trkpt lat="-34.83892849" lon="149.68593396"><ele>647.868</ele></trkpt><trkpt lat="-34.83890640" lon="149.68595444"><ele>647.848</ele></trkpt><trkpt lat="-34.83887393" lon="149.68597889"><ele>647.830</ele></trkpt><trkpt lat="-34.83884708" lon="149.68600015"><ele>647.856</ele></trkpt><trkpt lat="-34.83882503" lon="149.68601785"><ele>647.878</ele></trkpt><trkpt lat="-34.83880290" lon="149.68604113"><ele>647.913</ele></trkpt><trkpt lat="-34.83878316" lon="149.68606199"><ele>647.944</ele></trkpt><trkpt lat="-34.83869277" lon="149.68615357"><ele>648.211</ele></trkpt><trkpt lat="-34.83861119" lon="149.68624605"><ele>648.477</ele></trkpt><trkpt lat="-34.83852462" lon="149.68634392"><ele>648.743</ele></trkpt><trkpt lat="-34.83843923" lon="149.68644574"><ele>649.009</ele></trkpt><trkpt lat="-34.83835870" lon="149.68654364"><ele>649.275</ele></trkpt><trkpt lat="-34.83827975" lon="149.68664375"><ele>649.542</ele></trkpt><trkpt lat="-34.83819598" lon="149.68674899"><ele>649.808</ele></trkpt><trkpt lat="-34.83812182" lon="149.68685531"><ele>650.074</ele></trkpt><trkpt lat="-34.83811034" lon="149.68687881"><ele>650.107</ele></trkpt><trkpt lat="-34.83810205" lon="149.68690485"><ele>650.145</ele></trkpt><trkpt lat="-34.83809402" lon="149.68693172"><ele>650.188</ele></trkpt><trkpt lat="-34.83809047" lon="149.68695616"><ele>650.208</ele></trkpt><trkpt lat="-34.83809034" lon="149.68698642"><ele>650.205</ele></trkpt><trkpt lat="-34.83808913" lon="149.68700456"><ele>650.423</ele></trkpt><trkpt lat="-34.83809051" lon="149.68703246"><ele>650.434</ele></trkpt><trkpt lat="-34.83809393" lon="149.68705100"><ele>650.480</ele></trkpt><trkpt lat="-34.83809633" lon="149.68707105"><ele>650.532</ele></trkpt><trkpt lat="-34.83810100" lon="149.68709374"><ele>650.581</ele></trkpt><trkpt lat="-34.83810877" lon="149.68712371"><ele>650.628</ele></trkpt><trkpt lat="-34.83811706" lon="149.68714734"><ele>650.673</ele></trkpt><trkpt lat="-34.83812514" lon="149.68716867"><ele>650.715</ele></trkpt><trkpt lat="-34.83813361" lon="149.68718934"><ele>650.757</ele></trkpt><trkpt lat="-34.83814084" lon="149.68720671"><ele>650.787</ele></trkpt><trkpt lat="-34.83814981" lon="149.68722783"><ele>650.822</ele></trkpt><trkpt lat="-34.83816114" lon="149.68725432"><ele>650.865</ele></trkpt><trkpt lat="-34.83817276" lon="149.68727900"><ele>650.920</ele></trkpt><trkpt lat="-34.83818745" lon="149.68730152"><ele>650.970</ele></trkpt><trkpt lat="-34.83856262" lon="149.68777725"><ele>651.697</ele></trkpt><trkpt lat="-34.83858922" lon="149.68780796"><ele>651.863</ele></trkpt><trkpt lat="-34.83862354" lon="149.68784288"><ele>652.026</ele></trkpt><trkpt lat="-34.83866443" lon="149.68788331"><ele>652.220</ele></trkpt><trkpt lat="-34.83870200" lon="149.68791402"><ele>652.462</ele></trkpt><trkpt lat="-34.83873072" lon="149.68793362"><ele>652.618</ele></trkpt><trkpt lat="-34.83940446" lon="149.68842776"><ele>655.374</ele></trkpt><trkpt lat="-34.83947039" lon="149.68847485"><ele>655.435</ele></trkpt><trkpt lat="-34.83951656" lon="149.68850272"><ele>655.466</ele></trkpt><trkpt lat="-34.83957288" lon="149.68853321"><ele>655.497</ele></trkpt><trkpt lat="-34.83964418" lon="149.68857105"><ele>655.631</ele></trkpt><trkpt lat="-34.84021252" lon="149.68882994"><ele>657.970</ele></trkpt><trkpt lat="-34.84024452" lon="149.68884436"><ele>658.090</ele></trkpt><trkpt lat="-34.84028010" lon="149.68886516"><ele>658.224</ele></trkpt><trkpt lat="-34.84031019" lon="149.68888711"><ele>658.346</ele></trkpt><trkpt lat="-34.84034349" lon="149.68890778"><ele>658.479</ele></trkpt><trkpt lat="-34.84037028" lon="149.68892564"><ele>658.608</ele></trkpt><trkpt lat="-34.84038730" lon="149.68894456"><ele>658.712</ele></trkpt><trkpt lat="-34.84040737" lon="149.68897278"><ele>658.891</ele></trkpt><trkpt lat="-34.84043275" lon="149.68900498"><ele>659.030</ele></trkpt><trkpt lat="-34.84044628" lon="149.68903553"><ele>659.136</ele></trkpt><trkpt lat="-34.84045974" lon="149.68906867"><ele>659.250</ele></trkpt><trkpt lat="-34.84047322" lon="149.68909914"><ele>659.354</ele></trkpt><trkpt lat="-34.84048927" lon="149.68913003"><ele>659.485</ele></trkpt><trkpt lat="-34.84050278" lon="149.68916321"><ele>659.612</ele></trkpt><trkpt lat="-34.84074075" lon="149.68983692"><ele>662.794</ele></trkpt><trkpt lat="-34.84075098" lon="149.68986018"><ele>662.941</ele></trkpt><trkpt lat="-34.84076436" lon="149.68988217"><ele>663.093</ele></trkpt><trkpt lat="-34.84078399" lon="149.68990679"><ele>663.278</ele></trkpt><trkpt lat="-34.84080044" lon="149.68993002"><ele>663.446</ele></trkpt><trkpt lat="-34.84082114" lon="149.68994819"><ele>663.604</ele></trkpt><trkpt lat="-34.84084286" lon="149.68996507"><ele>663.757</ele></trkpt><trkpt lat="-34.84086356" lon="149.68997811"><ele>663.887</ele></trkpt><trkpt lat="-34.84088525" lon="149.68999240"><ele>664.026</ele></trkpt><trkpt lat="-34.84090807" lon="149.69000036"><ele>664.139</ele></trkpt><trkpt lat="-34.84093185" lon="149.69000958"><ele>664.269</ele></trkpt><trkpt lat="-34.84095994" lon="149.69001466"><ele>664.398</ele></trkpt><trkpt lat="-34.84098942" lon="149.69001786"><ele>664.521</ele></trkpt><trkpt lat="-34.84102305" lon="149.69002371"><ele>664.674</ele></trkpt><trkpt lat="-34.84107018" lon="149.69002856"><ele>664.809</ele></trkpt><trkpt lat="-34.84110998" lon="149.69003198"><ele>664.982</ele></trkpt><trkpt lat="-34.84116228" lon="149.69003313"><ele>665.241</ele></trkpt><trkpt lat="-34.84123225" lon="149.69002328"><ele>665.566</ele></trkpt><trkpt lat="-34.84135476" lon="149.69000836"><ele>666.127</ele></trkpt><trkpt lat="-34.84145600" lon="149.68998803"><ele>666.553</ele></trkpt><trkpt lat="-34.84154530" lon="149.68996495"><ele>666.872</ele></trkpt><trkpt lat="-34.84157451" lon="149.68995034"><ele>667.037</ele></trkpt><trkpt lat="-34.84160389" lon="149.68993243"><ele>667.130</ele></trkpt><trkpt lat="-34.84163475" lon="149.68991368"><ele>667.179</ele></trkpt><trkpt lat="-34.84166374" lon="149.68988595"><ele>667.184</ele></trkpt><trkpt lat="-34.84168758" lon="149.68985546"><ele>667.147</ele></trkpt><trkpt lat="-34.84170561" lon="149.68982258"><ele>667.044</ele></trkpt><trkpt lat="-34.84171713" lon="149.68978917"><ele>666.840</ele></trkpt><trkpt lat="-34.84172645" lon="149.68975383"><ele>666.632</ele></trkpt><trkpt lat="-34.84172977" lon="149.68971838"><ele>666.672</ele></trkpt><trkpt lat="-34.84173066" lon="149.68967332"><ele>666.439</ele></trkpt><trkpt lat="-34.84173010" lon="149.68964946"><ele>666.314</ele></trkpt><trkpt lat="-34.84172964" lon="149.68962053"><ele>666.164</ele></trkpt><trkpt lat="-34.84152131" lon="149.68856255"><ele>660.309</ele></trkpt><trkpt lat="-34.84151045" lon="149.68853574"><ele>660.230</ele></trkpt><trkpt lat="-34.84150008" lon="149.68851719"><ele>660.167</ele></trkpt><trkpt lat="-34.84148346" lon="149.68848800"><ele>660.067</ele></trkpt><trkpt lat="-34.84146892" lon="149.68846144"><ele>659.978</ele></trkpt><trkpt lat="-34.84145633" lon="149.68844540"><ele>659.913</ele></trkpt><trkpt lat="-34.84144059" lon="149.68842532"><ele>659.831</ele></trkpt><trkpt lat="-34.84142272" lon="149.68840255"><ele>659.746</ele></trkpt><trkpt lat="-34.84140375" lon="149.68838096"><ele>659.613</ele></trkpt><trkpt lat="-34.84137600" lon="149.68835575"><ele>659.319</ele></trkpt><trkpt lat="-34.84135705" lon="149.68833693"><ele>659.229</ele></trkpt><trkpt lat="-34.84132957" lon="149.68831525"><ele>659.094</ele></trkpt><trkpt lat="-34.84130845" lon="149.68829892"><ele>658.939</ele></trkpt><trkpt lat="-34.84129154" lon="149.68828530"><ele>658.814</ele></trkpt><trkpt lat="-34.84126710" lon="149.68827015"><ele>658.652</ele></trkpt><trkpt lat="-34.84124585" lon="149.68825375"><ele>658.512</ele></trkpt><trkpt lat="-34.84121703" lon="149.68823579"><ele>658.334</ele></trkpt><trkpt lat="-34.84118926" lon="149.68821649"><ele>658.157</ele></trkpt><trkpt lat="-34.84116247" lon="149.68820106"><ele>657.909</ele></trkpt><trkpt lat="-34.84114095" lon="149.68818982"><ele>657.777</ele></trkpt><trkpt lat="-34.84110968" lon="149.68817428"><ele>657.574</ele></trkpt><trkpt lat="-34.84108146" lon="149.68816809"><ele>657.389</ele></trkpt><trkpt lat="-34.84105871" lon="149.68816107"><ele>657.474</ele></trkpt><trkpt lat="-34.84104128" lon="149.68816059"><ele>657.406</ele></trkpt><trkpt lat="-34.84101627" lon="149.68815323"><ele>657.292</ele></trkpt><trkpt lat="-34.84099126" lon="149.68814590"><ele>657.208</ele></trkpt><trkpt lat="-34.84096069" lon="149.68814243"><ele>657.122</ele></trkpt><trkpt lat="-34.84091729" lon="149.68813891"><ele>657.003</ele></trkpt><trkpt lat="-34.84085335" lon="149.68813858"><ele>656.841</ele></trkpt><trkpt lat="-34.84080112" lon="149.68813795"><ele>656.708</ele></trkpt><trkpt lat="-34.84077464" lon="149.68813420"><ele>656.636</ele></trkpt><trkpt lat="-34.84073769" lon="149.68812809"><ele>656.379</ele></trkpt><trkpt lat="-34.84070039" lon="149.68812214"><ele>656.348</ele></trkpt><trkpt lat="-34.84065633" lon="149.68811570"><ele>656.195</ele></trkpt><trkpt lat="-34.84060447" lon="149.68811009"><ele>655.986</ele></trkpt><trkpt lat="-34.84056979" lon="149.68810713"><ele>655.879</ele></trkpt><trkpt lat="-34.84054620" lon="149.68810050"><ele>655.797</ele></trkpt><trkpt lat="-34.84052635" lon="149.68809340"><ele>655.721</ele></trkpt><trkpt lat="-34.84050134" lon="149.68808330"><ele>655.595</ele></trkpt><trkpt lat="-34.84047325" lon="149.68807231"><ele>655.439</ele></trkpt><trkpt lat="-34.84044378" lon="149.68805788"><ele>655.298</ele></trkpt><trkpt lat="-34.84042127" lon="149.68804617"><ele>655.187</ele></trkpt><trkpt lat="-34.84039101" lon="149.68803294"><ele>655.053</ele></trkpt><trkpt lat="-34.84035647" lon="149.68801726"><ele>654.980</ele></trkpt><trkpt lat="-34.84032728" lon="149.68799850"><ele>654.897</ele></trkpt><trkpt lat="-34.84029751" lon="149.68798562"><ele>654.836</ele></trkpt><trkpt lat="-34.84027063" lon="149.68797128"><ele>654.771</ele></trkpt><trkpt lat="-34.84024053" lon="149.68795156"><ele>654.726</ele></trkpt><trkpt lat="-34.83977638" lon="149.68763233"><ele>653.942</ele></trkpt><trkpt lat="-34.83970287" lon="149.68756697"><ele>653.633</ele></trkpt><trkpt lat="-34.83958658" lon="149.68745195"><ele>653.308</ele></trkpt><trkpt lat="-34.83956150" lon="149.68742444"><ele>653.165</ele></trkpt><trkpt lat="-34.83953819" lon="149.68739658"><ele>653.043</ele></trkpt><trkpt lat="-34.83952577" lon="149.68737321"><ele>652.954</ele></trkpt><trkpt lat="-34.83951732" lon="149.68735166"><ele>652.877</ele></trkpt><trkpt lat="-34.83950830" lon="149.68732296"><ele>652.761</ele></trkpt><trkpt lat="-34.83950031" lon="149.68729525"><ele>652.661</ele></trkpt><trkpt lat="-34.83949689" lon="149.68727651"><ele>652.603</ele></trkpt><trkpt lat="-34.83949500" lon="149.68725173"><ele>652.522</ele></trkpt><trkpt lat="-34.83949295" lon="149.68722654"><ele>652.427</ele></trkpt><trkpt lat="-34.83949088" lon="149.68720027"><ele>652.332</ele></trkpt><trkpt lat="-34.83949355" lon="149.68717219"><ele>652.243</ele></trkpt><trkpt lat="-34.83949253" lon="149.68714688"><ele>652.154</ele></trkpt><trkpt lat="-34.83949927" lon="149.68712067"><ele>652.080</ele></trkpt><trkpt lat="-34.83950497" lon="149.68709325"><ele>651.976</ele></trkpt><trkpt lat="-34.83951175" lon="149.68706680"><ele>651.849</ele></trkpt><trkpt lat="-34.83952261" lon="149.68704232"><ele>651.741</ele></trkpt><trkpt lat="-34.83953738" lon="149.68701740"><ele>651.646</ele></trkpt><trkpt lat="-34.83955733" lon="149.68698562"><ele>651.726</ele></trkpt><trkpt lat="-34.83957632" lon="149.68695445"><ele>651.611</ele></trkpt><trkpt lat="-34.83959030" lon="149.68693348"><ele>651.536</ele></trkpt><trkpt lat="-34.83960624" lon="149.68691233"><ele>651.520</ele></trkpt><trkpt lat="-34.83962783" lon="149.68688810"><ele>651.506</ele></trkpt><trkpt lat="-34.83964485" lon="149.68686802"><ele>651.493</ele></trkpt><trkpt lat="-34.83966099" lon="149.68684926"><ele>651.481</ele></trkpt><trkpt lat="-34.83967644" lon="149.68683419"><ele>651.476</ele></trkpt><trkpt lat="-34.83969014" lon="149.68682175"><ele>651.472</ele></trkpt><trkpt lat="-34.83970433" lon="149.68680322"><ele>651.458</ele></trkpt><trkpt lat="-34.83972175" lon="149.68678781"><ele>651.383</ele></trkpt><trkpt lat="-34.83976698" lon="149.68674648"><ele>651.409</ele></trkpt><trkpt lat="-34.83980009" lon="149.68672465"><ele>651.446</ele></trkpt><trkpt lat="-34.83982512" lon="149.68670496"><ele>651.439</ele></trkpt><trkpt lat="-34.83985908" lon="149.68668199"><ele>651.437</ele></trkpt><trkpt lat="-34.83988898" lon="149.68666374"><ele>651.439</ele></trkpt><trkpt lat="-34.83991479" lon="149.68664768"><ele>651.369</ele></trkpt><trkpt lat="-34.83994555" lon="149.68663069"><ele>651.350</ele></trkpt><trkpt lat="-34.83997426" lon="149.68661610"><ele>651.350</ele></trkpt><trkpt lat="-34.84000191" lon="149.68660270"><ele>651.350</ele></trkpt><trkpt lat="-34.84003229" lon="149.68659547"><ele>651.350</ele></trkpt><trkpt lat="-34.84006347" lon="149.68658990"><ele>651.576</ele></trkpt><trkpt lat="-34.84010364" lon="149.68657558"><ele>651.613</ele></trkpt><trkpt lat="-34.84013344" lon="149.68657044"><ele>651.649</ele></trkpt><trkpt lat="-34.84017098" lon="149.68656423"><ele>651.659</ele></trkpt><trkpt lat="-34.84020793" lon="149.68655648"><ele>651.659</ele></trkpt><trkpt lat="-34.84025263" lon="149.68655293"><ele>651.670</ele></trkpt><trkpt lat="-34.84030151" lon="149.68655379"><ele>651.815</ele></trkpt><trkpt lat="-34.84035154" lon="149.68655806"><ele>651.968</ele></trkpt><trkpt lat="-34.84039370" lon="149.68656893"><ele>651.835</ele></trkpt><trkpt lat="-34.84044012" lon="149.68657589"><ele>651.879</ele></trkpt><trkpt lat="-34.84048307" lon="149.68659057"><ele>652.036</ele></trkpt><trkpt lat="-34.84054661" lon="149.68660848"><ele>652.164</ele></trkpt><trkpt lat="-34.84056173" lon="149.68661345"><ele>652.319</ele></trkpt><trkpt lat="-34.84058779" lon="149.68661858"><ele>652.406</ele></trkpt><trkpt lat="-34.84062119" lon="149.68662895"><ele>652.506</ele></trkpt><trkpt lat="-34.84122881" lon="149.68694787"><ele>654.454</ele></trkpt><trkpt lat="-34.84123841" lon="149.68695429"><ele>654.526</ele></trkpt><trkpt lat="-34.84125116" lon="149.68696081"><ele>654.615</ele></trkpt><trkpt lat="-34.84126426" lon="149.68696672"><ele>654.700</ele></trkpt><trkpt lat="-34.84127636" lon="149.68697165"><ele>654.766</ele></trkpt><trkpt lat="-34.84129061" lon="149.68697573"><ele>654.839</ele></trkpt><trkpt lat="-34.84130472" lon="149.68697872"><ele>654.909</ele></trkpt><trkpt lat="-34.84132936" lon="149.68698180"><ele>655.024</ele></trkpt><trkpt lat="-34.84135920" lon="149.68698614"><ele>655.138</ele></trkpt><trkpt lat="-34.84137585" lon="149.68698561"><ele>655.198</ele></trkpt><trkpt lat="-34.84139514" lon="149.68698474"><ele>655.267</ele></trkpt><trkpt lat="-34.84140936" lon="149.68698288"><ele>655.319</ele></trkpt><trkpt lat="-34.84142440" lon="149.68698086"><ele>655.308</ele></trkpt><trkpt lat="-34.84143800" lon="149.68697746"><ele>655.369</ele></trkpt><trkpt lat="-34.84145334" lon="149.68697384"><ele>655.436</ele></trkpt><trkpt lat="-34.84146463" lon="149.68697020"><ele>655.486</ele></trkpt><trkpt lat="-34.84147766" lon="149.68696634"><ele>655.544</ele></trkpt><trkpt lat="-34.84148911" lon="149.68695996"><ele>655.586</ele></trkpt><trkpt lat="-34.84150377" lon="149.68695482"><ele>655.649</ele></trkpt><trkpt lat="-34.84151509" lon="149.68694738"><ele>655.686</ele></trkpt><trkpt lat="-34.84152824" lon="149.68694081"><ele>655.737</ele></trkpt><trkpt lat="-34.84154107" lon="149.68693591"><ele>655.791</ele></trkpt><trkpt lat="-34.84155637" lon="149.68693074"><ele>655.838</ele></trkpt><trkpt lat="-34.84156977" lon="149.68692552"><ele>655.873</ele></trkpt><trkpt lat="-34.84158169" lon="149.68691987"><ele>655.904</ele></trkpt><trkpt lat="-34.84159350" lon="149.68691310"><ele>655.930</ele></trkpt><trkpt lat="-34.84159933" lon="149.68690858"><ele>655.947</ele></trkpt><trkpt lat="-34.84161024" lon="149.68690305"><ele>655.964</ele></trkpt><trkpt lat="-34.84162072" lon="149.68689070"><ele>655.987</ele></trkpt><trkpt lat="-34.84164019" lon="149.68687302"><ele>656.009</ele></trkpt><trkpt lat="-34.84168153" lon="149.68683299"><ele>655.967</ele></trkpt><trkpt lat="-34.84172303" lon="149.68678981"><ele>655.924</ele></trkpt><trkpt lat="-34.84181668" lon="149.68670339"><ele>655.840</ele></trkpt><trkpt lat="-34.84190877" lon="149.68661044"><ele>655.755</ele></trkpt><trkpt lat="-34.84199152" lon="149.68651827"><ele>655.670</ele></trkpt><trkpt lat="-34.84201358" lon="149.68649445"><ele>655.638</ele></trkpt><trkpt lat="-34.84203397" lon="149.68647430"><ele>655.625</ele></trkpt><trkpt lat="-34.84205412" lon="149.68645078"><ele>655.658</ele></trkpt><trkpt lat="-34.84207154" lon="149.68643158"><ele>655.692</ele></trkpt><trkpt lat="-34.84208562" lon="149.68641658"><ele>655.675</ele></trkpt><trkpt lat="-34.84209990" lon="149.68639759"><ele>655.654</ele></trkpt><trkpt lat="-34.84211398" lon="149.68638260"><ele>655.625</ele></trkpt><trkpt lat="-34.84212655" lon="149.68636604"><ele>655.595</ele></trkpt><trkpt lat="-34.84338700" lon="149.68463534"><ele>656.505</ele></trkpt><trkpt lat="-34.84339864" lon="149.68461787"><ele>656.473</ele></trkpt><trkpt lat="-34.84340460" lon="149.68460472"><ele>656.463</ele></trkpt><trkpt lat="-34.84340949" lon="149.68459390"><ele>656.485</ele></trkpt><trkpt lat="-34.84341702" lon="149.68457754"><ele>656.452</ele></trkpt><trkpt lat="-34.84342138" lon="149.68456373"><ele>656.413</ele></trkpt><trkpt lat="-34.84342610" lon="149.68454940"><ele>656.374</ele></trkpt><trkpt lat="-34.84343053" lon="149.68453641"><ele>656.340</ele></trkpt><trkpt lat="-34.84343346" lon="149.68452265"><ele>656.293</ele></trkpt><trkpt lat="-34.84343718" lon="149.68450967"><ele>656.257</ele></trkpt><trkpt lat="-34.84343973" lon="149.68449541"><ele>656.206</ele></trkpt><trkpt lat="-34.84344121" lon="149.68448167"><ele>656.153</ele></trkpt><trkpt lat="-34.84344230" lon="149.68446745"><ele>656.095</ele></trkpt><trkpt lat="-34.84344241" lon="149.68444869"><ele>656.013</ele></trkpt><trkpt lat="-34.84344014" lon="149.68443418"><ele>655.938</ele></trkpt><trkpt lat="-34.84343651" lon="149.68441553"><ele>655.839</ele></trkpt><trkpt lat="-34.84343151" lon="149.68439967"><ele>655.745</ele></trkpt><trkpt lat="-34.84342718" lon="149.68438270"><ele>655.649</ele></trkpt><trkpt lat="-34.84342142" lon="149.68436761"><ele>655.554</ele></trkpt><trkpt lat="-34.84341456" lon="149.68435393"><ele>655.461</ele></trkpt><trkpt lat="-34.84340806" lon="149.68434060"><ele>655.371</ele></trkpt><trkpt lat="-34.84340158" lon="149.68432814"><ele>655.284</ele></trkpt><trkpt lat="-34.84339465" lon="149.68431515"><ele>655.193</ele></trkpt><trkpt lat="-34.84338594" lon="149.68430558"><ele>655.109</ele></trkpt><trkpt lat="-34.84337980" lon="149.68429906"><ele>655.051</ele></trkpt><trkpt lat="-34.84337198" lon="149.68429233"><ele>654.983</ele></trkpt><trkpt lat="-34.84336151" lon="149.68428627"><ele>654.909</ele></trkpt><trkpt lat="-34.84335555" lon="149.68428071"><ele>654.861</ele></trkpt><trkpt lat="-34.84334659" lon="149.68427633"><ele>654.808</ele></trkpt><trkpt lat="-34.84333288" lon="149.68426951"><ele>654.726</ele></trkpt><trkpt lat="-34.84332194" lon="149.68426571"><ele>654.668</ele></trkpt><trkpt lat="-34.84330791" lon="149.68426261"><ele>654.610</ele></trkpt><trkpt lat="-34.84329473" lon="149.68425864"><ele>654.552</ele></trkpt><trkpt lat="-34.84327935" lon="149.68425454"><ele>654.501</ele></trkpt><trkpt lat="-34.84324339" lon="149.68424911"><ele>654.321</ele></trkpt><trkpt lat="-34.84320492" lon="149.68424683"><ele>654.141</ele></trkpt><trkpt lat="-34.84316151" lon="149.68424892"><ele>653.961</ele></trkpt><trkpt lat="-34.84313679" lon="149.68425188"><ele>653.872</ele></trkpt><trkpt lat="-34.84310445" lon="149.68426024"><ele>653.782</ele></trkpt><trkpt lat="-34.84021533" lon="149.68541131"><ele>649.864</ele></trkpt></trkseg></trk><trk><name>Wakefield Park Raceway segment 3</name><trkseg><trkpt lat="-34.84017148" lon="149.68530492"><ele>649.805</ele></trkpt><trkpt lat="-34.83893978" lon="149.68578570"><ele>647.878</ele></trkpt><trkpt lat="-34.83890865" lon="149.68580674"><ele>647.850</ele></trkpt><trkpt lat="-34.83888032" lon="149.68582352"><ele>647.825</ele></trkpt><trkpt lat="-34.83885877" lon="149.68584457"><ele>647.805</ele></trkpt><trkpt lat="-34.83883581" lon="149.68586193"><ele>647.784</ele></trkpt><trkpt lat="-34.83880980" lon="149.68588101"><ele>647.761</ele></trkpt><trkpt lat="-34.83878495" lon="149.68590123"><ele>647.739</ele></trkpt><trkpt lat="-34.83876337" lon="149.68592230"><ele>647.719</ele></trkpt><trkpt lat="-34.83874085" lon="149.68594480"><ele>647.699</ele></trkpt><trkpt lat="-34.83871749" lon="149.68596650"><ele>647.678</ele></trkpt><trkpt lat="-34.83868622" lon="149.68599660"><ele>647.703</ele></trkpt><trkpt lat="-34.83865893" lon="149.68602357"><ele>647.726</ele></trkpt><trkpt lat="-34.83863470" lon="149.68604994"><ele>647.742</ele></trkpt><trkpt lat="-34.83860320" lon="149.68608912"><ele>647.775</ele></trkpt><trkpt lat="-34.83857145" lon="149.68612700"><ele>647.805</ele></trkpt><trkpt lat="-34.83854059" lon="149.68616228"><ele>647.922</ele></trkpt><trkpt lat="-34.83847527" lon="149.68624373"><ele>648.201</ele></trkpt><trkpt lat="-34.83840265" lon="149.68633097"><ele>648.355</ele></trkpt><trkpt lat="-34.83829741" lon="149.68645071"><ele>649.031</ele></trkpt><trkpt lat="-34.83820920" lon="149.68655612"><ele>649.324</ele></trkpt><trkpt lat="-34.83811465" lon="149.68667993"><ele>649.662</ele></trkpt><trkpt lat="-34.83804638" lon="149.68678968"><ele>649.929</ele></trkpt><trkpt lat="-34.83801311" lon="149.68684892"><ele>650.000</ele></trkpt><trkpt lat="-34.83799026" lon="149.68690667"><ele>650.083</ele></trkpt><trkpt lat="-34.83798482" lon="149.68696087"><ele>650.114</ele></trkpt><trkpt lat="-34.83799026" lon="149.68701289"><ele>650.265</ele></trkpt><trkpt lat="-34.83799559" lon="149.68706334"><ele>650.431</ele></trkpt><trkpt lat="-34.83800334" lon="149.68710313"><ele>650.573</ele></trkpt><trkpt lat="-34.83801598" lon="149.68714950"><ele>650.667</ele></trkpt><trkpt lat="-34.83803418" lon="149.68721119"><ele>650.792</ele></trkpt><trkpt lat="-34.83805589" lon="149.68726167"><ele>650.889</ele></trkpt><trkpt lat="-34.83808353" lon="149.68731748"><ele>650.985</ele></trkpt><trkpt lat="-34.83811038" lon="149.68736683"><ele>651.041</ele></trkpt><trkpt lat="-34.83813423" lon="149.68741464"><ele>651.041</ele></trkpt><trkpt lat="-34.83816834" lon="149.68746307"><ele>651.041</ele></trkpt><trkpt lat="-34.83820333" lon="149.68751530"><ele>651.041</ele></trkpt><trkpt lat="-34.83824263" lon="149.68756278"><ele>651.041</ele></trkpt><trkpt lat="-34.83827908" lon="149.68761451"><ele>651.041</ele></trkpt><trkpt lat="-34.83830567" lon="149.68764493"><ele>651.041</ele></trkpt><trkpt lat="-34.83833822" lon="149.68768074"><ele>651.045</ele></trkpt><trkpt lat="-34.83836865" lon="149.68771647"><ele>651.127</ele></trkpt><trkpt lat="-34.83839427" lon="149.68774311"><ele>651.211</ele></trkpt><trkpt lat="-34.83842659" lon="149.68778140"><ele>651.309</ele></trkpt><trkpt lat="-34.83845177" lon="149.68781181"><ele>651.385</ele></trkpt><trkpt lat="-34.83847008" lon="149.68782949"><ele>651.438</ele></trkpt><trkpt lat="-34.83849751" lon="149.68785598"><ele>651.518</ele></trkpt><trkpt lat="-34.83853613" lon="149.68789075"><ele>651.722</ele></trkpt><trkpt lat="-34.83857659" lon="149.68793028"><ele>651.925</ele></trkpt><trkpt lat="-34.83861266" lon="149.68796993"><ele>652.117</ele></trkpt><trkpt lat="-34.83865639" lon="149.68801238"><ele>652.534</ele></trkpt><trkpt lat="-34.83870931" lon="149.68805706"><ele>652.853</ele></trkpt><trkpt lat="-34.83952800" lon="149.68863972"><ele>655.517</ele></trkpt><trkpt lat="-34.83954177" lon="149.68864755"><ele>655.527</ele></trkpt><trkpt lat="-34.83954924" lon="149.68865077"><ele>655.537</ele></trkpt><trkpt lat="-34.83957048" lon="149.68866183"><ele>655.556</ele></trkpt><trkpt lat="-34.83957719" lon="149.68866644"><ele>655.596</ele></trkpt><trkpt lat="-34.83959168" lon="149.68867214"><ele>655.676</ele></trkpt><trkpt lat="-34.83962750" lon="149.68869311"><ele>655.791</ele></trkpt><trkpt lat="-34.83966848" lon="149.68871546"><ele>655.877</ele></trkpt><trkpt lat="-34.83972192" lon="149.68874243"><ele>656.034</ele></trkpt><trkpt lat="-34.83977371" lon="149.68876729"><ele>656.340</ele></trkpt><trkpt lat="-34.83982334" lon="149.68879047"><ele>656.538</ele></trkpt><trkpt lat="-34.83986575" lon="149.68880744"><ele>656.679</ele></trkpt><trkpt lat="-34.83992281" lon="149.68882655"><ele>656.865</ele></trkpt><trkpt lat="-34.83996831" lon="149.68884339"><ele>657.113</ele></trkpt><trkpt lat="-34.84018869" lon="149.68893919"><ele>658.183</ele></trkpt><trkpt lat="-34.84022538" lon="149.68896166"><ele>658.323</ele></trkpt><trkpt lat="-34.84026316" lon="149.68898480"><ele>658.474</ele></trkpt><trkpt lat="-34.84028986" lon="149.68900860"><ele>658.620</ele></trkpt><trkpt lat="-34.84031463" lon="149.68903678"><ele>658.773</ele></trkpt><trkpt lat="-34.84033209" lon="149.68906045"><ele>658.892</ele></trkpt><trkpt lat="-34.84035072" lon="149.68908481"><ele>658.999</ele></trkpt><trkpt lat="-34.84037463" lon="149.68912529"><ele>659.180</ele></trkpt><trkpt lat="-34.84039066" lon="149.68915903"><ele>659.339</ele></trkpt><trkpt lat="-34.84040850" lon="149.68919937"><ele>659.444</ele></trkpt><trkpt lat="-34.84064387" lon="149.68981758"><ele>662.527</ele></trkpt><trkpt lat="-34.84066095" lon="149.68985659"><ele>662.803</ele></trkpt><trkpt lat="-34.84067684" lon="149.68989871"><ele>663.045</ele></trkpt><trkpt lat="-34.84069811" lon="149.68994522"><ele>663.349</ele></trkpt><trkpt lat="-34.84071677" lon="149.68997877"><ele>663.581</ele></trkpt><trkpt lat="-34.84073358" lon="149.69000752"><ele>663.783</ele></trkpt><trkpt lat="-34.84075962" lon="149.69003656"><ele>663.823</ele></trkpt><trkpt lat="-34.84078383" lon="149.69005846"><ele>664.008</ele></trkpt><trkpt lat="-34.84081043" lon="149.69007655"><ele>664.194</ele></trkpt><trkpt lat="-34.84084225" lon="149.69009160"><ele>664.389</ele></trkpt><trkpt lat="-34.84087114" lon="149.69010302"><ele>664.557</ele></trkpt><trkpt lat="-34.84090450" lon="149.69011568"><ele>664.748</ele></trkpt><trkpt lat="-34.84093310" lon="149.69012470"><ele>664.912</ele></trkpt><trkpt lat="-34.84096340" lon="149.69013373"><ele>665.083</ele></trkpt><trkpt lat="-34.84099449" lon="149.69014162"><ele>665.251</ele></trkpt><trkpt lat="-34.84102654" lon="149.69014390"><ele>665.391</ele></trkpt><trkpt lat="-34.84105565" lon="149.69014718"><ele>665.525</ele></trkpt><trkpt lat="-34.84108119" lon="149.69014586"><ele>665.626</ele></trkpt><trkpt lat="-34.84142235" lon="149.69011425"><ele>667.116</ele></trkpt><trkpt lat="-34.84144593" lon="149.69010973"><ele>667.083</ele></trkpt><trkpt lat="-34.84147558" lon="149.69010359"><ele>667.209</ele></trkpt><trkpt lat="-34.84150412" lon="149.69009419"><ele>667.299</ele></trkpt><trkpt lat="-34.84153691" lon="149.69008560"><ele>667.566</ele></trkpt><trkpt lat="-34.84157124" lon="149.69007013"><ele>667.700</ele></trkpt><trkpt lat="-34.84159637" lon="149.69005106"><ele>667.742</ele></trkpt><trkpt lat="-34.84162350" lon="149.69003926"><ele>667.852</ele></trkpt><trkpt lat="-34.84165539" lon="149.69002506"><ele>667.978</ele></trkpt><trkpt lat="-34.84168390" lon="149.69000121"><ele>668.009</ele></trkpt><trkpt lat="-34.84171103" lon="149.68996972"><ele>667.996</ele></trkpt><trkpt lat="-34.84173732" lon="149.68993941"><ele>667.990</ele></trkpt><trkpt lat="-34.84175658" lon="149.68991196"><ele>667.912</ele></trkpt><trkpt lat="-34.84177446" lon="149.68987683"><ele>667.831</ele></trkpt><trkpt lat="-34.84179034" lon="149.68983969"><ele>667.801</ele></trkpt><trkpt lat="-34.84180188" lon="149.68980393"><ele>667.682</ele></trkpt><trkpt lat="-34.84181583" lon="149.68976229"><ele>667.544</ele></trkpt><trkpt lat="-34.84182293" lon="149.68972554"><ele>667.322</ele></trkpt><trkpt lat="-34.84182669" lon="149.68969593"><ele>667.213</ele></trkpt><trkpt lat="-34.84182619" lon="149.68965532"><ele>667.026</ele></trkpt><trkpt lat="-34.84182562" lon="149.68961227"><ele>666.795</ele></trkpt><trkpt lat="-34.84182214" lon="149.68956586"><ele>666.522</ele></trkpt><trkpt lat="-34.84181945" lon="149.68951967"><ele>666.257</ele></trkpt><trkpt lat="-34.84181741" lon="149.68948364"><ele>666.051</ele></trkpt><trkpt lat="-34.84181089" lon="149.68944901"><ele>665.814</ele></trkpt><trkpt lat="-34.84180460" lon="149.68941880"><ele>665.603</ele></trkpt><trkpt lat="-34.84159440" lon="149.68850777"><ele>660.565</ele></trkpt><trkpt lat="-34.84158794" lon="149.68847884"><ele>660.404</ele></trkpt><trkpt lat="-34.84157543" lon="149.68844578"><ele>660.254</ele></trkpt><trkpt lat="-34.84156314" lon="149.68841748"><ele>660.168</ele></trkpt><trkpt lat="-34.84154718" lon="149.68839182"><ele>660.076</ele></trkpt><trkpt lat="-34.84152910" lon="149.68836415"><ele>660.038</ele></trkpt><trkpt lat="-34.84150842" lon="149.68833987"><ele>659.893</ele></trkpt><trkpt lat="-34.84148874" lon="149.68831740"><ele>659.786</ele></trkpt><trkpt lat="-34.84146723" lon="149.68829232"><ele>659.619</ele></trkpt><trkpt lat="-34.84144878" lon="149.68827040"><ele>659.444</ele></trkpt><trkpt lat="-34.84142533" lon="149.68824533"><ele>659.232</ele></trkpt><trkpt lat="-34.84140391" lon="149.68822738"><ele>659.231</ele></trkpt><trkpt lat="-34.84137595" lon="149.68820352"><ele>659.043</ele></trkpt><trkpt lat="-34.84135191" lon="149.68818885"><ele>658.872</ele></trkpt><trkpt lat="-34.84132427" lon="149.68817451"><ele>658.688</ele></trkpt><trkpt lat="-34.84130101" lon="149.68815978"><ele>658.531</ele></trkpt><trkpt lat="-34.84127154" lon="149.68813931"><ele>658.321</ele></trkpt><trkpt lat="-34.84124298" lon="149.68812132"><ele>658.116</ele></trkpt><trkpt lat="-34.84121571" lon="149.68810515"><ele>657.916</ele></trkpt><trkpt lat="-34.84119468" lon="149.68809233"><ele>657.734</ele></trkpt><trkpt lat="-34.84116704" lon="149.68807986"><ele>657.617</ele></trkpt><trkpt lat="-34.84114330" lon="149.68807256"><ele>657.506</ele></trkpt><trkpt lat="-34.84110950" lon="149.68805891"><ele>657.214</ele></trkpt><trkpt lat="-34.84108363" lon="149.68804929"><ele>656.995</ele></trkpt><trkpt lat="-34.84105881" lon="149.68804325"><ele>656.921</ele></trkpt><trkpt lat="-34.84103024" lon="149.68803990"><ele>656.796</ele></trkpt><trkpt lat="-34.84099862" lon="149.68803561"><ele>656.653</ele></trkpt><trkpt lat="-34.84095819" lon="149.68803202"><ele>656.608</ele></trkpt><trkpt lat="-34.84092335" lon="149.68802753"><ele>656.478</ele></trkpt><trkpt lat="-34.84084160" lon="149.68802259"><ele>656.169</ele></trkpt><trkpt lat="-34.84079278" lon="149.68801964"><ele>656.015</ele></trkpt><trkpt lat="-34.84074398" lon="149.68801435"><ele>655.861</ele></trkpt><trkpt lat="-34.84069119" lon="149.68800877"><ele>655.706</ele></trkpt><trkpt lat="-34.84064328" lon="149.68799987"><ele>655.552</ele></trkpt><trkpt lat="-34.84055693" lon="149.68798219"><ele>655.243</ele></trkpt><trkpt lat="-34.84051805" lon="149.68797498"><ele>655.223</ele></trkpt><trkpt lat="-34.84047249" lon="149.68795669"><ele>655.223</ele></trkpt><trkpt lat="-34.84042021" lon="149.68793203"><ele>655.223</ele></trkpt><trkpt lat="-34.84037633" lon="149.68791624"><ele>655.223</ele></trkpt><trkpt lat="-34.84034054" lon="149.68789605"><ele>655.223</ele></trkpt><trkpt lat="-34.84032370" lon="149.68788416"><ele>654.653</ele></trkpt><trkpt lat="-34.84028780" lon="149.68786391"><ele>654.620</ele></trkpt><trkpt lat="-34.84025482" lon="149.68784504"><ele>654.590</ele></trkpt><trkpt lat="-34.84022380" lon="149.68782627"><ele>654.561</ele></trkpt><trkpt lat="-34.84019250" lon="149.68780942"><ele>654.533</ele></trkpt><trkpt lat="-34.84016153" lon="149.68779072"><ele>654.479</ele></trkpt><trkpt lat="-34.84013544" lon="149.68777352"><ele>654.410</ele></trkpt><trkpt lat="-34.84011340" lon="149.68775412"><ele>654.342</ele></trkpt><trkpt lat="-34.84008360" lon="149.68772941"><ele>654.254</ele></trkpt><trkpt lat="-34.84004810" lon="149.68769708"><ele>654.143</ele></trkpt><trkpt lat="-34.83965122" lon="149.68737404"><ele>653.182</ele></trkpt><trkpt lat="-34.83962602" lon="149.68735055"><ele>653.069</ele></trkpt><trkpt lat="-34.83960566" lon="149.68733098"><ele>652.964</ele></trkpt><trkpt lat="-34.83959252" lon="149.68730572"><ele>652.868</ele></trkpt><trkpt lat="-34.83958643" lon="149.68727963"><ele>652.784</ele></trkpt><trkpt lat="-34.83957824" lon="149.68725583"><ele>652.702</ele></trkpt><trkpt lat="-34.83957694" lon="149.68723612"><ele>652.645</ele></trkpt><trkpt lat="-34.83957599" lon="149.68720658"><ele>652.555</ele></trkpt><trkpt lat="-34.83957485" lon="149.68718190"><ele>652.468</ele></trkpt><trkpt lat="-34.83958298" lon="149.68715163"><ele>652.384</ele></trkpt><trkpt lat="-34.83959094" lon="149.68712624"><ele>652.316</ele></trkpt><trkpt lat="-34.83960090" lon="149.68710090"><ele>652.226</ele></trkpt><trkpt lat="-34.83961285" lon="149.68707562"><ele>652.116</ele></trkpt><trkpt lat="-34.83962457" lon="149.68705774"><ele>652.046</ele></trkpt><trkpt lat="-34.83963834" lon="149.68704006"><ele>652.015</ele></trkpt><trkpt lat="-34.83965229" lon="149.68701738"><ele>651.948</ele></trkpt><trkpt lat="-34.83967211" lon="149.68700003"><ele>651.913</ele></trkpt><trkpt lat="-34.83969423" lon="149.68697537"><ele>651.856</ele></trkpt><trkpt lat="-34.83972176" lon="149.68694253"><ele>651.839</ele></trkpt><trkpt lat="-34.83974825" lon="149.68691055"><ele>651.805</ele></trkpt><trkpt lat="-34.83977961" lon="149.68688287"><ele>651.796</ele></trkpt><trkpt lat="-34.83981527" lon="149.68684801"><ele>651.763</ele></trkpt><trkpt lat="-34.83986947" lon="149.68680441"><ele>651.738</ele></trkpt><trkpt lat="-34.83991112" lon="149.68677238"><ele>651.723</ele></trkpt><trkpt lat="-34.83995987" lon="149.68673957"><ele>651.720</ele></trkpt><trkpt lat="-34.84000517" lon="149.68671771"><ele>651.741</ele></trkpt><trkpt lat="-34.84006275" lon="149.68669149"><ele>651.715</ele></trkpt><trkpt lat="-34.84014229" lon="149.68666877"><ele>651.674</ele></trkpt><trkpt lat="-34.84021242" lon="149.68666628"><ele>651.943</ele></trkpt><trkpt lat="-34.84026199" lon="149.68666269"><ele>651.976</ele></trkpt><trkpt lat="-34.84029622" lon="149.68666441"><ele>651.982</ele></trkpt><trkpt lat="-34.84033447" lon="149.68666633"><ele>651.989</ele></trkpt><trkpt lat="-34.84037561" lon="149.68667212"><ele>652.009</ele></trkpt><trkpt lat="-34.84041552" lon="149.68668214"><ele>652.224</ele></trkpt><trkpt lat="-34.84045037" lon="149.68669261"><ele>652.277</ele></trkpt><trkpt lat="-34.84048915" lon="149.68670558"><ele>652.277</ele></trkpt><trkpt lat="-34.84052370" lon="149.68671893"><ele>652.489</ele></trkpt><trkpt lat="-34.84055930" lon="149.68673086"><ele>652.619</ele></trkpt><trkpt lat="-34.84059961" lon="149.68674914"><ele>652.760</ele></trkpt><trkpt lat="-34.84063428" lon="149.68676245"><ele>652.826</ele></trkpt><trkpt lat="-34.84066485" lon="149.68677999"><ele>652.898</ele></trkpt><trkpt lat="-34.84132822" lon="149.68709639"><ele>655.236</ele></trkpt><trkpt lat="-34.84135064" lon="149.68710118"><ele>655.351</ele></trkpt><trkpt lat="-34.84138777" lon="149.68710316"><ele>655.565</ele></trkpt><trkpt lat="-34.84142282" lon="149.68710269"><ele>655.843</ele></trkpt><trkpt lat="-34.84145529" lon="149.68709833"><ele>655.891</ele></trkpt><trkpt lat="-34.84148606" lon="149.68708433"><ele>655.963</ele></trkpt><trkpt lat="-34.84151565" lon="149.68707390"><ele>656.061</ele></trkpt><trkpt lat="-34.84154436" lon="149.68705985"><ele>656.148</ele></trkpt><trkpt lat="-34.84157497" lon="149.68704592"><ele>656.245</ele></trkpt><trkpt lat="-34.84161051" lon="149.68702869"><ele>656.355</ele></trkpt><trkpt lat="-34.84163919" lon="149.68701048"><ele>656.427</ele></trkpt><trkpt lat="-34.84166711" lon="149.68699727"><ele>656.425</ele></trkpt><trkpt lat="-34.84169123" lon="149.68697913"><ele>656.496</ele></trkpt><trkpt lat="-34.84203667" lon="149.68663857"><ele>656.286</ele></trkpt><trkpt lat="-34.84206264" lon="149.68660796"><ele>656.280</ele></trkpt><trkpt lat="-34.84209371" lon="149.68657152"><ele>656.251</ele></trkpt><trkpt lat="-34.84232089" lon="149.68627304"><ele>656.262</ele></trkpt><trkpt lat="-34.84346479" lon="149.68471687"><ele>657.409</ele></trkpt><trkpt lat="-34.84348681" lon="149.68468229"><ele>657.386</ele></trkpt><trkpt lat="-34.84350257" lon="149.68464639"><ele>657.370</ele></trkpt><trkpt lat="-34.84351576" lon="149.68460592"><ele>657.307</ele></trkpt><trkpt lat="-34.84352005" lon="149.68456613"><ele>657.187</ele></trkpt><trkpt lat="-34.84352453" lon="149.68453528"><ele>657.022</ele></trkpt><trkpt lat="-34.84352836" lon="149.68449631"><ele>656.764</ele></trkpt><trkpt lat="-34.84352964" lon="149.68445021"><ele>656.519</ele></trkpt><trkpt lat="-34.84352922" lon="149.68439647"><ele>656.266</ele></trkpt><trkpt lat="-34.84351876" lon="149.68435747"><ele>656.065</ele></trkpt><trkpt lat="-34.84350536" lon="149.68431006"><ele>655.775</ele></trkpt><trkpt lat="-34.84348743" lon="149.68427246"><ele>655.470</ele></trkpt><trkpt lat="-34.84346589" lon="149.68423783"><ele>655.306</ele></trkpt><trkpt lat="-34.84344158" lon="149.68420726"><ele>655.070</ele></trkpt><trkpt lat="-34.84341778" lon="149.68418667"><ele>654.832</ele></trkpt><trkpt lat="-34.84338238" lon="149.68416745"><ele>654.644</ele></trkpt><trkpt lat="-34.84334758" lon="149.68414956"><ele>654.463</ele></trkpt><trkpt lat="-34.84331420" lon="149.68414348"><ele>654.335</ele></trkpt><trkpt lat="-34.84328212" lon="149.68413384"><ele>654.196</ele></trkpt><trkpt lat="-34.84325305" lon="149.68413258"><ele>654.098</ele></trkpt><trkpt lat="-34.84321926" lon="149.68412654"><ele>654.016</ele></trkpt><trkpt lat="-34.84316533" lon="149.68412900"><ele>653.885</ele></trkpt><trkpt lat="-34.84313114" lon="149.68413188"><ele>653.788</ele></trkpt><trkpt lat="-34.84308685" lon="149.68414290"><ele>653.628</ele></trkpt><trkpt lat="-34.84304392" lon="149.68415867"><ele>653.458</ele></trkpt><trkpt lat="-34.84300009" lon="149.68417317"><ele>653.285</ele></trkpt><trkpt lat="-34.84296979" lon="149.68418351"><ele>653.172</ele></trkpt><trkpt lat="-34.84291150" lon="149.68420371"><ele>652.956</ele></trkpt><trkpt lat="-34.84286369" lon="149.68421661"><ele>652.764</ele></trkpt><trkpt lat="-34.84282883" lon="149.68423061"><ele>652.617</ele></trkpt><trkpt lat="-34.84277489" lon="149.68425364"><ele>652.459</ele></trkpt><trkpt lat="-34.84268519" lon="149.68430022"><ele>652.180</ele></trkpt><trkpt lat="-34.84264648" lon="149.68431925"><ele>652.083</ele></trkpt><trkpt lat="-34.84259166" lon="149.68434677"><ele>651.896</ele></trkpt><trkpt lat="-34.84017581" lon="149.68530326"><ele>649.805</ele></trkpt></trkseg></trk></gpx>