<?xml version="1.0" encoding="UTF-8"?>
<gpx version="1.1" creator="tkk2gpx (.ztracks converter)"
     xmlns="http://www.topografix.com/GPX/1/1"
     xmlns:xsi="http://www.w3.org/2001/XMLSchema-instance"
     xsi:schemaLocation="http://www.topografix.com/GPX/1/1 http://www.topografix.com/GPX/1/1/gpx.xsd">
  <metadata>
    <name>Wanneroo Raceway (Barbagallo)</name>
    <desc>WA AU. One lap from wannero.ztracks, declared 2460 m. The source Start/Finish mark is 64 m off the centreline, so numbering uses the longest straight.</desc>
  </metadata>
  <wpt lat="-31.6641595" lon="115.7904850">
    <name>Start/Finish</name>
    <desc>Start/Finish line location from source; more than 40 m off the centreline so the detector ignores it</desc>
    <sym>Flag, Checkered</sym>
  </wpt>
  <trk>
    <name>WR Full - 1 lap</name>
    <trkseg>
      <trkpt lat="-31.6647342" lon="115.7904776"></trkpt>
      <trkpt lat="-31.6647386" lon="115.7905902"></trkpt>
      <trkpt lat="-31.6649662" lon="115.7937299"></trkpt>
      <trkpt lat="-31.6649857" lon="115.7938556"></trkpt>
      <trkpt lat="-31.6650158" lon="115.7939946"></trkpt>
      <trkpt lat="-31.6650519" lon="115.7941107"></trkpt>
      <trkpt lat="-31.6650940" lon="115.7942314"></trkpt>
      <trkpt lat="-31.6651459" lon="115.7943384"></trkpt>
      <trkpt lat="-31.6651962" lon="115.7944246"></trkpt>
      <trkpt lat="-31.6652505" lon="115.7944946"></trkpt>
      <trkpt lat="-31.6653090" lon="115.7945486"></trkpt>
      <trkpt lat="-31.6653753" lon="115.7945957"></trkpt>
      <trkpt lat="-31.6654399" lon="115.7946244"></trkpt>
      <trkpt lat="-31.6655086" lon="115.7946392"></trkpt>
      <trkpt lat="-31.6655872" lon="115.7946450"></trkpt>
      <trkpt lat="-31.6656639" lon="115.7946368"></trkpt>
      <trkpt lat="-31.6657467" lon="115.7946149"></trkpt>
      <trkpt lat="-31.6658257" lon="115.7945813"></trkpt>
      <trkpt lat="-31.6659149" lon="115.7945179"></trkpt>
      <trkpt lat="-31.6659903" lon="115.7944497"></trkpt>
      <trkpt lat="-31.6660605" lon="115.7943648"></trkpt>
      <trkpt lat="-31.6661224" lon="115.7942709"></trkpt>
      <trkpt lat="-31.6661824" lon="115.7941748"></trkpt>
      <trkpt lat="-31.6662407" lon="115.7940508"></trkpt>
      <trkpt lat="-31.6662871" lon="115.7939360"></trkpt>
      <trkpt lat="-31.6663296" lon="115.7938118"></trkpt>
      <trkpt lat="-31.6663584" lon="115.7936921"></trkpt>
      <trkpt lat="-31.6663872" lon="115.7935655"></trkpt>
      <trkpt lat="-31.6664163" lon="115.7934189"></trkpt>
      <trkpt lat="-31.6664313" lon="115.7932990"></trkpt>
      <trkpt lat="-31.6664402" lon="115.7931952"></trkpt>
      <trkpt lat="-31.6664457" lon="115.7930428"></trkpt>
      <trkpt lat="-31.6664544" lon="115.7868363"></trkpt>
      <trkpt lat="-31.6664436" lon="115.7867345"></trkpt>
      <trkpt lat="-31.6664251" lon="115.7866187"></trkpt>
      <trkpt lat="-31.6663925" lon="115.7865397"></trkpt>
      <trkpt lat="-31.6663480" lon="115.7864675"></trkpt>
      <trkpt lat="-31.6662936" lon="115.7864043"></trkpt>
      <trkpt lat="-31.6662233" lon="115.7863571"></trkpt>
      <trkpt lat="-31.6661390" lon="115.7863329"></trkpt>
      <trkpt lat="-31.6660821" lon="115.7863251"></trkpt>
      <trkpt lat="-31.6660437" lon="115.7863253"></trkpt>
      <trkpt lat="-31.6641928" lon="115.7863745"></trkpt>
      <trkpt lat="-31.6624252" lon="115.7864216"></trkpt>
      <trkpt lat="-31.6623364" lon="115.7864291"></trkpt>
      <trkpt lat="-31.6622679" lon="115.7864424"></trkpt>
      <trkpt lat="-31.6622054" lon="115.7864629"></trkpt>
      <trkpt lat="-31.6621443" lon="115.7864906"></trkpt>
      <trkpt lat="-31.6620831" lon="115.7865344"></trkpt>
      <trkpt lat="-31.6620356" lon="115.7865766"></trkpt>
      <trkpt lat="-31.6619941" lon="115.7866224"></trkpt>
      <trkpt lat="-31.6619525" lon="115.7866790"></trkpt>
      <trkpt lat="-31.6619184" lon="115.7867392"></trkpt>
      <trkpt lat="-31.6618905" lon="115.7867995"></trkpt>
      <trkpt lat="-31.6618717" lon="115.7868546"></trkpt>
      <trkpt lat="-31.6618650" lon="115.7869116"></trkpt>
      <trkpt lat="-31.6618647" lon="115.7869648"></trkpt>
      <trkpt lat="-31.6618687" lon="115.7870196"></trkpt>
      <trkpt lat="-31.6618816" lon="115.7870893"></trkpt>
      <trkpt lat="-31.6618981" lon="115.7871509"></trkpt>
      <trkpt lat="-31.6619202" lon="115.7872113"></trkpt>
      <trkpt lat="-31.6619469" lon="115.7872691"></trkpt>
      <trkpt lat="-31.6619747" lon="115.7873202"></trkpt>
      <trkpt lat="-31.6620072" lon="115.7873674"></trkpt>
      <trkpt lat="-31.6620478" lon="115.7874083"></trkpt>
      <trkpt lat="-31.6620872" lon="115.7874449"></trkpt>
      <trkpt lat="-31.6621368" lon="115.7874870"></trkpt>
      <trkpt lat="-31.6622045" lon="115.7875333"></trkpt>
      <trkpt lat="-31.6622611" lon="115.7875635"></trkpt>
      <trkpt lat="-31.6623301" lon="115.7875939"></trkpt>
      <trkpt lat="-31.6623975" lon="115.7876176"></trkpt>
      <trkpt lat="-31.6624550" lon="115.7876356"></trkpt>
      <trkpt lat="-31.6625171" lon="115.7876517"></trkpt>
      <trkpt lat="-31.6625742" lon="115.7876596"></trkpt>
      <trkpt lat="-31.6626460" lon="115.7876678"></trkpt>
      <trkpt lat="-31.6627221" lon="115.7876739"></trkpt>
      <trkpt lat="-31.6627870" lon="115.7876799"></trkpt>
      <trkpt lat="-31.6628508" lon="115.7876897"></trkpt>
      <trkpt lat="-31.6629165" lon="115.7877028"></trkpt>
      <trkpt lat="-31.6629864" lon="115.7877231"></trkpt>
      <trkpt lat="-31.6630571" lon="115.7877536"></trkpt>
      <trkpt lat="-31.6631268" lon="115.7877943"></trkpt>
      <trkpt lat="-31.6631862" lon="115.7878328"></trkpt>
      <trkpt lat="-31.6632555" lon="115.7878806"></trkpt>
      <trkpt lat="-31.6633122" lon="115.7879251"></trkpt>
      <trkpt lat="-31.6633612" lon="115.7879624"></trkpt>
      <trkpt lat="-31.6634059" lon="115.7879915"></trkpt>
      <trkpt lat="-31.6634455" lon="115.7880165"></trkpt>
      <trkpt lat="-31.6634982" lon="115.7880492"></trkpt>
      <trkpt lat="-31.6636020" lon="115.7880987"></trkpt>
      <trkpt lat="-31.6636716" lon="115.7881245"></trkpt>
      <trkpt lat="-31.6637630" lon="115.7881559"></trkpt>
      <trkpt lat="-31.6638352" lon="115.7881754"></trkpt>
      <trkpt lat="-31.6639291" lon="115.7881882"></trkpt>
      <trkpt lat="-31.6640378" lon="115.7881943"></trkpt>
      <trkpt lat="-31.6641309" lon="115.7881899"></trkpt>
      <trkpt lat="-31.6643114" lon="115.7881648"></trkpt>
      <trkpt lat="-31.6644870" lon="115.7881259"></trkpt>
      <trkpt lat="-31.6646176" lon="115.7880921"></trkpt>
      <trkpt lat="-31.6646903" lon="115.7880770"></trkpt>
      <trkpt lat="-31.6647619" lon="115.7880665"></trkpt>
      <trkpt lat="-31.6648442" lon="115.7880608"></trkpt>
      <trkpt lat="-31.6648815" lon="115.7880610"></trkpt>
      <trkpt lat="-31.6649283" lon="115.7880667"></trkpt>
      <trkpt lat="-31.6649935" lon="115.7880787"></trkpt>
      <trkpt lat="-31.6650599" lon="115.7880975"></trkpt>
      <trkpt lat="-31.6651263" lon="115.7881229"></trkpt>
      <trkpt lat="-31.6651884" lon="115.7881564"></trkpt>
      <trkpt lat="-31.6652394" lon="115.7881914"></trkpt>
      <trkpt lat="-31.6653027" lon="115.7882461"></trkpt>
      <trkpt lat="-31.6653514" lon="115.7883012"></trkpt>
      <trkpt lat="-31.6653896" lon="115.7883588"></trkpt>
      <trkpt lat="-31.6654224" lon="115.7884164"></trkpt>
      <trkpt lat="-31.6654495" lon="115.7884722"></trkpt>
      <trkpt lat="-31.6654725" lon="115.7885329"></trkpt>
      <trkpt lat="-31.6654926" lon="115.7886065"></trkpt>
      <trkpt lat="-31.6655044" lon="115.7886752"></trkpt>
      <trkpt lat="-31.6655132" lon="115.7887585"></trkpt>
      <trkpt lat="-31.6655179" lon="115.7888417"></trkpt>
      <trkpt lat="-31.6655157" lon="115.7889270"></trkpt>
      <trkpt lat="-31.6655077" lon="115.7890264"></trkpt>
      <trkpt lat="-31.6654873" lon="115.7891190"></trkpt>
      <trkpt lat="-31.6654587" lon="115.7892067"></trkpt>
      <trkpt lat="-31.6654286" lon="115.7892846"></trkpt>
      <trkpt lat="-31.6653860" lon="115.7893737"></trkpt>
      <trkpt lat="-31.6653352" lon="115.7894594"></trkpt>
      <trkpt lat="-31.6652739" lon="115.7895350"></trkpt>
      <trkpt lat="-31.6651855" lon="115.7896300"></trkpt>
      <trkpt lat="-31.6650677" lon="115.7897441"></trkpt>
      <trkpt lat="-31.6649779" lon="115.7898374"></trkpt>
      <trkpt lat="-31.6649288" lon="115.7898998"></trkpt>
      <trkpt lat="-31.6648795" lon="115.7899725"></trkpt>
      <trkpt lat="-31.6648286" lon="115.7900680"></trkpt>
      <trkpt lat="-31.6647902" lon="115.7901522"></trkpt>
      <trkpt lat="-31.6647630" lon="115.7902318"></trkpt>
      <trkpt lat="-31.6647442" lon="115.7903130"></trkpt>
      <trkpt lat="-31.6647364" lon="115.7903945"></trkpt>
      <trkpt lat="-31.6647342" lon="115.7904776"></trkpt>
    </trkseg>
  </trk>
</gpx>
