<?xml version="1.0" encoding="UTF-8"?>
<gpx version="1.1" creator="Send-It DEM enrich">
  <trk><name>winton</name><trkseg>
    <trkpt lat="-36.51978301" lon="146.08781021"><ele>176.000</ele></trkpt>
    <trkpt lat="-36.51964566" lon="146.08767735"><ele>176.000</ele></trkpt>
    <trkpt lat="-36.51941705" lon="146.08745925"><ele>176.000</ele></trkpt>
    <trkpt lat="-36.51919163" lon="146.08724325"><ele>176.000</ele></trkpt>
    <trkpt lat="-36.51902236" lon="146.08708158"><ele>176.000</ele></trkpt>
    <trkpt lat="-36.51882892" lon="146.08689219"><ele>176.000</ele></trkpt>
    <trkpt lat="-36.51871461" lon="146.08677792"><ele>176.000</ele></trkpt>
    <trkpt lat="-36.51859876" lon="146.08667860"><ele>175.000</ele></trkpt>
    <trkpt lat="-36.51850664" lon="146.08659846"><ele>175.000</ele></trkpt>
    <trkpt lat="-36.51840690" lon="146.08651487"><ele>176.000</ele></trkpt>
    <trkpt lat="-36.51833222" lon="146.08645541"><ele>176.000</ele></trkpt>
    <trkpt lat="-36.51826794" lon="146.08640436"><ele>176.000</ele></trkpt>
    <trkpt lat="-36.51815010" lon="146.08630603"><ele>177.000</ele></trkpt>
    <trkpt lat="-36.51808232" lon="146.08625275"><ele>178.000</ele></trkpt>
    <trkpt lat="-36.51803221" lon="146.08620754"><ele>178.000</ele></trkpt>
    <trkpt lat="-36.51800158" lon="146.08617407"><ele>178.000</ele></trkpt>
    <trkpt lat="-36.51797648" lon="146.08614032"><ele>178.000</ele></trkpt>
    <trkpt lat="-36.51796144" lon="146.08611162"><ele>178.000</ele></trkpt>
    <trkpt lat="-36.51794613" lon="146.08608104"><ele>178.000</ele></trkpt>
    <trkpt lat="-36.51793525" lon="146.08605499"><ele>178.000</ele></trkpt>
    <trkpt lat="-36.51792771" lon="146.08602807"><ele>178.000</ele></trkpt>
    <trkpt lat="-36.51791970" lon="146.08599784"><ele>178.000</ele></trkpt>
    <trkpt lat="-36.51791391" lon="146.08596736"><ele>178.000</ele></trkpt>
    <trkpt lat="-36.51790965" lon="146.08593741"><ele>178.000</ele></trkpt>
    <trkpt lat="-36.51790623" lon="146.08590535"><ele>178.000</ele></trkpt>
    <trkpt lat="-36.51790406" lon="146.08587396"><ele>178.000</ele></trkpt>
    <trkpt lat="-36.51790545" lon="146.08583741"><ele>178.000</ele></trkpt>
    <trkpt lat="-36.51790920" lon="146.08579493"><ele>178.000</ele></trkpt>
    <trkpt lat="-36.51791527" lon="146.08575071"><ele>178.000</ele></trkpt>
    <trkpt lat="-36.51791858" lon="146.08572420"><ele>178.000</ele></trkpt>
    <trkpt lat="-36.51794124" lon="146.08558052"><ele>179.000</ele></trkpt>
    <trkpt lat="-36.51795175" lon="146.08548036"><ele>179.000</ele></trkpt>
    <trkpt lat="-36.51795496" lon="146.08541079"><ele>180.000</ele></trkpt>
    <trkpt lat="-36.51795484" lon="146.08536166"><ele>180.000</ele></trkpt>
    <trkpt lat="-36.51794821" lon="146.08531500"><ele>180.000</ele></trkpt>
    <trkpt lat="-36.51793916" lon="146.08527596"><ele>180.000</ele></trkpt>
    <trkpt lat="-36.51793796" lon="146.08527495"><ele>180.000</ele></trkpt>
    <trkpt lat="-36.51792594" lon="146.08523178"><ele>180.000</ele></trkpt>
    <trkpt lat="-36.51790598" lon="146.08517097"><ele>180.000</ele></trkpt>
    <trkpt lat="-36.51789102" lon="146.08513917"><ele>180.000</ele></trkpt>
    <trkpt lat="-36.51786734" lon="146.08508750"><ele>180.000</ele></trkpt>
    <trkpt lat="-36.51784118" lon="146.08503923"><ele>180.000</ele></trkpt>
    <trkpt lat="-36.51781399" lon="146.08499174"><ele>180.000</ele></trkpt>
    <trkpt lat="-36.51778164" lon="146.08494207"><ele>180.000</ele></trkpt>
    <trkpt lat="-36.51775603" lon="146.08490827"><ele>180.000</ele></trkpt>
    <trkpt lat="-36.51773263" lon="146.08488108"><ele>180.000</ele></trkpt>
    <trkpt lat="-36.51770358" lon="146.08485185"><ele>180.000</ele></trkpt>
    <trkpt lat="-36.51748329" lon="146.08465083"><ele>180.000</ele></trkpt>
    <trkpt lat="-36.51710363" lon="146.08431054"><ele>183.000</ele></trkpt>
    <trkpt lat="-36.51676321" lon="146.08400464"><ele>184.000</ele></trkpt>
    <trkpt lat="-36.51651181" lon="146.08377726"><ele>184.000</ele></trkpt>
    <trkpt lat="-36.51616439" lon="146.08345486"><ele>182.000</ele></trkpt>
    <trkpt lat="-36.51597996" lon="146.08329295"><ele>181.000</ele></trkpt>
    <trkpt lat="-36.51594965" lon="146.08327140"><ele>181.000</ele></trkpt>
    <trkpt lat="-36.51591534" lon="146.08324761"><ele>180.000</ele></trkpt>
    <trkpt lat="-36.51588451" lon="146.08323054"><ele>180.000</ele></trkpt>
    <trkpt lat="-36.51585624" lon="146.08321946"><ele>180.000</ele></trkpt>
    <trkpt lat="-36.51582215" lon="146.08321259"><ele>180.000</ele></trkpt>
    <trkpt lat="-36.51579116" lon="146.08320816"><ele>180.000</ele></trkpt>
    <trkpt lat="-36.51575352" lon="146.08320932"><ele>180.000</ele></trkpt>
    <trkpt lat="-36.51572302" lon="146.08321657"><ele>180.000</ele></trkpt>
    <trkpt lat="-36.51568148" lon="146.08322726"><ele>180.000</ele></trkpt>
    <trkpt lat="-36.51564199" lon="146.08324039"><ele>180.000</ele></trkpt>
    <trkpt lat="-36.51561307" lon="146.08325065"><ele>180.000</ele></trkpt>
    <trkpt lat="-36.51558963" lon="146.08326397"><ele>180.000</ele></trkpt>
    <trkpt lat="-36.51556479" lon="146.08327996"><ele>180.000</ele></trkpt>
    <trkpt lat="-36.51553076" lon="146.08330514"><ele>180.000</ele></trkpt>
    <trkpt lat="-36.51550921" lon="146.08332603"><ele>180.000</ele></trkpt>
    <trkpt lat="-36.51548987" lon="146.08334601"><ele>180.000</ele></trkpt>
    <trkpt lat="-36.51547361" lon="146.08336599"><ele>180.000</ele></trkpt>
    <trkpt lat="-36.51545538" lon="146.08338953"><ele>179.000</ele></trkpt>
    <trkpt lat="-36.51543568" lon="146.08341901"><ele>179.000</ele></trkpt>
    <trkpt lat="-36.51541846" lon="146.08345128"><ele>179.000</ele></trkpt>
    <trkpt lat="-36.51540234" lon="146.08349110"><ele>179.000</ele></trkpt>
    <trkpt lat="-36.51532124" lon="146.08371654"><ele>178.000</ele></trkpt>
    <trkpt lat="-36.51524918" lon="146.08395855"><ele>177.000</ele></trkpt>
    <trkpt lat="-36.51518518" lon="146.08416207"><ele>177.000</ele></trkpt>
    <trkpt lat="-36.51510759" lon="146.08438113"><ele>178.000</ele></trkpt>
    <trkpt lat="-36.51505879" lon="146.08451775"><ele>178.000</ele></trkpt>
    <trkpt lat="-36.51504400" lon="146.08456896"><ele>178.000</ele></trkpt>
    <trkpt lat="-36.51503754" lon="146.08459609"><ele>178.000</ele></trkpt>
    <trkpt lat="-36.51503419" lon="146.08462092"><ele>179.000</ele></trkpt>
    <trkpt lat="-36.51503031" lon="146.08465488"><ele>179.000</ele></trkpt>
    <trkpt lat="-36.51502579" lon="146.08469323"><ele>179.000</ele></trkpt>
    <trkpt lat="-36.51502685" lon="146.08474207"><ele>179.000</ele></trkpt>
    <trkpt lat="-36.51503013" lon="146.08478030"><ele>179.000</ele></trkpt>
    <trkpt lat="-36.51503368" lon="146.08480801"><ele>179.000</ele></trkpt>
    <trkpt lat="-36.51504132" lon="146.08484115"><ele>179.000</ele></trkpt>
    <trkpt lat="-36.51504956" lon="146.08486912"><ele>179.000</ele></trkpt>
    <trkpt lat="-36.51505582" lon="146.08489357"><ele>179.000</ele></trkpt>
    <trkpt lat="-36.51506856" lon="146.08493190"><ele>179.000</ele></trkpt>
    <trkpt lat="-36.51508377" lon="146.08496657"><ele>179.000</ele></trkpt>
    <trkpt lat="-36.51510434" lon="146.08500266"><ele>179.000</ele></trkpt>
    <trkpt lat="-36.51512260" lon="146.08503034"><ele>179.000</ele></trkpt>
    <trkpt lat="-36.51514191" lon="146.08505448"><ele>179.000</ele></trkpt>
    <trkpt lat="-36.51521465" lon="146.08513447"><ele>179.000</ele></trkpt>
    <trkpt lat="-36.51529756" lon="146.08521256"><ele>179.000</ele></trkpt>
    <trkpt lat="-36.51540563" lon="146.08530134"><ele>179.000</ele></trkpt>
    <trkpt lat="-36.51561919" lon="146.08547319"><ele>179.000</ele></trkpt>
    <trkpt lat="-36.51585389" lon="146.08565813"><ele>177.000</ele></trkpt>
    <trkpt lat="-36.51616930" lon="146.08591882"><ele>175.000</ele></trkpt>
    <trkpt lat="-36.51634560" lon="146.08606701"><ele>177.000</ele></trkpt>
    <trkpt lat="-36.51639146" lon="146.08610775"><ele>177.000</ele></trkpt>
    <trkpt lat="-36.51642870" lon="146.08614110"><ele>178.000</ele></trkpt>
    <trkpt lat="-36.51646182" lon="146.08617101"><ele>178.000</ele></trkpt>
    <trkpt lat="-36.51649768" lon="146.08620310"><ele>179.000</ele></trkpt>
    <trkpt lat="-36.51654565" lon="146.08624373"><ele>179.000</ele></trkpt>
    <trkpt lat="-36.51658241" lon="146.08628038"><ele>180.000</ele></trkpt>
    <trkpt lat="-36.51660719" lon="146.08630245"><ele>180.000</ele></trkpt>
    <trkpt lat="-36.51664267" lon="146.08633486"><ele>181.000</ele></trkpt>
    <trkpt lat="-36.51668548" lon="146.08637895"><ele>181.000</ele></trkpt>
    <trkpt lat="-36.51674322" lon="146.08644217"><ele>181.000</ele></trkpt>
    <trkpt lat="-36.51676597" lon="146.08647103"><ele>181.000</ele></trkpt>
    <trkpt lat="-36.51678265" lon="146.08649473"><ele>181.000</ele></trkpt>
    <trkpt lat="-36.51681661" lon="146.08654074"><ele>181.000</ele></trkpt>
    <trkpt lat="-36.51683894" lon="146.08657836"><ele>181.000</ele></trkpt>
    <trkpt lat="-36.51686836" lon="146.08663013"><ele>181.000</ele></trkpt>
    <trkpt lat="-36.51689138" lon="146.08668128"><ele>181.000</ele></trkpt>
    <trkpt lat="-36.51691005" lon="146.08671755"><ele>181.000</ele></trkpt>
    <trkpt lat="-36.51692486" lon="146.08674891"><ele>181.000</ele></trkpt>
    <trkpt lat="-36.51694195" lon="146.08678730"><ele>181.000</ele></trkpt>
    <trkpt lat="-36.51695679" lon="146.08683003"><ele>181.000</ele></trkpt>
    <trkpt lat="-36.51696974" lon="146.08686905"><ele>181.000</ele></trkpt>
    <trkpt lat="-36.51697756" lon="146.08690253"><ele>181.000</ele></trkpt>
    <trkpt lat="-36.51698926" lon="146.08695577"><ele>181.000</ele></trkpt>
    <trkpt lat="-36.51700022" lon="146.08701494"><ele>181.000</ele></trkpt>
    <trkpt lat="-36.51701051" lon="146.08710266"><ele>181.000</ele></trkpt>
    <trkpt lat="-36.51701427" lon="146.08716027"><ele>181.000</ele></trkpt>
    <trkpt lat="-36.51701806" lon="146.08722406"><ele>181.000</ele></trkpt>
    <trkpt lat="-36.51701672" lon="146.08725901"><ele>181.000</ele></trkpt>
    <trkpt lat="-36.51701614" lon="146.08729254"><ele>181.000</ele></trkpt>
    <trkpt lat="-36.51701347" lon="146.08731415"><ele>181.000</ele></trkpt>
    <trkpt lat="-36.51700955" lon="146.08734856"><ele>181.000</ele></trkpt>
    <trkpt lat="-36.51700158" lon="146.08740930"><ele>181.000</ele></trkpt>
    <trkpt lat="-36.51699102" lon="146.08747031"><ele>182.000</ele></trkpt>
    <trkpt lat="-36.51698033" lon="146.08753335"><ele>182.000</ele></trkpt>
    <trkpt lat="-36.51696116" lon="146.08762250"><ele>181.000</ele></trkpt>
    <trkpt lat="-36.51692116" lon="146.08775615"><ele>181.000</ele></trkpt>
    <trkpt lat="-36.51688674" lon="146.08785171"><ele>181.000</ele></trkpt>
    <trkpt lat="-36.51686278" lon="146.08790830"><ele>181.000</ele></trkpt>
    <trkpt lat="-36.51684510" lon="146.08794936"><ele>181.000</ele></trkpt>
    <trkpt lat="-36.51681118" lon="146.08801604"><ele>181.000</ele></trkpt>
    <trkpt lat="-36.51677720" lon="146.08807386"><ele>181.000</ele></trkpt>
    <trkpt lat="-36.51674639" lon="146.08812074"><ele>181.000</ele></trkpt>
    <trkpt lat="-36.51672714" lon="146.08815157"><ele>181.000</ele></trkpt>
    <trkpt lat="-36.51670183" lon="146.08818451"><ele>181.000</ele></trkpt>
    <trkpt lat="-36.51667611" lon="146.08821511"><ele>181.000</ele></trkpt>
    <trkpt lat="-36.51664736" lon="146.08824772"><ele>181.000</ele></trkpt>
    <trkpt lat="-36.51662293" lon="146.08827086"><ele>181.000</ele></trkpt>
    <trkpt lat="-36.51659605" lon="146.08829328"><ele>181.000</ele></trkpt>
    <trkpt lat="-36.51656362" lon="146.08831516"><ele>181.000</ele></trkpt>
    <trkpt lat="-36.51653201" lon="146.08833109"><ele>181.000</ele></trkpt>
    <trkpt lat="-36.51648503" lon="146.08835621"><ele>181.000</ele></trkpt>
    <trkpt lat="-36.51644418" lon="146.08837065"><ele>181.000</ele></trkpt>
    <trkpt lat="-36.51639872" lon="146.08838282"><ele>181.000</ele></trkpt>
    <trkpt lat="-36.51635643" lon="146.08839067"><ele>181.000</ele></trkpt>
    <trkpt lat="-36.51632087" lon="146.08839619"><ele>181.000</ele></trkpt>
    <trkpt lat="-36.51625871" lon="146.08840479"><ele>181.000</ele></trkpt>
    <trkpt lat="-36.51618059" lon="146.08841792"><ele>180.000</ele></trkpt>
    <trkpt lat="-36.51613224" lon="146.08842776"><ele>180.000</ele></trkpt>
    <trkpt lat="-36.51608201" lon="146.08844258"><ele>180.000</ele></trkpt>
    <trkpt lat="-36.51603951" lon="146.08846127"><ele>180.000</ele></trkpt>
    <trkpt lat="-36.51599424" lon="146.08848018"><ele>181.000</ele></trkpt>
    <trkpt lat="-36.51594768" lon="146.08850484"><ele>181.000</ele></trkpt>
    <trkpt lat="-36.51591182" lon="146.08852699"><ele>181.000</ele></trkpt>
    <trkpt lat="-36.51587696" lon="146.08855423"><ele>181.000</ele></trkpt>
    <trkpt lat="-36.51584709" lon="146.08857991"><ele>181.000</ele></trkpt>
    <trkpt lat="-36.51582358" lon="146.08860553"><ele>181.000</ele></trkpt>
    <trkpt lat="-36.51579188" lon="146.08864599"><ele>181.000</ele></trkpt>
    <trkpt lat="-36.51575715" lon="146.08869295"><ele>181.000</ele></trkpt>
    <trkpt lat="-36.51570372" lon="146.08877915"><ele>181.000</ele></trkpt>
    <trkpt lat="-36.51560384" lon="146.08896229"><ele>181.000</ele></trkpt>
    <trkpt lat="-36.51549974" lon="146.08916644"><ele>182.000</ele></trkpt>
    <trkpt lat="-36.51540303" lon="146.08937466"><ele>182.000</ele></trkpt>
    <trkpt lat="-36.51537724" lon="146.08943832"><ele>182.000</ele></trkpt>
    <trkpt lat="-36.51536464" lon="146.08948146"><ele>182.000</ele></trkpt>
    <trkpt lat="-36.51535056" lon="146.08954064"><ele>183.000</ele></trkpt>
    <trkpt lat="-36.51534574" lon="146.08958575"><ele>183.000</ele></trkpt>
    <trkpt lat="-36.51534478" lon="146.08961456"><ele>183.000</ele></trkpt>
    <trkpt lat="-36.51534329" lon="146.08963857"><ele>183.000</ele></trkpt>
    <trkpt lat="-36.51534260" lon="146.08966829"><ele>183.000</ele></trkpt>
    <trkpt lat="-36.51534647" lon="146.08970215"><ele>184.000</ele></trkpt>
    <trkpt lat="-36.51535395" lon="146.08974630"><ele>184.000</ele></trkpt>
    <trkpt lat="-36.51536117" lon="146.08977788"><ele>184.000</ele></trkpt>
    <trkpt lat="-36.51537038" lon="146.08980345"><ele>184.000</ele></trkpt>
    <trkpt lat="-36.51537981" lon="146.08982495"><ele>184.000</ele></trkpt>
    <trkpt lat="-36.51539030" lon="146.08984195"><ele>184.000</ele></trkpt>
    <trkpt lat="-36.51540603" lon="146.08986350"><ele>184.000</ele></trkpt>
    <trkpt lat="-36.51542210" lon="146.08988307"><ele>184.000</ele></trkpt>
    <trkpt lat="-36.51543860" lon="146.08990125"><ele>184.000</ele></trkpt>
    <trkpt lat="-36.51546575" lon="146.08992321"><ele>184.000</ele></trkpt>
    <trkpt lat="-36.51548579" lon="146.08993691"><ele>184.000</ele></trkpt>
    <trkpt lat="-36.51550702" lon="146.08994737"><ele>184.000</ele></trkpt>
    <trkpt lat="-36.51553650" lon="146.08995877"><ele>184.000</ele></trkpt>
    <trkpt lat="-36.51557507" lon="146.08996743"><ele>184.000</ele></trkpt>
    <trkpt lat="-36.51561028" lon="146.08996957"><ele>184.000</ele></trkpt>
    <trkpt lat="-36.51564205" lon="146.08996498"><ele>184.000</ele></trkpt>
    <trkpt lat="-36.51566993" lon="146.08996034"><ele>183.000</ele></trkpt>
    <trkpt lat="-36.51570075" lon="146.08994648"><ele>183.000</ele></trkpt>
    <trkpt lat="-36.51574429" lon="146.08992319"><ele>183.000</ele></trkpt>
    <trkpt lat="-36.51578526" lon="146.08989381"><ele>183.000</ele></trkpt>
    <trkpt lat="-36.51589931" lon="146.08981532"><ele>182.000</ele></trkpt>
    <trkpt lat="-36.51616640" lon="146.08960512"><ele>182.000</ele></trkpt>
    <trkpt lat="-36.51623623" lon="146.08955697"><ele>182.000</ele></trkpt>
    <trkpt lat="-36.51627420" lon="146.08953639"><ele>182.000</ele></trkpt>
    <trkpt lat="-36.51631119" lon="146.08951545"><ele>183.000</ele></trkpt>
    <trkpt lat="-36.51633933" lon="146.08950305"><ele>183.000</ele></trkpt>
    <trkpt lat="-36.51636774" lon="146.08949417"><ele>183.000</ele></trkpt>
    <trkpt lat="-36.51641483" lon="146.08948244"><ele>183.000</ele></trkpt>
    <trkpt lat="-36.51645474" lon="146.08947736"><ele>183.000</ele></trkpt>
    <trkpt lat="-36.51648068" lon="146.08947778"><ele>183.000</ele></trkpt>
    <trkpt lat="-36.51651135" lon="146.08948041"><ele>183.000</ele></trkpt>
    <trkpt lat="-36.51653594" lon="146.08948704"><ele>183.000</ele></trkpt>
    <trkpt lat="-36.51656237" lon="146.08949325"><ele>183.000</ele></trkpt>
    <trkpt lat="-36.51659015" lon="146.08950651"><ele>184.000</ele></trkpt>
    <trkpt lat="-36.51661677" lon="146.08952086"><ele>184.000</ele></trkpt>
    <trkpt lat="-36.51664230" lon="146.08953758"><ele>184.000</ele></trkpt>
    <trkpt lat="-36.51666913" lon="146.08955967"><ele>184.000</ele></trkpt>
    <trkpt lat="-36.51668963" lon="146.08957895"><ele>183.000</ele></trkpt>
    <trkpt lat="-36.51671526" lon="146.08960849"><ele>183.000</ele></trkpt>
    <trkpt lat="-36.51673426" lon="146.08963345"><ele>183.000</ele></trkpt>
    <trkpt lat="-36.51675498" lon="146.08966700"><ele>182.000</ele></trkpt>
    <trkpt lat="-36.51677309" lon="146.08970586"><ele>182.000</ele></trkpt>
    <trkpt lat="-36.51678495" lon="146.08973670"><ele>182.000</ele></trkpt>
    <trkpt lat="-36.51679479" lon="146.08977087"><ele>182.000</ele></trkpt>
    <trkpt lat="-36.51680723" lon="146.08983793"><ele>182.000</ele></trkpt>
    <trkpt lat="-36.51680816" lon="146.08989143"><ele>181.000</ele></trkpt>
    <trkpt lat="-36.51680425" lon="146.08993801"><ele>181.000</ele></trkpt>
    <trkpt lat="-36.51679499" lon="146.08999011"><ele>181.000</ele></trkpt>
    <trkpt lat="-36.51677760" lon="146.09004581"><ele>181.000</ele></trkpt>
    <trkpt lat="-36.51676296" lon="146.09008235"><ele>181.000</ele></trkpt>
    <trkpt lat="-36.51669097" lon="146.09020326"><ele>181.000</ele></trkpt>
    <trkpt lat="-36.51661832" lon="146.09032465"><ele>182.000</ele></trkpt>
    <trkpt lat="-36.51659347" lon="146.09037122"><ele>182.000</ele></trkpt>
    <trkpt lat="-36.51657048" lon="146.09042698"><ele>183.000</ele></trkpt>
    <trkpt lat="-36.51655306" lon="146.09048460"><ele>183.000</ele></trkpt>
    <trkpt lat="-36.51654136" lon="146.09054084"><ele>184.000</ele></trkpt>
    <trkpt lat="-36.51653236" lon="146.09058728"><ele>184.000</ele></trkpt>
    <trkpt lat="-36.51652815" lon="146.09063856"><ele>184.000</ele></trkpt>
    <trkpt lat="-36.51652931" lon="146.09070582"><ele>184.000</ele></trkpt>
    <trkpt lat="-36.51653454" lon="146.09076137"><ele>184.000</ele></trkpt>
    <trkpt lat="-36.51654276" lon="146.09080698"><ele>184.000</ele></trkpt>
    <trkpt lat="-36.51655992" lon="146.09085873"><ele>184.000</ele></trkpt>
    <trkpt lat="-36.51658133" lon="146.09090009"><ele>185.000</ele></trkpt>
    <trkpt lat="-36.51661800" lon="146.09095344"><ele>185.000</ele></trkpt>
    <trkpt lat="-36.51663973" lon="146.09097456"><ele>185.000</ele></trkpt>
    <trkpt lat="-36.51666428" lon="146.09099365"><ele>185.000</ele></trkpt>
    <trkpt lat="-36.51670738" lon="146.09101773"><ele>184.000</ele></trkpt>
    <trkpt lat="-36.51676782" lon="146.09103782"><ele>184.000</ele></trkpt>
    <trkpt lat="-36.51681851" lon="146.09104178"><ele>184.000</ele></trkpt>
    <trkpt lat="-36.51685542" lon="146.09103747"><ele>183.000</ele></trkpt>
    <trkpt lat="-36.51688991" lon="146.09102562"><ele>183.000</ele></trkpt>
    <trkpt lat="-36.51692187" lon="146.09101206"><ele>182.000</ele></trkpt>
    <trkpt lat="-36.51695770" lon="146.09098893"><ele>182.000</ele></trkpt>
    <trkpt lat="-36.51698986" lon="146.09096409"><ele>182.000</ele></trkpt>
    <trkpt lat="-36.51702108" lon="146.09093596"><ele>181.000</ele></trkpt>
    <trkpt lat="-36.51704325" lon="146.09091093"><ele>181.000</ele></trkpt>
    <trkpt lat="-36.51706646" lon="146.09088449"><ele>181.000</ele></trkpt>
    <trkpt lat="-36.51708301" lon="146.09085763"><ele>181.000</ele></trkpt>
    <trkpt lat="-36.51709813" lon="146.09083361"><ele>180.000</ele></trkpt>
    <trkpt lat="-36.51719261" lon="146.09061965"><ele>179.000</ele></trkpt>
    <trkpt lat="-36.51731092" lon="146.09031387"><ele>180.000</ele></trkpt>
    <trkpt lat="-36.51738790" lon="146.09010916"><ele>181.000</ele></trkpt>
    <trkpt lat="-36.51753012" lon="146.08975713"><ele>181.000</ele></trkpt>
    <trkpt lat="-36.51775319" lon="146.08921537"><ele>179.000</ele></trkpt>
    <trkpt lat="-36.51798684" lon="146.08863931"><ele>180.000</ele></trkpt>
    <trkpt lat="-36.51823367" lon="146.08804321"><ele>180.000</ele></trkpt>
    <trkpt lat="-36.51831464" lon="146.08785287"><ele>179.000</ele></trkpt>
    <trkpt lat="-36.51835200" lon="146.08779939"><ele>179.000</ele></trkpt>
    <trkpt lat="-36.51837702" lon="146.08777926"><ele>179.000</ele></trkpt>
    <trkpt lat="-36.51839948" lon="146.08776493"><ele>179.000</ele></trkpt>
    <trkpt lat="-36.51842106" lon="146.08775651"><ele>179.000</ele></trkpt>
    <trkpt lat="-36.51844910" lon="146.08775066"><ele>179.000</ele></trkpt>
    <trkpt lat="-36.51847227" lon="146.08774751"><ele>179.000</ele></trkpt>
    <trkpt lat="-36.51850168" lon="146.08774520"><ele>179.000</ele></trkpt>
    <trkpt lat="-36.51852505" lon="146.08775086"><ele>179.000</ele></trkpt>
    <trkpt lat="-36.51855123" lon="146.08775759"><ele>179.000</ele></trkpt>
    <trkpt lat="-36.51857531" lon="146.08777280"><ele>179.000</ele></trkpt>
    <trkpt lat="-36.51861545" lon="146.08780671"><ele>179.000</ele></trkpt>
    <trkpt lat="-36.51863953" lon="146.08783593"><ele>179.000</ele></trkpt>
    <trkpt lat="-36.51879821" lon="146.08803906"><ele>179.000</ele></trkpt>
    <trkpt lat="-36.51907774" lon="146.08839667"><ele>178.000</ele></trkpt>
    <trkpt lat="-36.51946410" lon="146.08889115"><ele>177.000</ele></trkpt>
    <trkpt lat="-36.51970598" lon="146.08919760"><ele>176.000</ele></trkpt>
    <trkpt lat="-36.51986050" lon="146.08939784"><ele>177.000</ele></trkpt>
    <trkpt lat="-36.51998151" lon="146.08955942"><ele>179.000</ele></trkpt>
    <trkpt lat="-36.52025651" lon="146.08991602"><ele>180.000</ele></trkpt>
    <trkpt lat="-36.52040850" lon="146.09011252"><ele>182.000</ele></trkpt>
    <trkpt lat="-36.52059193" lon="146.09034777"><ele>182.000</ele></trkpt>
    <trkpt lat="-36.52075680" lon="146.09055765"><ele>181.000</ele></trkpt>
    <trkpt lat="-36.52101111" lon="146.09087635"><ele>181.000</ele></trkpt>
    <trkpt lat="-36.52108991" lon="146.09097369"><ele>181.000</ele></trkpt>
    <trkpt lat="-36.52111984" lon="146.09100819"><ele>181.000</ele></trkpt>
    <trkpt lat="-36.52115039" lon="146.09103414"><ele>181.000</ele></trkpt>
    <trkpt lat="-36.52117838" lon="146.09104913"><ele>181.000</ele></trkpt>
    <trkpt lat="-36.52120682" lon="146.09106057"><ele>181.000</ele></trkpt>
    <trkpt lat="-36.52123773" lon="146.09107183"><ele>181.000</ele></trkpt>
    <trkpt lat="-36.52127583" lon="146.09107912"><ele>181.000</ele></trkpt>
    <trkpt lat="-36.52131313" lon="146.09107942"><ele>181.000</ele></trkpt>
    <trkpt lat="-36.52134394" lon="146.09107272"><ele>181.000</ele></trkpt>
    <trkpt lat="-36.52137514" lon="146.09106595"><ele>181.000</ele></trkpt>
    <trkpt lat="-36.52139740" lon="146.09105147"><ele>181.000</ele></trkpt>
    <trkpt lat="-36.52145652" lon="146.09101051"><ele>181.000</ele></trkpt>
    <trkpt lat="-36.52149015" lon="146.09097993"><ele>181.000</ele></trkpt>
    <trkpt lat="-36.52152022" lon="146.09094297"><ele>180.000</ele></trkpt>
    <trkpt lat="-36.52156202" lon="146.09088852"><ele>180.000</ele></trkpt>
    <trkpt lat="-36.52169870" lon="146.09067533"><ele>179.000</ele></trkpt>
    <trkpt lat="-36.52192107" lon="146.09031653"><ele>177.000</ele></trkpt>
    <trkpt lat="-36.52194561" lon="146.09027359"><ele>177.000</ele></trkpt>
    <trkpt lat="-36.52195759" lon="146.09024748"><ele>177.000</ele></trkpt>
    <trkpt lat="-36.52196741" lon="146.09022416"><ele>177.000</ele></trkpt>
    <trkpt lat="-36.52197639" lon="146.09019473"><ele>177.000</ele></trkpt>
    <trkpt lat="-36.52198118" lon="146.09017700"><ele>177.000</ele></trkpt>
    <trkpt lat="-36.52198582" lon="146.09015059"><ele>177.000</ele></trkpt>
    <trkpt lat="-36.52199074" lon="146.09012222"><ele>177.000</ele></trkpt>
    <trkpt lat="-36.52199270" lon="146.09009411"><ele>177.000</ele></trkpt>
    <trkpt lat="-36.52199207" lon="146.09005688"><ele>177.000</ele></trkpt>
    <trkpt lat="-36.52198668" lon="146.09001777"><ele>177.000</ele></trkpt>
    <trkpt lat="-36.52198236" lon="146.08999224"><ele>177.000</ele></trkpt>
    <trkpt lat="-36.52197439" lon="146.08996619"><ele>177.000</ele></trkpt>
    <trkpt lat="-36.52196464" lon="146.08994108"><ele>177.000</ele></trkpt>
    <trkpt lat="-36.52195127" lon="146.08991170"><ele>177.000</ele></trkpt>
    <trkpt lat="-36.52193980" lon="146.08989080"><ele>177.000</ele></trkpt>
    <trkpt lat="-36.52192581" lon="146.08986943"><ele>178.000</ele></trkpt>
    <trkpt lat="-36.52190901" lon="146.08984368"><ele>178.000</ele></trkpt>
    <trkpt lat="-36.52187728" lon="146.08980747"><ele>178.000</ele></trkpt>
    <trkpt lat="-36.52185254" lon="146.08978146"><ele>178.000</ele></trkpt>
    <trkpt lat="-36.52160120" lon="146.08954705"><ele>179.000</ele></trkpt>
    <trkpt lat="-36.52118288" lon="146.08914459"><ele>178.000</ele></trkpt>
    <trkpt lat="-36.52080186" lon="146.08877906"><ele>177.000</ele></trkpt>
    <trkpt lat="-36.52044078" lon="146.08843826"><ele>178.000</ele></trkpt>
    <trkpt lat="-36.51989969" lon="146.08792261"><ele>177.000</ele></trkpt>
    <trkpt lat="-36.51979878" lon="146.08782504"><ele>176.000</ele></trkpt>
    <trkpt lat="-36.51978301" lon="146.08781021"><ele>176.000</ele></trkpt>
  </trkseg></trk>
</gpx>
