<?xml version="1.0" encoding="UTF-8"?>
<gpx version="1.1" creator="Grok Bot from OpenStreetMap" xmlns="http://www.topografix.com/GPX/1/1">
  <metadata>
    <name>Cadwell Park Full Circuit</name>
    <desc>Approximate racing line from OpenStreetMap highway=raceway ways near Cadwell Park, Lincolnshire. Source: OSM contributors (ODbL). Not an official MSV survey.</desc>
    <link href="https://www.openstreetmap.org/#map=16/53.3089/-0.0631"/>
  </metadata>
  <trk>
    <name>Cadwell Park Full Circuit</name>
    <trkseg>
      <trkpt lat="53.3052959" lon="-0.0629886"></trkpt>
      <trkpt lat="53.3053565" lon="-0.0631233"></trkpt>
      <trkpt lat="53.3055317" lon="-0.0634797"></trkpt>
      <trkpt lat="53.3057273" lon="-0.0638390"></trkpt>
      <trkpt lat="53.3058818" lon="-0.0641085"></trkpt>
      <trkpt lat="53.3060215" lon="-0.0643523"></trkpt>
      <trkpt lat="53.3063199" lon="-0.0648426"></trkpt>
      <trkpt lat="53.3065108" lon="-0.0651700"></trkpt>
      <trkpt lat="53.3066384" lon="-0.0653875"></trkpt>
      <trkpt lat="53.3067802" lon="-0.0656567"></trkpt>
      <trkpt lat="53.3068900" lon="-0.0658783"></trkpt>
      <trkpt lat="53.3070714" lon="-0.0662704"></trkpt>
      <trkpt lat="53.3072378" lon="-0.0666466"></trkpt>
      <trkpt lat="53.3073380" lon="-0.0668789"></trkpt>
      <trkpt lat="53.3074783" lon="-0.0672294"></trkpt>
      <trkpt lat="53.3076805" lon="-0.0677938"></trkpt>
      <trkpt lat="53.3079779" lon="-0.0686389"></trkpt>
      <trkpt lat="53.3082547" lon="-0.0694321"></trkpt>
      <trkpt lat="53.3083768" lon="-0.0697724"></trkpt>
      <trkpt lat="53.3084467" lon="-0.0699670"></trkpt>
      <trkpt lat="53.3084794" lon="-0.0700338"></trkpt>
      <trkpt lat="53.3085295" lon="-0.0701018"></trkpt>
      <trkpt lat="53.3085875" lon="-0.0701594"></trkpt>
      <trkpt lat="53.3086494" lon="-0.0701864"></trkpt>
      <trkpt lat="53.3087260" lon="-0.0701925"></trkpt>
      <trkpt lat="53.3087924" lon="-0.0701779"></trkpt>
      <trkpt lat="53.3088981" lon="-0.0701244"></trkpt>
      <trkpt lat="53.3090609" lon="-0.0700123"></trkpt>
      <trkpt lat="53.3093067" lon="-0.0698248"></trkpt>
      <trkpt lat="53.3093369" lon="-0.0698018"></trkpt>
      <trkpt lat="53.3095180" lon="-0.0696541"></trkpt>
      <trkpt lat="53.3096368" lon="-0.0695297"></trkpt>
      <trkpt lat="53.3096946" lon="-0.0694465"></trkpt>
      <trkpt lat="53.3097491" lon="-0.0693405"></trkpt>
      <trkpt lat="53.3097980" lon="-0.0691869"></trkpt>
      <trkpt lat="53.3098479" lon="-0.0689866"></trkpt>
      <trkpt lat="53.3098800" lon="-0.0687872"></trkpt>
      <trkpt lat="53.3098960" lon="-0.0685997"></trkpt>
      <trkpt lat="53.3098983" lon="-0.0683588"></trkpt>
      <trkpt lat="53.3098831" lon="-0.0681694"></trkpt>
      <trkpt lat="53.3098469" lon="-0.0679404"></trkpt>
      <trkpt lat="53.3097920" lon="-0.0676980"></trkpt>
      <trkpt lat="53.3097324" lon="-0.0674845"></trkpt>
      <trkpt lat="53.3096741" lon="-0.0673227"></trkpt>
      <trkpt lat="53.3096174" lon="-0.0671942"></trkpt>
      <trkpt lat="53.3095503" lon="-0.0670426"></trkpt>
      <trkpt lat="53.3094169" lon="-0.0667837"></trkpt>
      <trkpt lat="53.3093103" lon="-0.0665700"></trkpt>
      <trkpt lat="53.3092061" lon="-0.0663956"></trkpt>
      <trkpt lat="53.3090529" lon="-0.0661912"></trkpt>
      <trkpt lat="53.3089420" lon="-0.0660601"></trkpt>
      <trkpt lat="53.3087861" lon="-0.0659075"></trkpt>
      <trkpt lat="53.3086849" lon="-0.0658196"></trkpt>
      <trkpt lat="53.3085852" lon="-0.0657533"></trkpt>
      <trkpt lat="53.3084964" lon="-0.0657178"></trkpt>
      <trkpt lat="53.3084140" lon="-0.0656961"></trkpt>
      <trkpt lat="53.3083329" lon="-0.0656885"></trkpt>
      <trkpt lat="53.3082409" lon="-0.0657037"></trkpt>
      <trkpt lat="53.3081616" lon="-0.0657327"></trkpt>
      <trkpt lat="53.3080073" lon="-0.0658193"></trkpt>
      <trkpt lat="53.3079038" lon="-0.0658701"></trkpt>
      <trkpt lat="53.3078240" lon="-0.0658872"></trkpt>
      <trkpt lat="53.3077427" lon="-0.0658753"></trkpt>
      <trkpt lat="53.3076528" lon="-0.0658344"></trkpt>
      <trkpt lat="53.3075692" lon="-0.0657618"></trkpt>
      <trkpt lat="53.3074738" lon="-0.0656505"></trkpt>
      <trkpt lat="53.3071462" lon="-0.0652598"></trkpt>
      <trkpt lat="53.3070412" lon="-0.0651314"></trkpt>
      <trkpt lat="53.3067816" lon="-0.0648134"></trkpt>
      <trkpt lat="53.3065189" lon="-0.0644917"></trkpt>
      <trkpt lat="53.3064349" lon="-0.0643755"></trkpt>
      <trkpt lat="53.3063758" lon="-0.0642752"></trkpt>
      <trkpt lat="53.3063151" lon="-0.0641420"></trkpt>
      <trkpt lat="53.3063076" lon="-0.0641003"></trkpt>
      <trkpt lat="53.3062985" lon="-0.0640496"></trkpt>
      <trkpt lat="53.3062953" lon="-0.0639440"></trkpt>
      <trkpt lat="53.3063143" lon="-0.0638054"></trkpt>
      <trkpt lat="53.3063498" lon="-0.0636866"></trkpt>
      <trkpt lat="53.3064168" lon="-0.0635559"></trkpt>
      <trkpt lat="53.3065241" lon="-0.0634213"></trkpt>
      <trkpt lat="53.3066327" lon="-0.0632992"></trkpt>
      <trkpt lat="53.3068049" lon="-0.0631058"></trkpt>
      <trkpt lat="53.3069437" lon="-0.0629302"></trkpt>
      <trkpt lat="53.3070439" lon="-0.0627890"></trkpt>
      <trkpt lat="53.3071117" lon="-0.0626675"></trkpt>
      <trkpt lat="53.3074115" lon="-0.0621263"></trkpt>
      <trkpt lat="53.3074566" lon="-0.0620432"></trkpt>
      <trkpt lat="53.3076260" lon="-0.0617317"></trkpt>
      <trkpt lat="53.3077144" lon="-0.0615866"></trkpt>
      <trkpt lat="53.3078067" lon="-0.0614549"></trkpt>
      <trkpt lat="53.3079011" lon="-0.0613360"></trkpt>
      <trkpt lat="53.3079668" lon="-0.0612709"></trkpt>
      <trkpt lat="53.3079899" lon="-0.0612481"></trkpt>
      <trkpt lat="53.3080552" lon="-0.0611834"></trkpt>
      <trkpt lat="53.3082455" lon="-0.0610510"></trkpt>
      <trkpt lat="53.3084790" lon="-0.0609039"></trkpt>
      <trkpt lat="53.3089027" lon="-0.0606497"></trkpt>
      <trkpt lat="53.3089488" lon="-0.0606233"></trkpt>
      <trkpt lat="53.3090171" lon="-0.0605915"></trkpt>
      <trkpt lat="53.3090860" lon="-0.0605884"></trkpt>
      <trkpt lat="53.3091609" lon="-0.0606240"></trkpt>
      <trkpt lat="53.3092183" lon="-0.0606814"></trkpt>
      <trkpt lat="53.3092845" lon="-0.0607680"></trkpt>
      <trkpt lat="53.3093351" lon="-0.0608583"></trkpt>
      <trkpt lat="53.3093804" lon="-0.0609674"></trkpt>
      <trkpt lat="53.3094505" lon="-0.0611649"></trkpt>
      <trkpt lat="53.3094851" lon="-0.0612446"></trkpt>
      <trkpt lat="53.3095051" lon="-0.0612609"></trkpt>
      <trkpt lat="53.3095286" lon="-0.0612689"></trkpt>
      <trkpt lat="53.3096481" lon="-0.0612664"></trkpt>
      <trkpt lat="53.3097793" lon="-0.0612709"></trkpt>
      <trkpt lat="53.3098732" lon="-0.0612484"></trkpt>
      <trkpt lat="53.3099710" lon="-0.0612173"></trkpt>
      <trkpt lat="53.3100482" lon="-0.0611879"></trkpt>
      <trkpt lat="53.3101123" lon="-0.0611496"></trkpt>
      <trkpt lat="53.3102715" lon="-0.0610531"></trkpt>
      <trkpt lat="53.3106343" lon="-0.0608313"></trkpt>
      <trkpt lat="53.3109671" lon="-0.0606304"></trkpt>
      <trkpt lat="53.3110968" lon="-0.0605554"></trkpt>
      <trkpt lat="53.3111814" lon="-0.0605011"></trkpt>
      <trkpt lat="53.3112450" lon="-0.0604305"></trkpt>
      <trkpt lat="53.3112911" lon="-0.0603412"></trkpt>
      <trkpt lat="53.3113847" lon="-0.0600964"></trkpt>
      <trkpt lat="53.3114387" lon="-0.0599851"></trkpt>
      <trkpt lat="53.3114963" lon="-0.0598988"></trkpt>
      <trkpt lat="53.3115924" lon="-0.0598135"></trkpt>
      <trkpt lat="53.3116781" lon="-0.0597610"></trkpt>
      <trkpt lat="53.3117643" lon="-0.0597482"></trkpt>
      <trkpt lat="53.3118499" lon="-0.0597496"></trkpt>
      <trkpt lat="53.3119498" lon="-0.0597727"></trkpt>
      <trkpt lat="53.3120653" lon="-0.0598104"></trkpt>
      <trkpt lat="53.3121182" lon="-0.0598115"></trkpt>
      <trkpt lat="53.3121869" lon="-0.0597819"></trkpt>
      <trkpt lat="53.3122377" lon="-0.0597370"></trkpt>
      <trkpt lat="53.3123220" lon="-0.0596473"></trkpt>
      <trkpt lat="53.3124191" lon="-0.0595521"></trkpt>
      <trkpt lat="53.3125287" lon="-0.0594901"></trkpt>
      <trkpt lat="53.3126376" lon="-0.0594652"></trkpt>
      <trkpt lat="53.3127394" lon="-0.0594726"></trkpt>
      <trkpt lat="53.3127973" lon="-0.0594971"></trkpt>
      <trkpt lat="53.3130051" lon="-0.0595488"></trkpt>
      <trkpt lat="53.3130571" lon="-0.0595192"></trkpt>
      <trkpt lat="53.3130840" lon="-0.0594641"></trkpt>
      <trkpt lat="53.3130933" lon="-0.0594132"></trkpt>
      <trkpt lat="53.3131001" lon="-0.0593353"></trkpt>
      <trkpt lat="53.3130171" lon="-0.0587963"></trkpt>
      <trkpt lat="53.3129686" lon="-0.0584817"></trkpt>
      <trkpt lat="53.3129192" lon="-0.0581606"></trkpt>
      <trkpt lat="53.3128819" lon="-0.0579054"></trkpt>
      <trkpt lat="53.3128642" lon="-0.0578337"></trkpt>
      <trkpt lat="53.3128315" lon="-0.0577690"></trkpt>
      <trkpt lat="53.3127765" lon="-0.0577056"></trkpt>
      <trkpt lat="53.3127046" lon="-0.0576498"></trkpt>
      <trkpt lat="53.3126352" lon="-0.0576152"></trkpt>
      <trkpt lat="53.3125590" lon="-0.0575994"></trkpt>
      <trkpt lat="53.3124657" lon="-0.0576192"></trkpt>
      <trkpt lat="53.3123484" lon="-0.0576715"></trkpt>
      <trkpt lat="53.3121494" lon="-0.0578107"></trkpt>
      <trkpt lat="53.3120051" lon="-0.0579295"></trkpt>
      <trkpt lat="53.3119292" lon="-0.0580008"></trkpt>
      <trkpt lat="53.3117774" lon="-0.0581582"></trkpt>
      <trkpt lat="53.3116317" lon="-0.0582868"></trkpt>
      <trkpt lat="53.3115369" lon="-0.0583758"></trkpt>
      <trkpt lat="53.3114057" lon="-0.0584990"></trkpt>
      <trkpt lat="53.3112238" lon="-0.0586711"></trkpt>
      <trkpt lat="53.3109947" lon="-0.0588661"></trkpt>
      <trkpt lat="53.3107407" lon="-0.0590716"></trkpt>
      <trkpt lat="53.3103196" lon="-0.0594175"></trkpt>
      <trkpt lat="53.3101461" lon="-0.0595429"></trkpt>
      <trkpt lat="53.3098487" lon="-0.0597620"></trkpt>
      <trkpt lat="53.3095222" lon="-0.0600010"></trkpt>
      <trkpt lat="53.3093935" lon="-0.0600911"></trkpt>
      <trkpt lat="53.3092319" lon="-0.0602043"></trkpt>
      <trkpt lat="53.3089377" lon="-0.0603811"></trkpt>
      <trkpt lat="53.3088598" lon="-0.0604116"></trkpt>
      <trkpt lat="53.3087129" lon="-0.0604762"></trkpt>
      <trkpt lat="53.3085607" lon="-0.0605514"></trkpt>
      <trkpt lat="53.3083919" lon="-0.0606702"></trkpt>
      <trkpt lat="53.3081426" lon="-0.0607957"></trkpt>
      <trkpt lat="53.3080046" lon="-0.0608669"></trkpt>
      <trkpt lat="53.3079103" lon="-0.0609223"></trkpt>
      <trkpt lat="53.3078642" lon="-0.0609448"></trkpt>
      <trkpt lat="53.3077751" lon="-0.0609897"></trkpt>
      <trkpt lat="53.3076623" lon="-0.0610201"></trkpt>
      <trkpt lat="53.3075550" lon="-0.0610227"></trkpt>
      <trkpt lat="53.3074683" lon="-0.0610055"></trkpt>
      <trkpt lat="53.3073661" lon="-0.0609645"></trkpt>
      <trkpt lat="53.3073437" lon="-0.0609556"></trkpt>
      <trkpt lat="53.3072371" lon="-0.0608997"></trkpt>
      <trkpt lat="53.3070385" lon="-0.0607496"></trkpt>
      <trkpt lat="53.3068004" lon="-0.0605291"></trkpt>
      <trkpt lat="53.3064990" lon="-0.0602334"></trkpt>
      <trkpt lat="53.3063041" lon="-0.0600506"></trkpt>
      <trkpt lat="53.3062273" lon="-0.0599844"></trkpt>
      <trkpt lat="53.3061629" lon="-0.0599497"></trkpt>
      <trkpt lat="53.3060735" lon="-0.0599435"></trkpt>
      <trkpt lat="53.3059754" lon="-0.0599537"></trkpt>
      <trkpt lat="53.3058944" lon="-0.0599727"></trkpt>
      <trkpt lat="53.3057661" lon="-0.0600344"></trkpt>
      <trkpt lat="53.3056320" lon="-0.0601200"></trkpt>
      <trkpt lat="53.3054635" lon="-0.0602526"></trkpt>
      <trkpt lat="53.3053554" lon="-0.0603625"></trkpt>
      <trkpt lat="53.3052506" lon="-0.0604845"></trkpt>
      <trkpt lat="53.3051319" lon="-0.0606453"></trkpt>
      <trkpt lat="53.3050294" lon="-0.0607909"></trkpt>
      <trkpt lat="53.3049620" lon="-0.0609100"></trkpt>
      <trkpt lat="53.3049146" lon="-0.0610227"></trkpt>
      <trkpt lat="53.3048774" lon="-0.0611621"></trkpt>
      <trkpt lat="53.3048572" lon="-0.0613122"></trkpt>
      <trkpt lat="53.3048430" lon="-0.0614706"></trkpt>
      <trkpt lat="53.3048462" lon="-0.0616250"></trkpt>
      <trkpt lat="53.3048596" lon="-0.0617610"></trkpt>
      <trkpt lat="53.3048922" lon="-0.0619341"></trkpt>
      <trkpt lat="53.3049386" lon="-0.0620798"></trkpt>
      <trkpt lat="53.3049634" lon="-0.0621581"></trkpt>
      <trkpt lat="53.3050454" lon="-0.0623881"></trkpt>
      <trkpt lat="53.3051379" lon="-0.0626190"></trkpt>
      <trkpt lat="53.3052350" lon="-0.0628536"></trkpt>
      <trkpt lat="53.3052959" lon="-0.0629886"></trkpt>
    </trkseg>
  </trk>
</gpx>
