{"type":"FeatureCollection","name":"RoadRacer_Catalog_Track_Geofences","metadata":{"version":1,"feature_count":10,"detection":"haversine_point_radius","source":"australian_motorsport_tracks_1km_geofences.geojson"},"features":[{"type":"Feature","properties":{"trackId":"phillip_island","name":"Phillip Island Grand Prix Circuit","radius_m":1000},"geometry":{"type":"Point","coordinates":[145.2346,-38.4955]}},{"type":"Feature","properties":{"trackId":"mallala","name":"Mallala Motorsport Park","radius_m":1000},"geometry":{"type":"Point","coordinates":[138.5036,-34.4386]}},{"type":"Feature","properties":{"trackId":"mac_park","name":"McNamara Park Raceway (Mac Park)","radius_m":1000},"geometry":{"type":"Point","coordinates":[140.7904,-37.8522]}},{"type":"Feature","properties":{"trackId":"morgan_park","name":"Morgan Park Raceway (Circuit K)","radius_m":1000},"geometry":{"type":"Point","coordinates":[152.0353,-28.2162]}},{"type":"Feature","properties":{"trackId":"wakefield_park","name":"One Raceway (Wakefield Park)","radius_m":1000,"aliases":["One Raceway","Wakefield Park","Wakefield"]},"geometry":{"type":"Point","coordinates":[149.7207,-34.8615]}},{"type":"Feature","properties":{"trackId":"wanneroo","name":"Wanneroo Raceway (Barbagallo)","radius_m":1000},"geometry":{"type":"Point","coordinates":[115.7848,-31.6734]}},{"type":"Feature","properties":{"trackId":"the_bend","name":"The Bend Motorsport Park (International Circuit)","radius_m":1000},"geometry":{"type":"Point","coordinates":[139.5135,-35.2648]}},{"type":"Feature","properties":{"trackId":"sydney_motorsport_park","name":"Sydney Motorsport Park (Gardner GP Circuit)","radius_m":1000},"geometry":{"type":"Point","coordinates":[150.8706,-33.8093]}},{"type":"Feature","properties":{"trackId":"queensland_raceway","name":"Queensland Raceway (National Circuit)","radius_m":1000},"geometry":{"type":"Point","coordinates":[152.6543,-27.6727]}},{"type":"Feature","properties":{"trackId":"broadford","name":"Broadford State Motorcycle Complex","radius_m":1000},"geometry":{"type":"Point","coordinates":[145.0444,-37.211]}}]}